parent_id	parent_reactome_id	parent_name	parent_type	child_id	child_reactome_id	child_name	child_type	polarity	type
5685953	5685953	SIRT6 deacetylates RBBP8	Reaction	5685953_5684097_5684081	5684097	RBBP8 homotetramer [nucleoplasm]	Complex	POS	AND
5685953_5684097_5684081	5684097	RBBP8 homotetramer [nucleoplasm]	Complex	5684081	5684081	MRN complex binds CDK2 and RBBP8	Reaction	POS	AND
5693593	5693593	D-loop extension by DNA polymerases	Reaction	5693593_5686104_5686440	5686104	Extended D-Loop:p-MRN:p-S1981,Ac-K3016-ATM:KAT5:EXO1,DNA2:BLM,WRN:p-S990,Ac-K1249-BRIP1:p-BRCA1-C complex:PALB2:p-T3387-BRCA2:SEM1:p-T309-RAD51:RAD51AP1:CX3 complex [nucleoplasm]	Complex	POS	AND
5693593_5686104_5686440	5686104	Extended D-Loop:p-MRN:p-S1981,Ac-K3016-ATM:KAT5:EXO1,DNA2:BLM,WRN:p-S990,Ac-K1249-BRIP1:p-BRCA1-C complex:PALB2:p-T3387-BRCA2:SEM1:p-T309-RAD51:RAD51AP1:CX3 complex [nucleoplasm]	Complex	5686440	5686440	MUS81:EME1,EME2 cleaves D-loop	Reaction	POS	AND
5693593	5693593	D-loop extension by DNA polymerases	Reaction	5693593_5686104_5693589	5686104	Extended D-Loop:p-MRN:p-S1981,Ac-K3016-ATM:KAT5:EXO1,DNA2:BLM,WRN:p-S990,Ac-K1249-BRIP1:p-BRCA1-C complex:PALB2:p-T3387-BRCA2:SEM1:p-T309-RAD51:RAD51AP1:CX3 complex [nucleoplasm]	Complex	POS	AND
5693593_5686104_5693589	5686104	Extended D-Loop:p-MRN:p-S1981,Ac-K3016-ATM:KAT5:EXO1,DNA2:BLM,WRN:p-S990,Ac-K1249-BRIP1:p-BRCA1-C complex:PALB2:p-T3387-BRCA2:SEM1:p-T309-RAD51:RAD51AP1:CX3 complex [nucleoplasm]	Complex	5693589	5693589	D-loop dissociation and strand annealing	Reaction	POS	AND
5684071	5684071	RNF4 ubiquitinates MDC1	Reaction	5684071_5682162_5684081	5682162	DNA DSB:p-MRN:p-S1981,Ac-K3016-ATM:KAT5 [nucleoplasm]	Complex	POS	AND
5684071_5682162_5684081	5682162	DNA DSB:p-MRN:p-S1981,Ac-K3016-ATM:KAT5 [nucleoplasm]	Complex	5684081	5684081	MRN complex binds CDK2 and RBBP8	Reaction	POS	AND
5684071	5684071	RNF4 ubiquitinates MDC1	Reaction	5684071_9707299_5684108	9707299	p-5S-BRCA1:p-2T-BARD1 [nucleoplasm]	DefinedSet	POS	AND
5684071_9707299_5684108	9707299	p-5S-BRCA1:p-2T-BARD1 [nucleoplasm]	DefinedSet	5684108	5684108	BRCA1 binds phosphorylated RBBP8	Reaction	POS	AND
5686587	5686587	ABL1 phosphorylates RAD52	Reaction	5686587_5686589_5693580	5686589	p-Y104-RAD52 heptamer [nucleoplasm]	Complex	POS	AND
5686587_5686589_5693580	5686589	p-Y104-RAD52 heptamer [nucleoplasm]	Complex	5693580	5693580	Association of RAD52 with the RPA complex at resected DNA DSBs	Reaction	POS	AND
5684081	5684081	MRN complex binds CDK2 and RBBP8	Reaction	5684081_5684094_5684096	5684094	DNA DSBs:p-MRN:p-S1981,Ac-K3016-ATM:KAT5:CCNA:p-T160-CDK2:RBBP8 [nucleoplasm]	Complex	POS	AND
5684081_5684094_5684096	5684094	DNA DSBs:p-MRN:p-S1981,Ac-K3016-ATM:KAT5:CCNA:p-T160-CDK2:RBBP8 [nucleoplasm]	Complex	5684096	5684096	CDK2 phosphorylates RBBP8	Reaction	POS	AND
5685341	5685341	BCDX2 complex stabilizes RAD51 filament	Reaction	5685341_5685343_5693620	5685343	3' overhanging ssDNA-DSBs:p-MRN:p-S1981,Ac-K3016-ATM:KAT5:BRCA1-C complex:EXO1,DNA2:BLM,WRN:p-S990,Ac-K1249-BRIP1:p-T309-RAD51:p-T3387-BRCA2:SEM1:BCDX2 complex [nucleoplasm]	Complex	POS	AND
5685341_5685343_5693620	5685343	3' overhanging ssDNA-DSBs:p-MRN:p-S1981,Ac-K3016-ATM:KAT5:BRCA1-C complex:EXO1,DNA2:BLM,WRN:p-S990,Ac-K1249-BRIP1:p-T309-RAD51:p-T3387-BRCA2:SEM1:BCDX2 complex [nucleoplasm]	Complex	5693620	5693620	D-loop formation mediated by PALB2, BRCA2 and RAD51	Reaction	POS	AND
5684096	5684096	CDK2 phosphorylates RBBP8	Reaction	5684096_5684095_5684140	5684095	DNA DSBs:p-MRN:p-S327,T847-RBBP8:p-S1981,Ac-K3016-ATM:KAT5 [nucleoplasm]	Complex	POS	AND
5684096_5684095_5684140	5684095	DNA DSBs:p-MRN:p-S327,T847-RBBP8:p-S1981,Ac-K3016-ATM:KAT5 [nucleoplasm]	Complex	5684140	5684140	ATM phosphorylates RBBP8	Reaction	POS	AND
5686430	5686430	MUS81 binds EME1, EME2	Reaction	5686430_8933487_5686475	8933487	MUS81:EME1, (MUS81:EME2) [nucleoplasm]	CandidateSet	POS	AND
5686430_8933487_5686475	8933487	MUS81:EME1, (MUS81:EME2) [nucleoplasm]	CandidateSet	5686475	5686475	SLX1A:SLX4 binds MUS81:EME1,(MUS81:EME2)	Reaction	POS	AND
5684108	5684108	BRCA1 binds phosphorylated RBBP8	Reaction	5684108_5684107_5693608	5684107	DNA DSBs:p-MRN:p-S1981,Ac-K3016-ATM:KAT5:p-BRCA1-C complex [nucleoplasm]	Complex	POS	AND
5684108_5684107_5693608	5684107	DNA DSBs:p-MRN:p-S1981,Ac-K3016-ATM:KAT5:p-BRCA1-C complex [nucleoplasm]	Complex	5693608	5693608	Initial resection of double-strand break ends	Reaction	POS	AND
5685994	5685994	Long-range resection of DNA DSBs by EXO1 or DNA2	Reaction	5685994_5684128_5693542	5684128	3' overhanging ssDNA-DSBs:p-MRN:p-S1981,Ac-K3016-ATM:KAT5:BRCA1-C complex:EXO1,DNA2:BLM,WRN:p-S990,Ac-K1249-BRIP1 [nucleoplasm]	Complex	POS	AND
5685994_5684128_5693542	5684128	3' overhanging ssDNA-DSBs:p-MRN:p-S1981,Ac-K3016-ATM:KAT5:BRCA1-C complex:EXO1,DNA2:BLM,WRN:p-S990,Ac-K1249-BRIP1 [nucleoplasm]	Complex	5693542	5693542	Association of RPA complexes with ssDNA at resected DNA DSBs	Reaction	POS	AND
5685319	5685319	CX3 complex formation	Reaction	5685319_5685311_5685838	5685311	CX3 complex [nucleoplasm]	Complex	POS	AND
5685319_5685311_5685838	5685311	CX3 complex [nucleoplasm]	Complex	5685838	5685838	CX3 complex binds D-loop structures	Reaction	POS	AND
5684882	5684882	CHEK1 is recruited to resected DNA DSBs	Reaction	5684882_5684883_5684887	5684883	ATR:ATRIP:p-RPA:3' overhanging ssDNA-DSBs:p-MRN:p-S1981,Ac-K3016-ATM:KAT5:BRCA1-C complex:EXO1,DNA2:BLM,WRN:p-S990,Ac-K1249-BRIP1:RAD17:RFC:RAD9:HUS1:RAD1:RHNO1:TOPBP1:TIMELESS:TIPIN:p-T916,S945-CLSPN:CHEK1 [nucleoplasm]	Complex	POS	AND
5684882_5684883_5684887	5684883	ATR:ATRIP:p-RPA:3' overhanging ssDNA-DSBs:p-MRN:p-S1981,Ac-K3016-ATM:KAT5:BRCA1-C complex:EXO1,DNA2:BLM,WRN:p-S990,Ac-K1249-BRIP1:RAD17:RFC:RAD9:HUS1:RAD1:RHNO1:TOPBP1:TIMELESS:TIPIN:p-T916,S945-CLSPN:CHEK1 [nucleoplasm]	Complex	5684887	5684887	Activation of CHEK1 at resected DNA DSBs	Reaction	POS	AND
75998	75998	Formation of RAD52 heptameric ring structure complexes	Reaction	75998_83899_5686587	83899	RAD52 heptamer [nucleoplasm]	Complex	POS	AND
75998_83899_5686587	83899	RAD52 heptamer [nucleoplasm]	Complex	5686587	5686587	ABL1 phosphorylates RAD52	Reaction	POS	AND
5685011	5685011	ATR activation at DNA DSBs	Reaction	5685011_5685039_5685156	5685039	ATR:ATRIP:RPA:3' overhanging ssDNA-DSBs:p-MRN:p-S1981,Ac-K3016-ATM:KAT5:BRCA1-C complex:EXO1,DNA2:BLM,WRN:p-S990,Ac-K1249-BRIP1:RAD17:RFC:RAD9:HUS1:RAD1:RHNO1:TOPBP1 [nucleoplasm]	Complex	POS	AND
5685011_5685039_5685156	5685039	ATR:ATRIP:RPA:3' overhanging ssDNA-DSBs:p-MRN:p-S1981,Ac-K3016-ATM:KAT5:BRCA1-C complex:EXO1,DNA2:BLM,WRN:p-S990,Ac-K1249-BRIP1:RAD17:RFC:RAD9:HUS1:RAD1:RHNO1:TOPBP1 [nucleoplasm]	Complex	5685156	5685156	ATR phosphorylates RPA2	Reaction	POS	AND
5687758	5687758	PPP4C:PPP4R2 dephosphorylates RPA2	Reaction	5687758_68462_5693542	68462	RPA heterotrimer [nucleoplasm]	Complex	POS	AND
5687758_68462_5693542	68462	RPA heterotrimer [nucleoplasm]	Complex	5693542	5693542	Association of RPA complexes with ssDNA at resected DNA DSBs	Reaction	POS	AND
5684875	5684875	Binding of ATR:ATRIP to RPA at resected DNA DSBs	Reaction	5684875_5684874_5685011	5684874	ATR:ATRIP:RPA:3' overhanging ssDNA-DSBs:p-MRN:p-S1981,Ac-K3016-ATM:KAT5:BRCA1-C complex:EXO1,DNA2:BLM,WRN:p-S990,Ac-K1249-BRIP1 [nucleoplasm]	Complex	POS	AND
5684875_5684874_5685011	5684874	ATR:ATRIP:RPA:3' overhanging ssDNA-DSBs:p-MRN:p-S1981,Ac-K3016-ATM:KAT5:BRCA1-C complex:EXO1,DNA2:BLM,WRN:p-S990,Ac-K1249-BRIP1 [nucleoplasm]	Complex	5685011	5685011	ATR activation at DNA DSBs	Reaction	POS	AND
5693561	5693561	RAD51 binds BRCA2 at resected DNA DSBs	Reaction	5693561_5685169_5687758	5685169	p-RPA heterotrimer [nucleoplasm]	Complex	POS	AND
5693561_5685169_5687758	5685169	p-RPA heterotrimer [nucleoplasm]	Complex	5687758	5687758	PPP4C:PPP4R2 dephosphorylates RPA2	Reaction	POS	AND
5693561	5693561	RAD51 binds BRCA2 at resected DNA DSBs	Reaction	5693561_5685317_5685341	5685317	3' overhanging ssDNA-DSBs:p-MRN:p-S1981,Ac-K3016-ATM:KAT5:BRCA1-C complex:EXO1,DNA2:BLM,WRN:p-S990,Ac-K1249-BRIP1:p-T309-RAD51:p-T3387-BRCA2:SEM1 [nucleoplasm]	Complex	POS	AND
5693561_5685317_5685341	5685317	3' overhanging ssDNA-DSBs:p-MRN:p-S1981,Ac-K3016-ATM:KAT5:BRCA1-C complex:EXO1,DNA2:BLM,WRN:p-S990,Ac-K1249-BRIP1:p-T309-RAD51:p-T3387-BRCA2:SEM1 [nucleoplasm]	Complex	5685341	5685341	BCDX2 complex stabilizes RAD51 filament	Reaction	POS	AND
5693542	5693542	Association of RPA complexes with ssDNA at resected DNA DSBs	Reaction	5693542_5693552_5684875	5693552	RPA:3' overhanging ssDNA-DSBs:p-MRN:p-S1981,Ac-K3016-ATM:KAT5:BRCA1-C complex:EXO1,DNA2:BLM,WRN:p-S990,Ac-K1249-BRIP1 [nucleoplasm]	Complex	POS	AND
5693542_5693552_5684875	5693552	RPA:3' overhanging ssDNA-DSBs:p-MRN:p-S1981,Ac-K3016-ATM:KAT5:BRCA1-C complex:EXO1,DNA2:BLM,WRN:p-S990,Ac-K1249-BRIP1 [nucleoplasm]	Complex	5684875	5684875	Binding of ATR:ATRIP to RPA at resected DNA DSBs	Reaction	POS	AND
5685242	5685242	CHEK1 phosphorylates BRCA2	Reaction	5685242_9763139_5693561	9763139	p-T3387-BRCA2:SEM1 [nucleoplasm]	Complex	POS	AND
5685242_9763139_5693561	9763139	p-T3387-BRCA2:SEM1 [nucleoplasm]	Complex	5693561	5693561	RAD51 binds BRCA2 at resected DNA DSBs	Reaction	POS	AND
5685985	5685985	EXO1 or DNA2 in complex with BLM or WRN binds initially resected DNA DSBs along with BRIP1 recruitment	Reaction	5685985_5685989_5685994	5685989	3' short overhanging ssDNA-DSBs:p-MRN:p-S1981,Ac-K3016-ATM:KAT5:BRCA1-C complex:EXO1,DNA2:BLM,WRN:p-S990,Ac-K1249-BRIP1 [nucleoplasm]	Complex	POS	AND
5685985_5685989_5685994	5685989	3' short overhanging ssDNA-DSBs:p-MRN:p-S1981,Ac-K3016-ATM:KAT5:BRCA1-C complex:EXO1,DNA2:BLM,WRN:p-S990,Ac-K1249-BRIP1 [nucleoplasm]	Complex	5685994	5685994	Long-range resection of DNA DSBs by EXO1 or DNA2	Reaction	POS	AND
5693620	5693620	D-loop formation mediated by PALB2, BRCA2 and RAD51	Reaction	5693620_5685658_5685838	5685658	D-Loop:p-MRN:p-S1981,Ac-K3016-ATM:KAT5:EXO1,DNA2:BLM,WRN:p-S990,Ac-K1249-BRIP1:p-BRCA1-C complex:PALB2:p-T3387-BRCA2:SEM1:p-T309-RAD51:RAD51AP1 [nucleoplasm]	Complex	POS	AND
5693620_5685658_5685838	5685658	D-Loop:p-MRN:p-S1981,Ac-K3016-ATM:KAT5:EXO1,DNA2:BLM,WRN:p-S990,Ac-K1249-BRIP1:p-BRCA1-C complex:PALB2:p-T3387-BRCA2:SEM1:p-T309-RAD51:RAD51AP1 [nucleoplasm]	Complex	5685838	5685838	CX3 complex binds D-loop structures	Reaction	POS	AND
5685838	5685838	CX3 complex binds D-loop structures	Reaction	5685838_5685826_5693593	5685826	D-Loop:p-MRN:p-S1981,Ac-K3016-ATM:KAT5:EXO1,DNA2:BLM,WRN:p-S990,Ac-K1249-BRIP1:p-BRCA1-C complex:PALB2:p-T3387-BRCA2:SEM1:p-T309-RAD51:RAD51AP1:CX3 complex [nucleoplasm]	Complex	POS	AND
5685838_5685826_5693593	5685826	D-Loop:p-MRN:p-S1981,Ac-K3016-ATM:KAT5:EXO1,DNA2:BLM,WRN:p-S990,Ac-K1249-BRIP1:p-BRCA1-C complex:PALB2:p-T3387-BRCA2:SEM1:p-T309-RAD51:RAD51AP1:CX3 complex [nucleoplasm]	Complex	5693593	5693593	D-loop extension by DNA polymerases	Reaction	POS	AND
5686642	5686642	RAD52 promotes single strand annealing at resected DNA DSBs	Reaction	5686642_5686613_5686657	5686613	RAD51:p-Y104-RAD52:p-RPA:ATR:ATRIP:DNA DSBs with annealed 3' ssDNA overhangs and displaced flaps:p-MRN:p-S1981,Ac-K3016-ATM:KAT5:BRCA1-C complex:EXO1,DNA2:BLM,WRN:p-S990,Ac-K1249-BRIP1:RAD17:RFC:RAD9:HUS1:RAD1:RHNO1:TOPBP1 [nucleoplasm]	Complex	POS	AND
5686642_5686613_5686657	5686613	RAD51:p-Y104-RAD52:p-RPA:ATR:ATRIP:DNA DSBs with annealed 3' ssDNA overhangs and displaced flaps:p-MRN:p-S1981,Ac-K3016-ATM:KAT5:BRCA1-C complex:EXO1,DNA2:BLM,WRN:p-S990,Ac-K1249-BRIP1:RAD17:RFC:RAD9:HUS1:RAD1:RHNO1:TOPBP1 [nucleoplasm]	Complex	5686657	5686657	ERCC1:XPF cleaves flaps generated by SSA	Reaction	POS	AND
5684140	5684140	ATM phosphorylates RBBP8	Reaction	5684140_5684135_5684108	5684135	DNA DSBs:p-MRN:p-S327,T847,T859-RBBP8:p-S1981,Ac-K3016-ATM:KAT5 [nucleoplasm]	Complex	POS	AND
5684140_5684135_5684108	5684135	DNA DSBs:p-MRN:p-S327,T847,T859-RBBP8:p-S1981,Ac-K3016-ATM:KAT5 [nucleoplasm]	Complex	5684108	5684108	BRCA1 binds phosphorylated RBBP8	Reaction	POS	AND
5693580	5693580	Association of RAD52 with the RPA complex at resected DNA DSBs	Reaction	5693580_5693547_5693564	5693547	p-Y104-RAD52:p-RPA:ATR:ATRIP:3' overhanging ssDNA-DSBs:p-MRN:p-S1981,Ac-K3016-ATM:KAT5:BRCA1-C complex:EXO1,DNA2:BLM,WRN:p-S990,Ac-K1249-BRIP1:RAD17:RFC:RAD9:HUS1:RAD1:RHNO1:TOPBP1 [nucleoplasm]	Complex	POS	AND
5693580_5693547_5693564	5693547	p-Y104-RAD52:p-RPA:ATR:ATRIP:3' overhanging ssDNA-DSBs:p-MRN:p-S1981,Ac-K3016-ATM:KAT5:BRCA1-C complex:EXO1,DNA2:BLM,WRN:p-S990,Ac-K1249-BRIP1:RAD17:RFC:RAD9:HUS1:RAD1:RHNO1:TOPBP1 [nucleoplasm]	Complex	5693564	5693564	Association of RAD51 with RAD52:DNA double-strand break ends	Reaction	POS	AND
5685156	5685156	ATR phosphorylates RPA2	Reaction	5685156_5685162_5684882	5685162	ATR:ATRIP:p-RPA:3' overhanging ssDNA-DSBs:p-MRN:p-S1981,Ac-K3016-ATM:KAT5:BRCA1-C complex:EXO1,DNA2:BLM,WRN:p-S990,Ac-K1249-BRIP1:RAD17:RFC:RAD9:HUS1:RAD1:RHNO1:TOPBP1 [nucleoplasm]	Complex	POS	AND
5685156_5685162_5684882	5685162	ATR:ATRIP:p-RPA:3' overhanging ssDNA-DSBs:p-MRN:p-S1981,Ac-K3016-ATM:KAT5:BRCA1-C complex:EXO1,DNA2:BLM,WRN:p-S990,Ac-K1249-BRIP1:RAD17:RFC:RAD9:HUS1:RAD1:RHNO1:TOPBP1 [nucleoplasm]	Complex	5684882	5684882	CHEK1 is recruited to resected DNA DSBs	Reaction	POS	AND
5685156	5685156	ATR phosphorylates RPA2	Reaction	5685156_5685162_5693580	5685162	ATR:ATRIP:p-RPA:3' overhanging ssDNA-DSBs:p-MRN:p-S1981,Ac-K3016-ATM:KAT5:BRCA1-C complex:EXO1,DNA2:BLM,WRN:p-S990,Ac-K1249-BRIP1:RAD17:RFC:RAD9:HUS1:RAD1:RHNO1:TOPBP1 [nucleoplasm]	Complex	POS	AND
5685156_5685162_5693580	5685162	ATR:ATRIP:p-RPA:3' overhanging ssDNA-DSBs:p-MRN:p-S1981,Ac-K3016-ATM:KAT5:BRCA1-C complex:EXO1,DNA2:BLM,WRN:p-S990,Ac-K1249-BRIP1:RAD17:RFC:RAD9:HUS1:RAD1:RHNO1:TOPBP1 [nucleoplasm]	Complex	5693580	5693580	Association of RAD52 with the RPA complex at resected DNA DSBs	Reaction	POS	AND
5685230	5685230	CHEK1 phosphorylates RAD51	Reaction	5685230_5685231_5693561	5685231	p-T309-RAD51 [nucleoplasm]	EntityWithAccessionedSequence	POS	AND
5685230_5685231_5693561	5685231	p-T309-RAD51 [nucleoplasm]	EntityWithAccessionedSequence	5693561	5693561	RAD51 binds BRCA2 at resected DNA DSBs	Reaction	POS	AND
5693608	5693608	Initial resection of double-strand break ends	Reaction	5693608_5685983_5685985	5685983	3' short overhanging ssDNA-DSBs:p-MRN:p-S1981,Ac-K3016-ATM:KAT5:BRCA1-C complex [nucleoplasm]	Complex	POS	AND
5693608_5685983_5685985	5685983	3' short overhanging ssDNA-DSBs:p-MRN:p-S1981,Ac-K3016-ATM:KAT5:BRCA1-C complex [nucleoplasm]	Complex	5685985	5685985	EXO1 or DNA2 in complex with BLM or WRN binds initially resected DNA DSBs along with BRIP1 recruitment	Reaction	POS	AND
5684052	5684052	PIAS4 SUMOylates MDC1	Reaction	5684052_5684053_5684071	5684053	DNA DNA DSBs:p-MRN:p-S1981,Ac-K3016-ATM:KAT5:K63PolyUb-K14,K16,p-S139-H2AFX,Me2K21-HIST1H4A-Nucleosome:SUMO2:K1840,p-5T-MDC1:p-S102-WHSC1:RNF8:Zn2+:SUMO1:p-T4827-HERC2:UBE2N:UBE2V2:RNF168:PIAS4:p-S25,S1778-TP53BP1:p-5S,2T-BRCA1-A complex [nucleoplasm]	Complex	POS	AND
5684052_5684053_5684071	5684053	DNA DNA DSBs:p-MRN:p-S1981,Ac-K3016-ATM:KAT5:K63PolyUb-K14,K16,p-S139-H2AFX,Me2K21-HIST1H4A-Nucleosome:SUMO2:K1840,p-5T-MDC1:p-S102-WHSC1:RNF8:Zn2+:SUMO1:p-T4827-HERC2:UBE2N:UBE2V2:RNF168:PIAS4:p-S25,S1778-TP53BP1:p-5S,2T-BRCA1-A complex [nucleoplasm]	Complex	5684071	5684071	RNF4 ubiquitinates MDC1	Reaction	POS	AND
5693564	5693564	Association of RAD51 with RAD52:DNA double-strand break ends	Reaction	5693564_5693590_5686642	5693590	RAD51:p-Y104-RAD52:p-RPA:ATR:ATRIP:3' overhanging ssDNA-DSBs:p-MRN:p-S1981,Ac-K3016-ATM:KAT5:BRCA1-C complex:EXO1,DNA2:BLM,WRN:p-S990,Ac-K1249-BRIP1:RAD17:RFC:RAD9:HUS1:RAD1:RHNO1:TOPBP1 [nucleoplasm]	Complex	POS	AND
5693564_5693590_5686642	5693590	RAD51:p-Y104-RAD52:p-RPA:ATR:ATRIP:3' overhanging ssDNA-DSBs:p-MRN:p-S1981,Ac-K3016-ATM:KAT5:BRCA1-C complex:EXO1,DNA2:BLM,WRN:p-S990,Ac-K1249-BRIP1:RAD17:RFC:RAD9:HUS1:RAD1:RHNO1:TOPBP1 [nucleoplasm]	Complex	5686642	5686642	RAD52 promotes single strand annealing at resected DNA DSBs	Reaction	POS	AND
5685318	5685318	BCDX2 complex formation	Reaction	5685318_5685316_5685341	5685316	BCDX2 complex [nucleoplasm]	Complex	POS	AND
5685318_5685316_5685341	5685316	BCDX2 complex [nucleoplasm]	Complex	5685341	5685341	BCDX2 complex stabilizes RAD51 filament	Reaction	POS	AND
5686228	5686228	Holliday Junction:p-MRN:p-S1981,Ac-K3016-ATM:KAT5:EXO1,DNA2:BLM,WRN:p-S990,Ac-K1249-BRIP1:p-BRCA1-C complex:PALB2:p-T3387-BRCA2:SEM1:p-T309-RAD51:RAD51AP1:CX3 complex [nucleoplasm]	Complex	5686410	5686410	BLM mediates dissolution of double Holliday junction	Reaction	POS	AND
176269	176269	ATR:ATRIP [nucleoplasm]	Complex	5684875	5684875	Binding of ATR:ATRIP to RPA at resected DNA DSBs	Reaction	POS	AND
5686228	5686228	Holliday Junction:p-MRN:p-S1981,Ac-K3016-ATM:KAT5:EXO1,DNA2:BLM,WRN:p-S990,Ac-K1249-BRIP1:p-BRCA1-C complex:PALB2:p-T3387-BRCA2:SEM1:p-T309-RAD51:RAD51AP1:CX3 complex [nucleoplasm]	Complex	5693584	5693584	Cleavage of Holliday junctions by GEN1 or SLX1A:SLX4:MUS81:EME1,(MUS81:EME2)	Reaction	POS	AND
5684985	5684985	TIMELESS:TIPIN [nucleoplasm]	Complex	5684882	5684882	CHEK1 is recruited to resected DNA DSBs	Reaction	POS	AND
176296	176296	p-T916,S945-CLSPN [nucleoplasm]	EntityWithAccessionedSequence	5684882	5684882	CHEK1 is recruited to resected DNA DSBs	Reaction	POS	AND
113826	113826	CHEK1 [nucleoplasm]	EntityWithAccessionedSequence	5684882	5684882	CHEK1 is recruited to resected DNA DSBs	Reaction	POS	AND
176312	176312	RAD9:HUS1:RAD1 [nucleoplasm]	Complex	5685011	5685011	ATR activation at DNA DSBs	Reaction	POS	AND
5684878	5684878	TOPBP1 [nucleoplasm]	EntityWithAccessionedSequence	5685011	5685011	ATR activation at DNA DSBs	Reaction	POS	AND
5684880	5684880	RHNO1 [nucleoplasm]	EntityWithAccessionedSequence	5685011	5685011	ATR activation at DNA DSBs	Reaction	POS	AND
176353	176353	RAD17:RFC [nucleoplasm]	Complex	5685011	5685011	ATR activation at DNA DSBs	Reaction	POS	AND
5686443	5686443	MUS81 [nucleoplasm]	EntityWithAccessionedSequence	5686430	5686430	MUS81 binds EME1, EME2	Reaction	POS	AND
5686454	5686454	EME1,EME2 [nucleoplasm]	CandidateSet	5686430	5686430	MUS81 binds EME1, EME2	Reaction	POS	AND
1638790	1638790	Sister Chromatid [chromosome]	OtherEntity	5693620	5693620	D-loop formation mediated by PALB2, BRCA2 and RAD51	Reaction	POS	AND
419548	419548	PALB2 [nucleoplasm]	EntityWithAccessionedSequence	5693620	5693620	D-loop formation mediated by PALB2, BRCA2 and RAD51	Reaction	POS	AND
5685301	5685301	RAD51AP1 [nucleoplasm]	EntityWithAccessionedSequence	5693620	5693620	D-loop formation mediated by PALB2, BRCA2 and RAD51	Reaction	POS	AND
8866674	8866674	SEM1 [cytosol]	EntityWithAccessionedSequence	9763137	9763137	BRCA2 binds SEM1 (DSS1)	Reaction	POS	AND
9709265	9709265	BRCA2 [cytosol]	EntityWithAccessionedSequence	9763137	9763137	BRCA2 binds SEM1 (DSS1)	Reaction	POS	AND
5685960	5685960	Ac-K432,K526,K604-RBBP8 homotetramer [nucleoplasm]	Complex	5685953	5685953	SIRT6 deacetylates RBBP8	Reaction	POS	AND
217039	217039	RAD51C [nucleoplasm]	EntityWithAccessionedSequence	5685318	5685318	BCDX2 complex formation	Reaction	POS	AND
216920	216920	RAD51D [nucleoplasm]	EntityWithAccessionedSequence	5685318	5685318	BCDX2 complex formation	Reaction	POS	AND
983271	983271	RAD51B [nucleoplasm]	EntityWithAccessionedSequence	5685318	5685318	BCDX2 complex formation	Reaction	POS	AND
5685302	5685302	XRCC2 [nucleoplasm]	EntityWithAccessionedSequence	5685318	5685318	BCDX2 complex formation	Reaction	POS	AND
217039	217039	RAD51C [nucleoplasm]	EntityWithAccessionedSequence	5685319	5685319	CX3 complex formation	Reaction	POS	AND
5685303	5685303	XRCC3 [nucleoplasm]	EntityWithAccessionedSequence	5685319	5685319	CX3 complex formation	Reaction	POS	AND
5686480	5686480	SLX1A:SLX4 [nucleoplasm]	Complex	5686475	5686475	SLX1A:SLX4 binds MUS81:EME1,(MUS81:EME2)	Reaction	POS	AND
2993778	2993778	SUMO2:UBE2I [nucleoplasm]	Complex	5684052	5684052	PIAS4 SUMOylates MDC1	Reaction	POS	AND
5683808	5683808	DNA DNA DSBs:p-MRN:p-S1981,Ac-K3016-ATM:KAT5:K63PolyUb-K14,K16,p-S139-H2AFX,Me2K21-HIST1H4A-Nucleosome:p-5T-MDC1:p-S102-WHSC1:RNF8:Zn2+:SUMO1:p-T4827-HERC2:UBE2N:UBE2V2:RNF168:PIAS4:p-S25,S1778-TP53BP1:p-5S,2T-BRCA1-A complex [nucleoplasm]	Complex	5684052	5684052	PIAS4 SUMOylates MDC1	Reaction	POS	AND
62639	62639	RAD52 [nucleoplasm]	EntityWithAccessionedSequence	75998	75998	Formation of RAD52 heptameric ring structure complexes	Reaction	POS	AND
5685980	5685980	EXO1,DNA2:BLM,WRN [nucleoplasm]	DefinedSet	5685985	5685985	EXO1 or DNA2 in complex with BLM or WRN binds initially resected DNA DSBs along with BRIP1 recruitment	Reaction	POS	AND
5687710	5687710	p-S990,Ac-K1249-BRIP1 [nucleoplasm]	EntityWithAccessionedSequence	5685985	5685985	EXO1 or DNA2 in complex with BLM or WRN binds initially resected DNA DSBs along with BRIP1 recruitment	Reaction	POS	AND
68524	68524	Ub [nucleoplasm]	DefinedSet	5684071	5684071	RNF4 ubiquitinates MDC1	Reaction	POS	AND
62637	62637	RAD51 [nucleoplasm]	EntityWithAccessionedSequence	5685230	5685230	CHEK1 phosphorylates RAD51	Reaction	POS	AND
187952	187952	CCNA:p-T160-CDK2 [nucleoplasm]	Complex	5684081	5684081	MRN complex binds CDK2 and RBBP8	Reaction	POS	AND
5685162	5685162	ATR:ATRIP:p-RPA:3' overhanging ssDNA-DSBs:p-MRN:p-S1981,Ac-K3016-ATM:KAT5:BRCA1-C complex:EXO1,DNA2:BLM,WRN:p-S990,Ac-K1249-BRIP1:RAD17:RFC:RAD9:HUS1:RAD1:RHNO1:TOPBP1 [nucleoplasm]	Complex	5693561	5693561	RAD51 binds BRCA2 at resected DNA DSBs	Reaction	POS	AND
9763135	9763135	BRCA2:SEM1 [nucleoplasm]	Complex	5685242	5685242	CHEK1 phosphorylates BRCA2	Reaction	POS	AND
62637	62637	RAD51 [nucleoplasm]	EntityWithAccessionedSequence	5693564	5693564	Association of RAD51 with RAD52:DNA double-strand break ends	Reaction	POS	AND
5686408	5686408	SPIDR [nucleoplasm]	EntityWithAccessionedSequence	5686398	5686398	SPIDR binds BLM:TOP3A:RMI1:RMI2	Reaction	POS	AND
5685972	5685972	BLM:TOP3A:RMI1:RMI2 [nucleoplasm]	Complex	5686398	5686398	SPIDR binds BLM:TOP3A:RMI1:RMI2	Reaction	POS	AND
5684096	5684096	CDK2 phosphorylates RBBP8	Reaction	5684096_5684095	5684095	DNA DSBs:p-MRN:p-S327,T847-RBBP8:p-S1981,Ac-K3016-ATM:KAT5 [nucleoplasm]	Complex	POS	AND
5684096	5684096	CDK2 phosphorylates RBBP8	Reaction	187952_output	187952	CCNA:p-T160-CDK2 [nucleoplasm]	Complex	POS	AND
5686657	5686657	ERCC1:XPF cleaves flaps generated by SSA	Reaction	5684137_output	5684137	p-S327,T847,T859-RBBP8 homotetramer [nucleoplasm]	Complex	POS	AND
5686657	5686657	ERCC1:XPF cleaves flaps generated by SSA	Reaction	176312_output	176312	RAD9:HUS1:RAD1 [nucleoplasm]	Complex	POS	AND
5686657	5686657	ERCC1:XPF cleaves flaps generated by SSA	Reaction	5684878_output	5684878	TOPBP1 [nucleoplasm]	EntityWithAccessionedSequence	POS	AND
5686657	5686657	ERCC1:XPF cleaves flaps generated by SSA	Reaction	9707299_output	9707299	p-5S-BRCA1:p-2T-BARD1 [nucleoplasm]	DefinedSet	POS	AND
5686657	5686657	ERCC1:XPF cleaves flaps generated by SSA	Reaction	5686662_output	5686662	SSB-dsDNA with inter-SSA deletion [nucleoplasm]	OtherEntity	POS	AND
5686657	5686657	ERCC1:XPF cleaves flaps generated by SSA	Reaction	176269_output	176269	ATR:ATRIP [nucleoplasm]	Complex	POS	AND
5686657	5686657	ERCC1:XPF cleaves flaps generated by SSA	Reaction	62637_output	62637	RAD51 [nucleoplasm]	EntityWithAccessionedSequence	POS	AND
5686657	5686657	ERCC1:XPF cleaves flaps generated by SSA	Reaction	5686589_output	5686589	p-Y104-RAD52 heptamer [nucleoplasm]	Complex	POS	AND
5686657	5686657	ERCC1:XPF cleaves flaps generated by SSA	Reaction	5685980_output	5685980	EXO1,DNA2:BLM,WRN [nucleoplasm]	DefinedSet	POS	AND
5686657	5686657	ERCC1:XPF cleaves flaps generated by SSA	Reaction	3321979_output	3321979	KAT5 [nucleoplasm]	EntityWithAccessionedSequence	POS	AND
5686657	5686657	ERCC1:XPF cleaves flaps generated by SSA	Reaction	5687710_output	5687710	p-S990,Ac-K1249-BRIP1 [nucleoplasm]	EntityWithAccessionedSequence	POS	AND
5686657	5686657	ERCC1:XPF cleaves flaps generated by SSA	Reaction	5685169_output	5685169	p-RPA heterotrimer [nucleoplasm]	Complex	POS	AND
5686657	5686657	ERCC1:XPF cleaves flaps generated by SSA	Reaction	68454_output	68454	Flap [nucleoplasm]	OtherEntity	POS	AND
5686657	5686657	ERCC1:XPF cleaves flaps generated by SSA	Reaction	5684880_output	5684880	RHNO1 [nucleoplasm]	EntityWithAccessionedSequence	POS	AND
5686657	5686657	ERCC1:XPF cleaves flaps generated by SSA	Reaction	176353_output	176353	RAD17:RFC [nucleoplasm]	Complex	POS	AND
5686657	5686657	ERCC1:XPF cleaves flaps generated by SSA	Reaction	5693527_output	5693527	p-S1981,Ac-K3016-ATM [nucleoplasm]	EntityWithAccessionedSequence	POS	AND
5686657	5686657	ERCC1:XPF cleaves flaps generated by SSA	Reaction	5682166_output	5682166	p-MRN [nucleoplasm]	Complex	POS	AND
5686410	5686410	BLM mediates dissolution of double Holliday junction	Reaction	1638790_output	1638790	Sister Chromatid [chromosome]	OtherEntity	POS	AND
5686410	5686410	BLM mediates dissolution of double Holliday junction	Reaction	5684137_output	5684137	p-S327,T847,T859-RBBP8 homotetramer [nucleoplasm]	Complex	POS	AND
5686410	5686410	BLM mediates dissolution of double Holliday junction	Reaction	5693545_output	5693545	SEM1:p-T3387-BRCA2:p-T309-RAD51 complex [nucleoplasm]	Complex	POS	AND
5686410	5686410	BLM mediates dissolution of double Holliday junction	Reaction	419548_output	419548	PALB2 [nucleoplasm]	EntityWithAccessionedSequence	POS	AND
5686410	5686410	BLM mediates dissolution of double Holliday junction	Reaction	9707299_output	9707299	p-5S-BRCA1:p-2T-BARD1 [nucleoplasm]	DefinedSet	POS	AND
5686410	5686410	BLM mediates dissolution of double Holliday junction	Reaction	5649637_output	5649637	dsDNA [nucleoplasm]	GenomeEncodedEntity	POS	AND
5686410	5686410	BLM mediates dissolution of double Holliday junction	Reaction	5685316_output	5685316	BCDX2 complex [nucleoplasm]	Complex	POS	AND
5686410	5686410	BLM mediates dissolution of double Holliday junction	Reaction	5685980_output	5685980	EXO1,DNA2:BLM,WRN [nucleoplasm]	DefinedSet	POS	AND
5686410	5686410	BLM mediates dissolution of double Holliday junction	Reaction	3321979_output	3321979	KAT5 [nucleoplasm]	EntityWithAccessionedSequence	POS	AND
5686410	5686410	BLM mediates dissolution of double Holliday junction	Reaction	5685311_output	5685311	CX3 complex [nucleoplasm]	Complex	POS	AND
5686410	5686410	BLM mediates dissolution of double Holliday junction	Reaction	5687710_output	5687710	p-S990,Ac-K1249-BRIP1 [nucleoplasm]	EntityWithAccessionedSequence	POS	AND
5686410	5686410	BLM mediates dissolution of double Holliday junction	Reaction	5685301_output	5685301	RAD51AP1 [nucleoplasm]	EntityWithAccessionedSequence	POS	AND
5686410	5686410	BLM mediates dissolution of double Holliday junction	Reaction	5693527_output	5693527	p-S1981,Ac-K3016-ATM [nucleoplasm]	EntityWithAccessionedSequence	POS	AND
5686410	5686410	BLM mediates dissolution of double Holliday junction	Reaction	5682166_output	5682166	p-MRN [nucleoplasm]	Complex	POS	AND
5684875	5684875	Binding of ATR:ATRIP to RPA at resected DNA DSBs	Reaction	5684874_output	5684874	ATR:ATRIP:RPA:3' overhanging ssDNA-DSBs:p-MRN:p-S1981,Ac-K3016-ATM:KAT5:BRCA1-C complex:EXO1,DNA2:BLM,WRN:p-S990,Ac-K1249-BRIP1 [nucleoplasm]	Complex	POS	AND
5684108	5684108	BRCA1 binds phosphorylated RBBP8	Reaction	5684108_5684107	5684107	DNA DSBs:p-MRN:p-S1981,Ac-K3016-ATM:KAT5:p-BRCA1-C complex [nucleoplasm]	Complex	POS	AND
5693580	5693580	Association of RAD52 with the RPA complex at resected DNA DSBs	Reaction	5693547_output	5693547	p-Y104-RAD52:p-RPA:ATR:ATRIP:3' overhanging ssDNA-DSBs:p-MRN:p-S1981,Ac-K3016-ATM:KAT5:BRCA1-C complex:EXO1,DNA2:BLM,WRN:p-S990,Ac-K1249-BRIP1:RAD17:RFC:RAD9:HUS1:RAD1:RHNO1:TOPBP1 [nucleoplasm]	Complex	POS	AND
5693584	5693584	Cleavage of Holliday junctions by GEN1 or SLX1A:SLX4:MUS81:EME1,(MUS81:EME2)	Reaction	5686493_output	5686493	Cleaved Holliday Junction:p-MRN:p-S1981,Ac-K3016-ATM:KAT5:EXO1,DNA2:BLM,WRN:p-BRCA1-C complex:PALB2:p-T3387-BRCA2:SEM1:p-T309-RAD51:RAD51AP1:CX3 complex [nucleoplasm]	Complex	POS	AND
5684882	5684882	CHEK1 is recruited to resected DNA DSBs	Reaction	5684882_5684883	5684883	ATR:ATRIP:p-RPA:3' overhanging ssDNA-DSBs:p-MRN:p-S1981,Ac-K3016-ATM:KAT5:BRCA1-C complex:EXO1,DNA2:BLM,WRN:p-S990,Ac-K1249-BRIP1:RAD17:RFC:RAD9:HUS1:RAD1:RHNO1:TOPBP1:TIMELESS:TIPIN:p-T916,S945-CLSPN:CHEK1 [nucleoplasm]	Complex	POS	AND
5685011	5685011	ATR activation at DNA DSBs	Reaction	5685011_5685039	5685039	ATR:ATRIP:RPA:3' overhanging ssDNA-DSBs:p-MRN:p-S1981,Ac-K3016-ATM:KAT5:BRCA1-C complex:EXO1,DNA2:BLM,WRN:p-S990,Ac-K1249-BRIP1:RAD17:RFC:RAD9:HUS1:RAD1:RHNO1:TOPBP1 [nucleoplasm]	Complex	POS	AND
5693589	5693589	D-loop dissociation and strand annealing	Reaction	5684137_output	5684137	p-S327,T847,T859-RBBP8 homotetramer [nucleoplasm]	Complex	POS	AND
5693589	5693589	D-loop dissociation and strand annealing	Reaction	5693545_output	5693545	SEM1:p-T3387-BRCA2:p-T309-RAD51 complex [nucleoplasm]	Complex	POS	AND
5693589	5693589	D-loop dissociation and strand annealing	Reaction	1638790_output	1638790	Sister Chromatid [chromosome]	OtherEntity	POS	AND
5693589	5693589	D-loop dissociation and strand annealing	Reaction	419548_output	419548	PALB2 [nucleoplasm]	EntityWithAccessionedSequence	POS	AND
5693589	5693589	D-loop dissociation and strand annealing	Reaction	9707299_output	9707299	p-5S-BRCA1:p-2T-BARD1 [nucleoplasm]	DefinedSet	POS	AND
5693589	5693589	D-loop dissociation and strand annealing	Reaction	5685316_output	5685316	BCDX2 complex [nucleoplasm]	Complex	POS	AND
5693589	5693589	D-loop dissociation and strand annealing	Reaction	5685980_output	5685980	EXO1,DNA2:BLM,WRN [nucleoplasm]	DefinedSet	POS	AND
5693589	5693589	D-loop dissociation and strand annealing	Reaction	3321979_output	3321979	KAT5 [nucleoplasm]	EntityWithAccessionedSequence	POS	AND
5693589	5693589	D-loop dissociation and strand annealing	Reaction	5685311_output	5685311	CX3 complex [nucleoplasm]	Complex	POS	AND
5693589	5693589	D-loop dissociation and strand annealing	Reaction	5687710_output	5687710	p-S990,Ac-K1249-BRIP1 [nucleoplasm]	EntityWithAccessionedSequence	POS	AND
5693589	5693589	D-loop dissociation and strand annealing	Reaction	84009_output	84009	ss-gap-reannealed DNA [nucleoplasm]	OtherEntity	POS	AND
5693589	5693589	D-loop dissociation and strand annealing	Reaction	5685301_output	5685301	RAD51AP1 [nucleoplasm]	EntityWithAccessionedSequence	POS	AND
5693589	5693589	D-loop dissociation and strand annealing	Reaction	5693527_output	5693527	p-S1981,Ac-K3016-ATM [nucleoplasm]	EntityWithAccessionedSequence	POS	AND
5693589	5693589	D-loop dissociation and strand annealing	Reaction	5682166_output	5682166	p-MRN [nucleoplasm]	Complex	POS	AND
5684887	5684887	Activation of CHEK1 at resected DNA DSBs	Reaction	5684985_output	5684985	TIMELESS:TIPIN [nucleoplasm]	Complex	POS	AND
5684887	5684887	Activation of CHEK1 at resected DNA DSBs	Reaction	5684887_113838	113838	p-S317,S345-CHEK1 [nucleoplasm]	EntityWithAccessionedSequence	POS	AND
5684887	5684887	Activation of CHEK1 at resected DNA DSBs	Reaction	5685162_output	5685162	ATR:ATRIP:p-RPA:3' overhanging ssDNA-DSBs:p-MRN:p-S1981,Ac-K3016-ATM:KAT5:BRCA1-C complex:EXO1,DNA2:BLM,WRN:p-S990,Ac-K1249-BRIP1:RAD17:RFC:RAD9:HUS1:RAD1:RHNO1:TOPBP1 [nucleoplasm]	Complex	POS	AND
5684887	5684887	Activation of CHEK1 at resected DNA DSBs	Reaction	176296_output	176296	p-T916,S945-CLSPN [nucleoplasm]	EntityWithAccessionedSequence	POS	AND
5693593	5693593	D-loop extension by DNA polymerases	Reaction	5686104_output	5686104	Extended D-Loop:p-MRN:p-S1981,Ac-K3016-ATM:KAT5:EXO1,DNA2:BLM,WRN:p-S990,Ac-K1249-BRIP1:p-BRCA1-C complex:PALB2:p-T3387-BRCA2:SEM1:p-T309-RAD51:RAD51AP1:CX3 complex [nucleoplasm]	Complex	POS	AND
5686430	5686430	MUS81 binds EME1, EME2	Reaction	5686430_8933487	8933487	MUS81:EME1, (MUS81:EME2) [nucleoplasm]	CandidateSet	POS	AND
5685156	5685156	ATR phosphorylates RPA2	Reaction	5685162_output	5685162	ATR:ATRIP:p-RPA:3' overhanging ssDNA-DSBs:p-MRN:p-S1981,Ac-K3016-ATM:KAT5:BRCA1-C complex:EXO1,DNA2:BLM,WRN:p-S990,Ac-K1249-BRIP1:RAD17:RFC:RAD9:HUS1:RAD1:RHNO1:TOPBP1 [nucleoplasm]	Complex	POS	AND
5686440	5686440	MUS81:EME1,EME2 cleaves D-loop	Reaction	5686432_output	5686432	Cleaved D-Loop:p-MRN:p-S1981,Ac-K3016-ATM:KAT5:EXO1,DNA2:BLM,WRN:p-BRCA1-C complex:PALB2:p-T3387-BRCA2:p-T309-RAD51:RAD51AP1:CX3 complex [nucleoplasm]	Complex	POS	AND
5693608	5693608	Initial resection of double-strand break ends	Reaction	5685983_output	5685983	3' short overhanging ssDNA-DSBs:p-MRN:p-S1981,Ac-K3016-ATM:KAT5:BRCA1-C complex [nucleoplasm]	Complex	POS	AND
5684140	5684140	ATM phosphorylates RBBP8	Reaction	5684135_output	5684135	DNA DSBs:p-MRN:p-S327,T847,T859-RBBP8:p-S1981,Ac-K3016-ATM:KAT5 [nucleoplasm]	Complex	POS	AND
5693620	5693620	D-loop formation mediated by PALB2, BRCA2 and RAD51	Reaction	5685658_output	5685658	D-Loop:p-MRN:p-S1981,Ac-K3016-ATM:KAT5:EXO1,DNA2:BLM,WRN:p-S990,Ac-K1249-BRIP1:p-BRCA1-C complex:PALB2:p-T3387-BRCA2:SEM1:p-T309-RAD51:RAD51AP1 [nucleoplasm]	Complex	POS	AND
5686587	5686587	ABL1 phosphorylates RAD52	Reaction	5686589_output	5686589	p-Y104-RAD52 heptamer [nucleoplasm]	Complex	POS	AND
9763137	9763137	BRCA2 binds SEM1 (DSS1)	Reaction	9763138_output	9763138	BRCA2:SEM1 [cytosol]	Complex	POS	AND
5685953	5685953	SIRT6 deacetylates RBBP8	Reaction	5684097_output	5684097	RBBP8 homotetramer [nucleoplasm]	Complex	POS	AND
5685318	5685318	BCDX2 complex formation	Reaction	5685316_output	5685316	BCDX2 complex [nucleoplasm]	Complex	POS	AND
5685319	5685319	CX3 complex formation	Reaction	5685311_output	5685311	CX3 complex [nucleoplasm]	Complex	POS	AND
5686475	5686475	SLX1A:SLX4 binds MUS81:EME1,(MUS81:EME2)	Reaction	5686474_output	5686474	SLX1A:SLX4:MUS81:EME1,(MUS81:EME2) [nucleoplasm]	Complex	POS	AND
5685838	5685838	CX3 complex binds D-loop structures	Reaction	5685826_output	5685826	D-Loop:p-MRN:p-S1981,Ac-K3016-ATM:KAT5:EXO1,DNA2:BLM,WRN:p-S990,Ac-K1249-BRIP1:p-BRCA1-C complex:PALB2:p-T3387-BRCA2:SEM1:p-T309-RAD51:RAD51AP1:CX3 complex [nucleoplasm]	Complex	POS	AND
5687758	5687758	PPP4C:PPP4R2 dephosphorylates RPA2	Reaction	68462_output	68462	RPA heterotrimer [nucleoplasm]	Complex	POS	AND
5684052	5684052	PIAS4 SUMOylates MDC1	Reaction	912481_output	912481	UBE2I [nucleoplasm]	EntityWithAccessionedSequence	POS	AND
5684052	5684052	PIAS4 SUMOylates MDC1	Reaction	5684053_output	5684053	DNA DNA DSBs:p-MRN:p-S1981,Ac-K3016-ATM:KAT5:K63PolyUb-K14,K16,p-S139-H2AFX,Me2K21-HIST1H4A-Nucleosome:SUMO2:K1840,p-5T-MDC1:p-S102-WHSC1:RNF8:Zn2+:SUMO1:p-T4827-HERC2:UBE2N:UBE2V2:RNF168:PIAS4:p-S25,S1778-TP53BP1:p-5S,2T-BRCA1-A complex [nucleoplasm]	Complex	POS	AND
5685341	5685341	BCDX2 complex stabilizes RAD51 filament	Reaction	5685343_output	5685343	3' overhanging ssDNA-DSBs:p-MRN:p-S1981,Ac-K3016-ATM:KAT5:BRCA1-C complex:EXO1,DNA2:BLM,WRN:p-S990,Ac-K1249-BRIP1:p-T309-RAD51:p-T3387-BRCA2:SEM1:BCDX2 complex [nucleoplasm]	Complex	POS	AND
75998	75998	Formation of RAD52 heptameric ring structure complexes	Reaction	83899_output	83899	RAD52 heptamer [nucleoplasm]	Complex	POS	AND
5685985	5685985	EXO1 or DNA2 in complex with BLM or WRN binds initially resected DNA DSBs along with BRIP1 recruitment	Reaction	5685985_5685989	5685989	3' short overhanging ssDNA-DSBs:p-MRN:p-S1981,Ac-K3016-ATM:KAT5:BRCA1-C complex:EXO1,DNA2:BLM,WRN:p-S990,Ac-K1249-BRIP1 [nucleoplasm]	Complex	POS	AND
5693542	5693542	Association of RPA complexes with ssDNA at resected DNA DSBs	Reaction	5693552_output	5693552	RPA:3' overhanging ssDNA-DSBs:p-MRN:p-S1981,Ac-K3016-ATM:KAT5:BRCA1-C complex:EXO1,DNA2:BLM,WRN:p-S990,Ac-K1249-BRIP1 [nucleoplasm]	Complex	POS	AND
5684071	5684071	RNF4 ubiquitinates MDC1	Reaction	5682984_output	5682984	p-S102-WHSC1 [nucleoplasm]	EntityWithAccessionedSequence	POS	AND
5684071	5684071	RNF4 ubiquitinates MDC1	Reaction	5684077_output	5684077	K48PolyUb:SUMO2:K1840,p-5T-MDC1 dimer [nucleoplasm]	Complex	POS	AND
5684071	5684071	RNF4 ubiquitinates MDC1	Reaction	5682540_output	5682540	RNF8:Zn2+ [nucleoplasm]	Complex	POS	AND
5684071	5684071	RNF4 ubiquitinates MDC1	Reaction	5682575_output	5682575	p-S406-FAM175A [nucleoplasm]	EntityWithAccessionedSequence	POS	AND
5684071	5684071	RNF4 ubiquitinates MDC1	Reaction	5682574_output	5682574	UIMC1 [nucleoplasm]	EntityWithAccessionedSequence	POS	AND
5684071	5684071	RNF4 ubiquitinates MDC1	Reaction	5682542_output	5682542	UBE2N:UBE2V2 [nucleoplasm]	Complex	POS	AND
5684071	5684071	RNF4 ubiquitinates MDC1	Reaction	9707299_output	9707299	p-5S-BRCA1:p-2T-BARD1 [nucleoplasm]	DefinedSet	POS	AND
5684071	5684071	RNF4 ubiquitinates MDC1	Reaction	2993789_output	2993789	PIAS4 [nucleoplasm]	EntityWithAccessionedSequence	POS	AND
5684071	5684071	RNF4 ubiquitinates MDC1	Reaction	4551605_output	4551605	RNF168 [nucleoplasm]	EntityWithAccessionedSequence	POS	AND
5684071	5684071	RNF4 ubiquitinates MDC1	Reaction	5683418_output	5683418	p-S25,S1778-TP53BP1 [nucleoplasm]	EntityWithAccessionedSequence	POS	AND
5684071	5684071	RNF4 ubiquitinates MDC1	Reaction	5682577_output	5682577	BRCC3 [nucleoplasm]	EntityWithAccessionedSequence	POS	AND
5684071	5684071	RNF4 ubiquitinates MDC1	Reaction	5682579_output	5682579	BRE [nucleoplasm]	EntityWithAccessionedSequence	POS	AND
5684071	5684071	RNF4 ubiquitinates MDC1	Reaction	5682162_output	5682162	DNA DSB:p-MRN:p-S1981,Ac-K3016-ATM:KAT5 [nucleoplasm]	Complex	POS	AND
5684071	5684071	RNF4 ubiquitinates MDC1	Reaction	5682615_output	5682615	p-T4827,SUMO1-HERC2 [nucleoplasm]	EntityWithAccessionedSequence	POS	AND
5684071	5684071	RNF4 ubiquitinates MDC1	Reaction	5682582_output	5682582	BABAM1 [nucleoplasm]	EntityWithAccessionedSequence	POS	AND
5684071	5684071	RNF4 ubiquitinates MDC1	Reaction	5682998_output	5682998	K63PolyUb:K14,K16,p-S139-H2AFX,Me2K21-HIST1H4A-Nucleosome [nucleoplasm]	Complex	POS	AND
5685994	5685994	Long-range resection of DNA DSBs by EXO1 or DNA2	Reaction	5684128_output	5684128	3' overhanging ssDNA-DSBs:p-MRN:p-S1981,Ac-K3016-ATM:KAT5:BRCA1-C complex:EXO1,DNA2:BLM,WRN:p-S990,Ac-K1249-BRIP1 [nucleoplasm]	Complex	POS	AND
5685230	5685230	CHEK1 phosphorylates RAD51	Reaction	5685231_output	5685231	p-T309-RAD51 [nucleoplasm]	EntityWithAccessionedSequence	POS	AND
5684081	5684081	MRN complex binds CDK2 and RBBP8	Reaction	5684081_5684094	5684094	DNA DSBs:p-MRN:p-S1981,Ac-K3016-ATM:KAT5:CCNA:p-T160-CDK2:RBBP8 [nucleoplasm]	Complex	POS	AND
5686642	5686642	RAD52 promotes single strand annealing at resected DNA DSBs	Reaction	5686613_output	5686613	RAD51:p-Y104-RAD52:p-RPA:ATR:ATRIP:DNA DSBs with annealed 3' ssDNA overhangs and displaced flaps:p-MRN:p-S1981,Ac-K3016-ATM:KAT5:BRCA1-C complex:EXO1,DNA2:BLM,WRN:p-S990,Ac-K1249-BRIP1:RAD17:RFC:RAD9:HUS1:RAD1:RHNO1:TOPBP1 [nucleoplasm]	Complex	POS	AND
5693561	5693561	RAD51 binds BRCA2 at resected DNA DSBs	Reaction	176269_output	176269	ATR:ATRIP [nucleoplasm]	Complex	POS	AND
5693561	5693561	RAD51 binds BRCA2 at resected DNA DSBs	Reaction	176312_output	176312	RAD9:HUS1:RAD1 [nucleoplasm]	Complex	POS	AND
5693561	5693561	RAD51 binds BRCA2 at resected DNA DSBs	Reaction	5684878_output	5684878	TOPBP1 [nucleoplasm]	EntityWithAccessionedSequence	POS	AND
5693561	5693561	RAD51 binds BRCA2 at resected DNA DSBs	Reaction	5685169_output	5685169	p-RPA heterotrimer [nucleoplasm]	Complex	POS	AND
5693561	5693561	RAD51 binds BRCA2 at resected DNA DSBs	Reaction	5684880_output	5684880	RHNO1 [nucleoplasm]	EntityWithAccessionedSequence	POS	AND
5693561	5693561	RAD51 binds BRCA2 at resected DNA DSBs	Reaction	176353_output	176353	RAD17:RFC [nucleoplasm]	Complex	POS	AND
5693561	5693561	RAD51 binds BRCA2 at resected DNA DSBs	Reaction	5685317_output	5685317	3' overhanging ssDNA-DSBs:p-MRN:p-S1981,Ac-K3016-ATM:KAT5:BRCA1-C complex:EXO1,DNA2:BLM,WRN:p-S990,Ac-K1249-BRIP1:p-T309-RAD51:p-T3387-BRCA2:SEM1 [nucleoplasm]	Complex	POS	AND
5685242	5685242	CHEK1 phosphorylates BRCA2	Reaction	9763139_output	9763139	p-T3387-BRCA2:SEM1 [nucleoplasm]	Complex	POS	AND
5693564	5693564	Association of RAD51 with RAD52:DNA double-strand break ends	Reaction	5693564_5693590	5693590	RAD51:p-Y104-RAD52:p-RPA:ATR:ATRIP:3' overhanging ssDNA-DSBs:p-MRN:p-S1981,Ac-K3016-ATM:KAT5:BRCA1-C complex:EXO1,DNA2:BLM,WRN:p-S990,Ac-K1249-BRIP1:RAD17:RFC:RAD9:HUS1:RAD1:RHNO1:TOPBP1 [nucleoplasm]	Complex	POS	AND
5686398	5686398	SPIDR binds BLM:TOP3A:RMI1:RMI2	Reaction	5686398_5686409	5686409	BLM:TOP3A:RMI1:RMI2:SPIDR [nucleoplasm]	Complex	POS	AND
5686112	5686112	RTEL1 [nucleoplasm]	EntityWithAccessionedSequence	5686110	5686110	DNA helicase activity of RTEL1 [nucleoplasm]	CatalystActivity	POS	AND
5686110	5686110	DNA helicase activity of RTEL1 [nucleoplasm]	CatalystActivity	5693589	5693589	D-loop dissociation and strand annealing	Reaction	POS	AND
5686489	5686489	SLX1A:SLX4:MUS81:EME1,(MUS81:EME2),GEN1 [nucleoplasm]	DefinedSet	5686490	5686490	endodeoxyribonuclease activity of SLX1A:SLX4:MUS81:EME1,(MUS81:EME2),GEN1 [nucleoplasm]	CatalystActivity	POS	AND
5686490	5686490	endodeoxyribonuclease activity of SLX1A:SLX4:MUS81:EME1,(MUS81:EME2),GEN1 [nucleoplasm]	CatalystActivity	5693584	5693584	Cleavage of Holliday junctions by GEN1 or SLX1A:SLX4:MUS81:EME1,(MUS81:EME2)	Reaction	POS	AND
5686398_5686409	5686409	BLM:TOP3A:RMI1:RMI2:SPIDR [nucleoplasm]	Complex	5686391	5686391	helicase activity of BLM:TOP3A:RMI1:RMI2:SPIDR [nucleoplasm]	CatalystActivity	POS	AND
5686391	5686391	helicase activity of BLM:TOP3A:RMI1:RMI2:SPIDR [nucleoplasm]	CatalystActivity	5686410	5686410	BLM mediates dissolution of double Holliday junction	Reaction	POS	AND
5686430_8933487	8933487	MUS81:EME1, (MUS81:EME2) [nucleoplasm]	CandidateSet	5686450	5686450	endodeoxyribonuclease activity of MUS81:EME1, (MUS81:EME2) [nucleoplasm]	CatalystActivity	POS	AND
5686430_8933487_5686475	8933487	MUS81:EME1, (MUS81:EME2) [nucleoplasm]	CandidateSet	5686450	5686450	endodeoxyribonuclease activity of MUS81:EME1, (MUS81:EME2) [nucleoplasm]	CatalystActivity	POS	AND
5686450	5686450	endodeoxyribonuclease activity of MUS81:EME1, (MUS81:EME2) [nucleoplasm]	CatalystActivity	5686440	5686440	MUS81:EME1,EME2 cleaves D-loop	Reaction	POS	AND
5684887_113838	113838	p-S317,S345-CHEK1 [nucleoplasm]	EntityWithAccessionedSequence	182636	182636	protein serine/threonine kinase activity of p-S317,S345-CHEK1 [nucleoplasm]	CatalystActivity	POS	AND
182636	182636	protein serine/threonine kinase activity of p-S317,S345-CHEK1 [nucleoplasm]	CatalystActivity	5685230	5685230	CHEK1 phosphorylates RAD51	Reaction	POS	AND
182636	182636	protein serine/threonine kinase activity of p-S317,S345-CHEK1 [nucleoplasm]	CatalystActivity	5685242	5685242	CHEK1 phosphorylates BRCA2	Reaction	POS	AND
5686084	5686084	PCNA:POLD,POLE,POLH,POLK:RPA:RFC [nucleoplasm]	CandidateSet	5686086	5686086	DNA-directed DNA polymerase activity of PCNA:POLD,POLE,POLH,POLK:RPA:RFC [nucleoplasm]	CatalystActivity	POS	AND
5686086	5686086	DNA-directed DNA polymerase activity of PCNA:POLD,POLE,POLH,POLK:RPA:RFC [nucleoplasm]	CatalystActivity	5693593	5693593	D-loop extension by DNA polymerases	Reaction	POS	AND
5684108_5684107	5684107	DNA DSBs:p-MRN:p-S1981,Ac-K3016-ATM:KAT5:p-BRCA1-C complex [nucleoplasm]	Complex	5684133	5684133	endodeoxyribonuclease activity of DNA DSBs:p-MRN:p-S1981,Ac-K3016-ATM:KAT5:p-BRCA1-C complex [nucleoplasm]	CatalystActivity	POS	AND
5684108_5684107_5693608	5684107	DNA DSBs:p-MRN:p-S1981,Ac-K3016-ATM:KAT5:p-BRCA1-C complex [nucleoplasm]	Complex	5684133	5684133	endodeoxyribonuclease activity of DNA DSBs:p-MRN:p-S1981,Ac-K3016-ATM:KAT5:p-BRCA1-C complex [nucleoplasm]	CatalystActivity	POS	AND
5684133	5684133	endodeoxyribonuclease activity of DNA DSBs:p-MRN:p-S1981,Ac-K3016-ATM:KAT5:p-BRCA1-C complex [nucleoplasm]	CatalystActivity	5693608	5693608	Initial resection of double-strand break ends	Reaction	POS	AND
5685985_5685989	5685989	3' short overhanging ssDNA-DSBs:p-MRN:p-S1981,Ac-K3016-ATM:KAT5:BRCA1-C complex:EXO1,DNA2:BLM,WRN:p-S990,Ac-K1249-BRIP1 [nucleoplasm]	Complex	5685992	5685992	deoxyribonuclease activity of 3' short overhanging ssDNA-DSBs:p-MRN:p-S1981,Ac-K3016-ATM:KAT5:BRCA1-C complex:EXO1,DNA2:BLM,WRN:p-S990,Ac-K1249-BRIP1 [nucleoplasm]	CatalystActivity	POS	AND
5685985_5685989_5685994	5685989	3' short overhanging ssDNA-DSBs:p-MRN:p-S1981,Ac-K3016-ATM:KAT5:BRCA1-C complex:EXO1,DNA2:BLM,WRN:p-S990,Ac-K1249-BRIP1 [nucleoplasm]	Complex	5685992	5685992	deoxyribonuclease activity of 3' short overhanging ssDNA-DSBs:p-MRN:p-S1981,Ac-K3016-ATM:KAT5:BRCA1-C complex:EXO1,DNA2:BLM,WRN:p-S990,Ac-K1249-BRIP1 [nucleoplasm]	CatalystActivity	POS	AND
5685992	5685992	deoxyribonuclease activity of 3' short overhanging ssDNA-DSBs:p-MRN:p-S1981,Ac-K3016-ATM:KAT5:BRCA1-C complex:EXO1,DNA2:BLM,WRN:p-S990,Ac-K1249-BRIP1 [nucleoplasm]	CatalystActivity	5685994	5685994	Long-range resection of DNA DSBs by EXO1 or DNA2	Reaction	POS	AND
5684096_5684095_5684140	5684095	DNA DSBs:p-MRN:p-S327,T847-RBBP8:p-S1981,Ac-K3016-ATM:KAT5 [nucleoplasm]	Complex	5684141	5684141	protein serine/threonine kinase activity of DNA DSBs:p-MRN:p-S327,T847-RBBP8:p-S1981,Ac-K3016-ATM:KAT5 [nucleoplasm]	CatalystActivity	POS	AND
5684096_5684095	5684095	DNA DSBs:p-MRN:p-S327,T847-RBBP8:p-S1981,Ac-K3016-ATM:KAT5 [nucleoplasm]	Complex	5684141	5684141	protein serine/threonine kinase activity of DNA DSBs:p-MRN:p-S327,T847-RBBP8:p-S1981,Ac-K3016-ATM:KAT5 [nucleoplasm]	CatalystActivity	POS	AND
5684141	5684141	protein serine/threonine kinase activity of DNA DSBs:p-MRN:p-S327,T847-RBBP8:p-S1981,Ac-K3016-ATM:KAT5 [nucleoplasm]	CatalystActivity	5684140	5684140	ATM phosphorylates RBBP8	Reaction	POS	AND
5687751	5687751	PPP4C:PPP4R2 [nucleoplasm]	Complex	5687756	5687756	protein serine/threonine phosphatase activity of PPP4C:PPP4R2 [nucleoplasm]	CatalystActivity	POS	AND
5687756	5687756	protein serine/threonine phosphatase activity of PPP4C:PPP4R2 [nucleoplasm]	CatalystActivity	5687758	5687758	PPP4C:PPP4R2 dephosphorylates RPA2	Reaction	POS	AND
5685963	5685963	SIRT6 [nucleoplasm]	EntityWithAccessionedSequence	5685961	5685961	NAD-dependent protein deacetylase activity of SIRT6 [nucleoplasm]	CatalystActivity	POS	AND
5685961	5685961	NAD-dependent protein deacetylase activity of SIRT6 [nucleoplasm]	CatalystActivity	5685953	5685953	SIRT6 deacetylates RBBP8	Reaction	POS	AND
5684081_5684094	5684094	DNA DSBs:p-MRN:p-S1981,Ac-K3016-ATM:KAT5:CCNA:p-T160-CDK2:RBBP8 [nucleoplasm]	Complex	5684098	5684098	protein serine/threonine kinase activity of DNA DSBs:p-MRN:p-S1981,Ac-K3016-ATM:KAT5:CCNA:p-T160-CDK2:RBBP8 [nucleoplasm]	CatalystActivity	POS	AND
5684081_5684094_5684096	5684094	DNA DSBs:p-MRN:p-S1981,Ac-K3016-ATM:KAT5:CCNA:p-T160-CDK2:RBBP8 [nucleoplasm]	Complex	5684098	5684098	protein serine/threonine kinase activity of DNA DSBs:p-MRN:p-S1981,Ac-K3016-ATM:KAT5:CCNA:p-T160-CDK2:RBBP8 [nucleoplasm]	CatalystActivity	POS	AND
5684098	5684098	protein serine/threonine kinase activity of DNA DSBs:p-MRN:p-S1981,Ac-K3016-ATM:KAT5:CCNA:p-T160-CDK2:RBBP8 [nucleoplasm]	CatalystActivity	5684096	5684096	CDK2 phosphorylates RBBP8	Reaction	POS	AND
5685011_5685039	5685039	ATR:ATRIP:RPA:3' overhanging ssDNA-DSBs:p-MRN:p-S1981,Ac-K3016-ATM:KAT5:BRCA1-C complex:EXO1,DNA2:BLM,WRN:p-S990,Ac-K1249-BRIP1:RAD17:RFC:RAD9:HUS1:RAD1:RHNO1:TOPBP1 [nucleoplasm]	Complex	5685163	5685163	protein serine/threonine kinase activity of ATR:ATRIP:RPA:3' overhanging ssDNA-DSBs:p-MRN:p-S1981,Ac-K3016-ATM:KAT5:BRCA1-C complex:EXO1,DNA2:BLM,WRN:p-S990,Ac-K1249-BRIP1:RAD17:RFC:RAD9:HUS1:RAD1:RHNO1:TOPBP1 [nucleoplasm]	CatalystActivity	POS	AND
5685011_5685039_5685156	5685039	ATR:ATRIP:RPA:3' overhanging ssDNA-DSBs:p-MRN:p-S1981,Ac-K3016-ATM:KAT5:BRCA1-C complex:EXO1,DNA2:BLM,WRN:p-S990,Ac-K1249-BRIP1:RAD17:RFC:RAD9:HUS1:RAD1:RHNO1:TOPBP1 [nucleoplasm]	Complex	5685163	5685163	protein serine/threonine kinase activity of ATR:ATRIP:RPA:3' overhanging ssDNA-DSBs:p-MRN:p-S1981,Ac-K3016-ATM:KAT5:BRCA1-C complex:EXO1,DNA2:BLM,WRN:p-S990,Ac-K1249-BRIP1:RAD17:RFC:RAD9:HUS1:RAD1:RHNO1:TOPBP1 [nucleoplasm]	CatalystActivity	POS	AND
5685163	5685163	protein serine/threonine kinase activity of ATR:ATRIP:RPA:3' overhanging ssDNA-DSBs:p-MRN:p-S1981,Ac-K3016-ATM:KAT5:BRCA1-C complex:EXO1,DNA2:BLM,WRN:p-S990,Ac-K1249-BRIP1:RAD17:RFC:RAD9:HUS1:RAD1:RHNO1:TOPBP1 [nucleoplasm]	CatalystActivity	5685156	5685156	ATR phosphorylates RPA2	Reaction	POS	AND
5684073	5684073	RNF4 homodimer [nucleoplasm]	Complex	5684070	5684070	ubiquitin protein ligase activity of RNF4 homodimer [nucleoplasm]	CatalystActivity	POS	AND
5684070	5684070	ubiquitin protein ligase activity of RNF4 homodimer [nucleoplasm]	CatalystActivity	5684071	5684071	RNF4 ubiquitinates MDC1	Reaction	POS	AND
5683808	5683808	DNA DNA DSBs:p-MRN:p-S1981,Ac-K3016-ATM:KAT5:K63PolyUb-K14,K16,p-S139-H2AFX,Me2K21-HIST1H4A-Nucleosome:p-5T-MDC1:p-S102-WHSC1:RNF8:Zn2+:SUMO1:p-T4827-HERC2:UBE2N:UBE2V2:RNF168:PIAS4:p-S25,S1778-TP53BP1:p-5S,2T-BRCA1-A complex [nucleoplasm]	Complex	5684057	5684057	SUMO transferase activity of DNA DNA DSBs:p-MRN:p-S1981,Ac-K3016-ATM:KAT5:K63PolyUb-K14,K16,p-S139-H2AFX,Me2K21-HIST1H4A-Nucleosome:p-5T-MDC1:p-S102-WHSC1:RNF8:Zn2+:SUMO1:p-T4827-HERC2:UBE2N:UBE2V2:RNF168:PIAS4:p-S25,S1778-TP53BP1:p-5S,2T-BRCA1-A complex [nucleoplasm]	CatalystActivity	POS	AND
5684057	5684057	SUMO transferase activity of DNA DNA DSBs:p-MRN:p-S1981,Ac-K3016-ATM:KAT5:K63PolyUb-K14,K16,p-S139-H2AFX,Me2K21-HIST1H4A-Nucleosome:p-5T-MDC1:p-S102-WHSC1:RNF8:Zn2+:SUMO1:p-T4827-HERC2:UBE2N:UBE2V2:RNF168:PIAS4:p-S25,S1778-TP53BP1:p-5S,2T-BRCA1-A complex [nucleoplasm]	CatalystActivity	5684052	5684052	PIAS4 SUMOylates MDC1	Reaction	POS	AND
5684882_5684883_5684887	5684883	ATR:ATRIP:p-RPA:3' overhanging ssDNA-DSBs:p-MRN:p-S1981,Ac-K3016-ATM:KAT5:BRCA1-C complex:EXO1,DNA2:BLM,WRN:p-S990,Ac-K1249-BRIP1:RAD17:RFC:RAD9:HUS1:RAD1:RHNO1:TOPBP1:TIMELESS:TIPIN:p-T916,S945-CLSPN:CHEK1 [nucleoplasm]	Complex	5684888	5684888	protein serine/threonine kinase activity of ATR:ATRIP:p-RPA:3' overhanging ssDNA-DSBs:p-MRN:p-S1981,Ac-K3016-ATM:KAT5:BRCA1-C complex:EXO1,DNA2:BLM,WRN:p-S990,Ac-K1249-BRIP1:RAD17:RFC:RAD9:HUS1:RAD1:RHNO1:TOPBP1:TIMELESS:TIPIN:p-T916,S945-CLSPN:CHEK1 [nucleoplasm]	CatalystActivity	POS	AND
5684882_5684883	5684883	ATR:ATRIP:p-RPA:3' overhanging ssDNA-DSBs:p-MRN:p-S1981,Ac-K3016-ATM:KAT5:BRCA1-C complex:EXO1,DNA2:BLM,WRN:p-S990,Ac-K1249-BRIP1:RAD17:RFC:RAD9:HUS1:RAD1:RHNO1:TOPBP1:TIMELESS:TIPIN:p-T916,S945-CLSPN:CHEK1 [nucleoplasm]	Complex	5684888	5684888	protein serine/threonine kinase activity of ATR:ATRIP:p-RPA:3' overhanging ssDNA-DSBs:p-MRN:p-S1981,Ac-K3016-ATM:KAT5:BRCA1-C complex:EXO1,DNA2:BLM,WRN:p-S990,Ac-K1249-BRIP1:RAD17:RFC:RAD9:HUS1:RAD1:RHNO1:TOPBP1:TIMELESS:TIPIN:p-T916,S945-CLSPN:CHEK1 [nucleoplasm]	CatalystActivity	POS	AND
5684888	5684888	protein serine/threonine kinase activity of ATR:ATRIP:p-RPA:3' overhanging ssDNA-DSBs:p-MRN:p-S1981,Ac-K3016-ATM:KAT5:BRCA1-C complex:EXO1,DNA2:BLM,WRN:p-S990,Ac-K1249-BRIP1:RAD17:RFC:RAD9:HUS1:RAD1:RHNO1:TOPBP1:TIMELESS:TIPIN:p-T916,S945-CLSPN:CHEK1 [nucleoplasm]	CatalystActivity	5684887	5684887	Activation of CHEK1 at resected DNA DSBs	Reaction	POS	AND
5693564_5693590	5693590	RAD51:p-Y104-RAD52:p-RPA:ATR:ATRIP:3' overhanging ssDNA-DSBs:p-MRN:p-S1981,Ac-K3016-ATM:KAT5:BRCA1-C complex:EXO1,DNA2:BLM,WRN:p-S990,Ac-K1249-BRIP1:RAD17:RFC:RAD9:HUS1:RAD1:RHNO1:TOPBP1 [nucleoplasm]	Complex	5686641	5686641	annealing activity of RAD51:p-Y104-RAD52:p-RPA:ATR:ATRIP:3' overhanging ssDNA-DSBs:p-MRN:p-S1981,Ac-K3016-ATM:KAT5:BRCA1-C complex:EXO1,DNA2:BLM,WRN:p-S990,Ac-K1249-BRIP1:RAD17:RFC:RAD9:HUS1:RAD1:RHNO1:TOPBP1 [nucleoplasm]	CatalystActivity	POS	AND
5693564_5693590_5686642	5693590	RAD51:p-Y104-RAD52:p-RPA:ATR:ATRIP:3' overhanging ssDNA-DSBs:p-MRN:p-S1981,Ac-K3016-ATM:KAT5:BRCA1-C complex:EXO1,DNA2:BLM,WRN:p-S990,Ac-K1249-BRIP1:RAD17:RFC:RAD9:HUS1:RAD1:RHNO1:TOPBP1 [nucleoplasm]	Complex	5686641	5686641	annealing activity of RAD51:p-Y104-RAD52:p-RPA:ATR:ATRIP:3' overhanging ssDNA-DSBs:p-MRN:p-S1981,Ac-K3016-ATM:KAT5:BRCA1-C complex:EXO1,DNA2:BLM,WRN:p-S990,Ac-K1249-BRIP1:RAD17:RFC:RAD9:HUS1:RAD1:RHNO1:TOPBP1 [nucleoplasm]	CatalystActivity	POS	AND
5686641	5686641	annealing activity of RAD51:p-Y104-RAD52:p-RPA:ATR:ATRIP:3' overhanging ssDNA-DSBs:p-MRN:p-S1981,Ac-K3016-ATM:KAT5:BRCA1-C complex:EXO1,DNA2:BLM,WRN:p-S990,Ac-K1249-BRIP1:RAD17:RFC:RAD9:HUS1:RAD1:RHNO1:TOPBP1 [nucleoplasm]	CatalystActivity	5686642	5686642	RAD52 promotes single strand annealing at resected DNA DSBs	Reaction	POS	AND
109943	109943	ERCC1:ERCC4 [nucleoplasm]	Complex	5686658	5686658	endodeoxyribonuclease activity of ERCC1:ERCC4 [nucleoplasm]	CatalystActivity	POS	AND
5686658	5686658	endodeoxyribonuclease activity of ERCC1:ERCC4 [nucleoplasm]	CatalystActivity	5686657	5686657	ERCC1:XPF cleaves flaps generated by SSA	Reaction	POS	AND
5686576	5686576	p-S456-ABL1 [nucleoplasm]	EntityWithAccessionedSequence	5686585	5686585	protein tyrosine kinase activity of p-S456-ABL1 [nucleoplasm]	CatalystActivity	POS	AND
5686585	5686585	protein tyrosine kinase activity of p-S456-ABL1 [nucleoplasm]	CatalystActivity	5686587	5686587	ABL1 phosphorylates RAD52	Reaction	POS	AND
176231	176231	ATRIP [nucleoplasm]	EntityWithAccessionedSequence	176269	176269	ATR:ATRIP [nucleoplasm]	Complex	POS	AND
912443	912443	ATR [nucleoplasm]	EntityWithAccessionedSequence	176269	176269	ATR:ATRIP [nucleoplasm]	Complex	POS	AND
176353	176353	RAD17:RFC [nucleoplasm]	Complex	5685162	5685162	ATR:ATRIP:p-RPA:3' overhanging ssDNA-DSBs:p-MRN:p-S1981,Ac-K3016-ATM:KAT5:BRCA1-C complex:EXO1,DNA2:BLM,WRN:p-S990,Ac-K1249-BRIP1:RAD17:RFC:RAD9:HUS1:RAD1:RHNO1:TOPBP1 [nucleoplasm]	Complex	POS	AND
5684880	5684880	RHNO1 [nucleoplasm]	EntityWithAccessionedSequence	5685162	5685162	ATR:ATRIP:p-RPA:3' overhanging ssDNA-DSBs:p-MRN:p-S1981,Ac-K3016-ATM:KAT5:BRCA1-C complex:EXO1,DNA2:BLM,WRN:p-S990,Ac-K1249-BRIP1:RAD17:RFC:RAD9:HUS1:RAD1:RHNO1:TOPBP1 [nucleoplasm]	Complex	POS	AND
5684878	5684878	TOPBP1 [nucleoplasm]	EntityWithAccessionedSequence	5685162	5685162	ATR:ATRIP:p-RPA:3' overhanging ssDNA-DSBs:p-MRN:p-S1981,Ac-K3016-ATM:KAT5:BRCA1-C complex:EXO1,DNA2:BLM,WRN:p-S990,Ac-K1249-BRIP1:RAD17:RFC:RAD9:HUS1:RAD1:RHNO1:TOPBP1 [nucleoplasm]	Complex	POS	AND
176312	176312	RAD9:HUS1:RAD1 [nucleoplasm]	Complex	5685162	5685162	ATR:ATRIP:p-RPA:3' overhanging ssDNA-DSBs:p-MRN:p-S1981,Ac-K3016-ATM:KAT5:BRCA1-C complex:EXO1,DNA2:BLM,WRN:p-S990,Ac-K1249-BRIP1:RAD17:RFC:RAD9:HUS1:RAD1:RHNO1:TOPBP1 [nucleoplasm]	Complex	POS	AND
5687710	5687710	p-S990,Ac-K1249-BRIP1 [nucleoplasm]	EntityWithAccessionedSequence	5685162	5685162	ATR:ATRIP:p-RPA:3' overhanging ssDNA-DSBs:p-MRN:p-S1981,Ac-K3016-ATM:KAT5:BRCA1-C complex:EXO1,DNA2:BLM,WRN:p-S990,Ac-K1249-BRIP1:RAD17:RFC:RAD9:HUS1:RAD1:RHNO1:TOPBP1 [nucleoplasm]	Complex	POS	AND
5685980	5685980	EXO1,DNA2:BLM,WRN [nucleoplasm]	DefinedSet	5685162	5685162	ATR:ATRIP:p-RPA:3' overhanging ssDNA-DSBs:p-MRN:p-S1981,Ac-K3016-ATM:KAT5:BRCA1-C complex:EXO1,DNA2:BLM,WRN:p-S990,Ac-K1249-BRIP1:RAD17:RFC:RAD9:HUS1:RAD1:RHNO1:TOPBP1 [nucleoplasm]	Complex	POS	AND
5685178	5685178	ATR:ATRIP:p-RPA:3' overhanging ssDNA-DSBs:p-MRN:p-S1981,Ac-K3016-ATM:KAT5:BRCA1-C complex [nucleoplasm]	Complex	5685162	5685162	ATR:ATRIP:p-RPA:3' overhanging ssDNA-DSBs:p-MRN:p-S1981,Ac-K3016-ATM:KAT5:BRCA1-C complex:EXO1,DNA2:BLM,WRN:p-S990,Ac-K1249-BRIP1:RAD17:RFC:RAD9:HUS1:RAD1:RHNO1:TOPBP1 [nucleoplasm]	Complex	POS	AND
939854	939854	UBB(153-228) [nucleoplasm]	EntityWithAccessionedSequence	68524	68524	Ub [nucleoplasm]	DefinedSet	POS	OR
939853	939853	UBC(153-228) [nucleoplasm]	EntityWithAccessionedSequence	68524	68524	Ub [nucleoplasm]	DefinedSet	POS	OR
939849	939849	RPS27A(1-76) [nucleoplasm]	EntityWithAccessionedSequence	68524	68524	Ub [nucleoplasm]	DefinedSet	POS	OR
939847	939847	UBB(1-76) [nucleoplasm]	EntityWithAccessionedSequence	68524	68524	Ub [nucleoplasm]	DefinedSet	POS	OR
939844	939844	UBA52(1-76) [nucleoplasm]	EntityWithAccessionedSequence	68524	68524	Ub [nucleoplasm]	DefinedSet	POS	OR
939870	939870	UBB(77-152) [nucleoplasm]	EntityWithAccessionedSequence	68524	68524	Ub [nucleoplasm]	DefinedSet	POS	OR
939871	939871	UBC(1-76) [nucleoplasm]	EntityWithAccessionedSequence	68524	68524	Ub [nucleoplasm]	DefinedSet	POS	OR
939868	939868	UBC(609-684) [nucleoplasm]	EntityWithAccessionedSequence	68524	68524	Ub [nucleoplasm]	DefinedSet	POS	OR
939869	939869	UBC(77-152) [nucleoplasm]	EntityWithAccessionedSequence	68524	68524	Ub [nucleoplasm]	DefinedSet	POS	OR
939866	939866	UBC(533-608) [nucleoplasm]	EntityWithAccessionedSequence	68524	68524	Ub [nucleoplasm]	DefinedSet	POS	OR
939862	939862	UBC(457-532) [nucleoplasm]	EntityWithAccessionedSequence	68524	68524	Ub [nucleoplasm]	DefinedSet	POS	OR
939863	939863	UBC(305-380) [nucleoplasm]	EntityWithAccessionedSequence	68524	68524	Ub [nucleoplasm]	DefinedSet	POS	OR
939856	939856	UBC(381-456) [nucleoplasm]	EntityWithAccessionedSequence	68524	68524	Ub [nucleoplasm]	DefinedSet	POS	OR
939857	939857	UBC(229-304) [nucleoplasm]	EntityWithAccessionedSequence	68524	68524	Ub [nucleoplasm]	DefinedSet	POS	OR
75202	75202	CCNA [nucleoplasm]	CandidateSet	187952	187952	CCNA:p-T160-CDK2 [nucleoplasm]	Complex	POS	AND
187967	187967	p-T160-CDK2 [nucleoplasm]	EntityWithAccessionedSequence	187952	187952	CCNA:p-T160-CDK2 [nucleoplasm]	Complex	POS	AND
5686438	5686438	EME2 [nucleoplasm]	EntityWithAccessionedSequence	5686454	5686454	EME1,EME2 [nucleoplasm]	CandidateSet	POS	OR
5686437	5686437	EME1 [nucleoplasm]	EntityWithAccessionedSequence	5686454	5686454	EME1,EME2 [nucleoplasm]	CandidateSet	POS	OR
176374	176374	HUS1 [nucleoplasm]	EntityWithAccessionedSequence	176312	176312	RAD9:HUS1:RAD1 [nucleoplasm]	Complex	POS	AND
176222	176222	RAD9 [nucleoplasm]	DefinedSet	176312	176312	RAD9:HUS1:RAD1 [nucleoplasm]	Complex	POS	AND
176382	176382	RAD1 [nucleoplasm]	EntityWithAccessionedSequence	176312	176312	RAD9:HUS1:RAD1 [nucleoplasm]	Complex	POS	AND
8866665	8866665	SEM1 [nucleoplasm]	EntityWithAccessionedSequence	9763135	9763135	BRCA2:SEM1 [nucleoplasm]	Complex	POS	AND
50951	50951	BRCA2 [nucleoplasm]	EntityWithAccessionedSequence	9763135	9763135	BRCA2:SEM1 [nucleoplasm]	Complex	POS	AND
5651799	5651799	PCNA:POLD,POLE:RPA:RFC [nucleoplasm]	Complex	5686084	5686084	PCNA:POLD,POLE,POLH,POLK:RPA:RFC [nucleoplasm]	CandidateSet	POS	OR
5686099	5686099	MonoUb:K164-PCNA:RPA:RFC:POLH,POLK [nucleoplasm]	Complex	5686084	5686084	PCNA:POLD,POLE,POLH,POLK:RPA:RFC [nucleoplasm]	CandidateSet	POS	OR
5687750	5687750	PPP4C [nucleoplasm]	EntityWithAccessionedSequence	5687751	5687751	PPP4C:PPP4R2 [nucleoplasm]	Complex	POS	AND
5687747	5687747	PPP4R2 [nucleoplasm]	EntityWithAccessionedSequence	5687751	5687751	PPP4C:PPP4R2 [nucleoplasm]	Complex	POS	AND
5685955	5685955	Ac-K432,K526,K604-RBBP8 [nucleoplasm]	EntityWithAccessionedSequence	5685960	5685960	Ac-K432,K526,K604-RBBP8 homotetramer [nucleoplasm]	Complex	POS	AND
5686481	5686481	SLX1A [nucleoplasm]	EntityWithAccessionedSequence	5686480	5686480	SLX1A:SLX4 [nucleoplasm]	Complex	POS	AND
5686477	5686477	SLX4 [nucleoplasm]	EntityWithAccessionedSequence	5686480	5686480	SLX1A:SLX4 [nucleoplasm]	Complex	POS	AND
174881	174881	BLM [nucleoplasm]	EntityWithAccessionedSequence	5685972	5685972	BLM:TOP3A:RMI1:RMI2 [nucleoplasm]	Complex	POS	AND
912452	912452	TOP3A [nucleoplasm]	EntityWithAccessionedSequence	5685972	5685972	BLM:TOP3A:RMI1:RMI2 [nucleoplasm]	Complex	POS	AND
5685951	5685951	RMI2 [nucleoplasm]	EntityWithAccessionedSequence	5685972	5685972	BLM:TOP3A:RMI1:RMI2 [nucleoplasm]	Complex	POS	AND
5685949	5685949	RMI1 [nucleoplasm]	EntityWithAccessionedSequence	5685972	5685972	BLM:TOP3A:RMI1:RMI2 [nucleoplasm]	Complex	POS	AND
5685311	5685311	CX3 complex [nucleoplasm]	Complex	5686228	5686228	Holliday Junction:p-MRN:p-S1981,Ac-K3016-ATM:KAT5:EXO1,DNA2:BLM,WRN:p-S990,Ac-K1249-BRIP1:p-BRCA1-C complex:PALB2:p-T3387-BRCA2:SEM1:p-T309-RAD51:RAD51AP1:CX3 complex [nucleoplasm]	Complex	POS	AND
5686226	5686226	Holliday Junction:p-MRN:p-S1981,Ac-K3016-ATM:KAT5:EXO1,DNA2:BLM,WRN:p-S990,Ac-K1249-BRIP1:p-BRCA1-C complex:PALB2:p-T3387-BRCA2:p-T309-RAD51:RAD51AP1 [nucleoplasm]	Complex	5686228	5686228	Holliday Junction:p-MRN:p-S1981,Ac-K3016-ATM:KAT5:EXO1,DNA2:BLM,WRN:p-S990,Ac-K1249-BRIP1:p-BRCA1-C complex:PALB2:p-T3387-BRCA2:SEM1:p-T309-RAD51:RAD51AP1:CX3 complex [nucleoplasm]	Complex	POS	AND
5686495	5686495	GEN1 [nucleoplasm]	EntityWithAccessionedSequence	5686489	5686489	SLX1A:SLX4:MUS81:EME1,(MUS81:EME2),GEN1 [nucleoplasm]	DefinedSet	POS	OR
5686474	5686474	SLX1A:SLX4:MUS81:EME1,(MUS81:EME2) [nucleoplasm]	Complex	5686489	5686489	SLX1A:SLX4:MUS81:EME1,(MUS81:EME2),GEN1 [nucleoplasm]	DefinedSet	POS	OR
5685974	5685974	DNA2:BLM:TOP3A:RMI1:RMI2 [nucleoplasm]	Complex	5685980	5685980	EXO1,DNA2:BLM,WRN [nucleoplasm]	DefinedSet	POS	OR
5685969	5685969	DNA2:WRN [nucleoplasm]	Complex	5685980	5685980	EXO1,DNA2:BLM,WRN [nucleoplasm]	DefinedSet	POS	OR
5685976	5685976	EXO1:BLM,WRN [nucleoplasm]	Complex	5685980	5685980	EXO1,DNA2:BLM,WRN [nucleoplasm]	DefinedSet	POS	OR
5683806	5683806	p-5S,2T-BRCA1-A Complex [nucleoplasm]	Complex	5683808	5683808	DNA DNA DSBs:p-MRN:p-S1981,Ac-K3016-ATM:KAT5:K63PolyUb-K14,K16,p-S139-H2AFX,Me2K21-HIST1H4A-Nucleosome:p-5T-MDC1:p-S102-WHSC1:RNF8:Zn2+:SUMO1:p-T4827-HERC2:UBE2N:UBE2V2:RNF168:PIAS4:p-S25,S1778-TP53BP1:p-5S,2T-BRCA1-A complex [nucleoplasm]	Complex	POS	AND
5683417	5683417	DNA DNA DSBs:p-MRN:p-S1981,Ac-K3016-ATM:KAT5:K63PolyUb-K14,K16,p-S139-H2AFX,Me2K21-HIST1H4A-Nucleosome:p-5T-MDC1:p-S102-WHSC1:RNF8:Zn2+:SUMO1:p-T4827-HERC2:UBE2N:UBE2V2:RNF168:PIAS4:p-S25,S1778-TP53BP1 [nucleoplasm]	Complex	5683808	5683808	DNA DNA DSBs:p-MRN:p-S1981,Ac-K3016-ATM:KAT5:K63PolyUb-K14,K16,p-S139-H2AFX,Me2K21-HIST1H4A-Nucleosome:p-5T-MDC1:p-S102-WHSC1:RNF8:Zn2+:SUMO1:p-T4827-HERC2:UBE2N:UBE2V2:RNF168:PIAS4:p-S25,S1778-TP53BP1:p-5S,2T-BRCA1-A complex [nucleoplasm]	Complex	POS	AND
68433	68433	RFC2 [nucleoplasm]	EntityWithAccessionedSequence	176353	176353	RAD17:RFC [nucleoplasm]	Complex	POS	AND
3008665	3008665	RAD17 [nucleoplasm]	EntityWithAccessionedSequence	176353	176353	RAD17:RFC [nucleoplasm]	Complex	POS	AND
68427	68427	RFC5 [nucleoplasm]	EntityWithAccessionedSequence	176353	176353	RAD17:RFC [nucleoplasm]	Complex	POS	AND
68429	68429	RFC4 [nucleoplasm]	EntityWithAccessionedSequence	176353	176353	RAD17:RFC [nucleoplasm]	Complex	POS	AND
68431	68431	RFC3 [nucleoplasm]	EntityWithAccessionedSequence	176353	176353	RAD17:RFC [nucleoplasm]	Complex	POS	AND
5684076	5684076	RNF4 [nucleoplasm]	EntityWithAccessionedSequence	5684073	5684073	RNF4 homodimer [nucleoplasm]	Complex	POS	AND
3730619	3730619	SUMO2-C93-UBE2I [nucleoplasm]	EntityWithAccessionedSequence	2993778	2993778	SUMO2:UBE2I [nucleoplasm]	Complex	POS	AND
3730625	3730625	UBE2I-G93-SUMO2 [nucleoplasm]	EntityWithAccessionedSequence	2993778	2993778	SUMO2:UBE2I [nucleoplasm]	Complex	POS	AND
67445	67445	ERCC4 [nucleoplasm]	EntityWithAccessionedSequence	109943	109943	ERCC1:ERCC4 [nucleoplasm]	Complex	POS	AND
54427	54427	ERCC1 [nucleoplasm]	EntityWithAccessionedSequence	109943	109943	ERCC1:ERCC4 [nucleoplasm]	Complex	POS	AND
5684982	5684982	TIMELESS [nucleoplasm]	EntityWithAccessionedSequence	5684985	5684985	TIMELESS:TIPIN [nucleoplasm]	Complex	POS	AND
5684983	5684983	TIPIN [nucleoplasm]	EntityWithAccessionedSequence	5684985	5684985	TIMELESS:TIPIN [nucleoplasm]	Complex	POS	AND
5687710	5687710	p-S990,Ac-K1249-BRIP1 [nucleoplasm]	EntityWithAccessionedSequence	5686226	5686226	Holliday Junction:p-MRN:p-S1981,Ac-K3016-ATM:KAT5:EXO1,DNA2:BLM,WRN:p-S990,Ac-K1249-BRIP1:p-BRCA1-C complex:PALB2:p-T3387-BRCA2:p-T309-RAD51:RAD51AP1 [nucleoplasm]	Complex	POS	AND
5685980	5685980	EXO1,DNA2:BLM,WRN [nucleoplasm]	DefinedSet	5686226	5686226	Holliday Junction:p-MRN:p-S1981,Ac-K3016-ATM:KAT5:EXO1,DNA2:BLM,WRN:p-S990,Ac-K1249-BRIP1:p-BRCA1-C complex:PALB2:p-T3387-BRCA2:p-T309-RAD51:RAD51AP1 [nucleoplasm]	Complex	POS	AND
5693527	5693527	p-S1981,Ac-K3016-ATM [nucleoplasm]	EntityWithAccessionedSequence	5686226	5686226	Holliday Junction:p-MRN:p-S1981,Ac-K3016-ATM:KAT5:EXO1,DNA2:BLM,WRN:p-S990,Ac-K1249-BRIP1:p-BRCA1-C complex:PALB2:p-T3387-BRCA2:p-T309-RAD51:RAD51AP1 [nucleoplasm]	Complex	POS	AND
5682166	5682166	p-MRN [nucleoplasm]	Complex	5686226	5686226	Holliday Junction:p-MRN:p-S1981,Ac-K3016-ATM:KAT5:EXO1,DNA2:BLM,WRN:p-S990,Ac-K1249-BRIP1:p-BRCA1-C complex:PALB2:p-T3387-BRCA2:p-T309-RAD51:RAD51AP1 [nucleoplasm]	Complex	POS	AND
3321979	3321979	KAT5 [nucleoplasm]	EntityWithAccessionedSequence	5686226	5686226	Holliday Junction:p-MRN:p-S1981,Ac-K3016-ATM:KAT5:EXO1,DNA2:BLM,WRN:p-S990,Ac-K1249-BRIP1:p-BRCA1-C complex:PALB2:p-T3387-BRCA2:p-T309-RAD51:RAD51AP1 [nucleoplasm]	Complex	POS	AND
5685655	5685655	BRCA1-C complex:PALB2:p-T3387-BRCA2:SEM1:p-T309-RAD51:RAD51AP1 [nucleoplasm]	Complex	5686226	5686226	Holliday Junction:p-MRN:p-S1981,Ac-K3016-ATM:KAT5:EXO1,DNA2:BLM,WRN:p-S990,Ac-K1249-BRIP1:p-BRCA1-C complex:PALB2:p-T3387-BRCA2:p-T309-RAD51:RAD51AP1 [nucleoplasm]	Complex	POS	AND
5685316	5685316	BCDX2 complex [nucleoplasm]	Complex	5686226	5686226	Holliday Junction:p-MRN:p-S1981,Ac-K3016-ATM:KAT5:EXO1,DNA2:BLM,WRN:p-S990,Ac-K1249-BRIP1:p-BRCA1-C complex:PALB2:p-T3387-BRCA2:p-T309-RAD51:RAD51AP1 [nucleoplasm]	Complex	POS	AND
75220	75220	Holliday structure [nucleoplasm]	OtherEntity	5686226	5686226	Holliday Junction:p-MRN:p-S1981,Ac-K3016-ATM:KAT5:EXO1,DNA2:BLM,WRN:p-S990,Ac-K1249-BRIP1:p-BRCA1-C complex:PALB2:p-T3387-BRCA2:p-T309-RAD51:RAD51AP1 [nucleoplasm]	Complex	POS	AND
176269	176269	ATR:ATRIP [nucleoplasm]	Complex	5685178	5685178	ATR:ATRIP:p-RPA:3' overhanging ssDNA-DSBs:p-MRN:p-S1981,Ac-K3016-ATM:KAT5:BRCA1-C complex [nucleoplasm]	Complex	POS	AND
5685161	5685161	p-RPA:3' overhanging ssDNA-DSBs:p-MRN:p-S1981,Ac-K3016-ATM:KAT5:BRCA1-C complex [nucleoplasm]	Complex	5685178	5685178	ATR:ATRIP:p-RPA:3' overhanging ssDNA-DSBs:p-MRN:p-S1981,Ac-K3016-ATM:KAT5:BRCA1-C complex [nucleoplasm]	Complex	POS	AND
5685303	5685303	XRCC3 [nucleoplasm]	EntityWithAccessionedSequence	5685311	5685311	CX3 complex [nucleoplasm]	Complex	POS	AND
217039	217039	RAD51C [nucleoplasm]	EntityWithAccessionedSequence	5685311	5685311	CX3 complex [nucleoplasm]	Complex	POS	AND
68905	68905	CCNA2 [nucleoplasm]	EntityWithAccessionedSequence	75202	75202	CCNA [nucleoplasm]	CandidateSet	POS	OR
68891	68891	CCNA1 [nucleoplasm]	EntityWithAccessionedSequence	75202	75202	CCNA [nucleoplasm]	CandidateSet	POS	OR
8933487	8933487	MUS81:EME1, (MUS81:EME2) [nucleoplasm]	CandidateSet	5686474	5686474	SLX1A:SLX4:MUS81:EME1,(MUS81:EME2) [nucleoplasm]	Complex	POS	AND
5686480	5686480	SLX1A:SLX4 [nucleoplasm]	Complex	5686474	5686474	SLX1A:SLX4:MUS81:EME1,(MUS81:EME2) [nucleoplasm]	Complex	POS	AND
68465	68465	DNA2 [nucleoplasm]	EntityWithAccessionedSequence	5685969	5685969	DNA2:WRN [nucleoplasm]	Complex	POS	AND
67387	67387	WRN [nucleoplasm]	EntityWithAccessionedSequence	5685969	5685969	DNA2:WRN [nucleoplasm]	Complex	POS	AND
68465	68465	DNA2 [nucleoplasm]	EntityWithAccessionedSequence	5685974	5685974	DNA2:BLM:TOP3A:RMI1:RMI2 [nucleoplasm]	Complex	POS	AND
5685972	5685972	BLM:TOP3A:RMI1:RMI2 [nucleoplasm]	Complex	5685974	5685974	DNA2:BLM:TOP3A:RMI1:RMI2 [nucleoplasm]	Complex	POS	AND
5651997	5651997	MonoUb:K164-PCNA:RPA:RFC [nucleoplasm]	Complex	5686099	5686099	MonoUb:K164-PCNA:RPA:RFC:POLH,POLK [nucleoplasm]	Complex	POS	AND
5686093	5686093	POLH,POLK [nucleoplasm]	CandidateSet	5686099	5686099	MonoUb:K164-PCNA:RPA:RFC:POLH,POLK [nucleoplasm]	Complex	POS	AND
5685968	5685968	BLM,WRN [nucleoplasm]	CandidateSet	5685976	5685976	EXO1:BLM,WRN [nucleoplasm]	Complex	POS	AND
5357514	5357514	EXO1 [nucleoplasm]	EntityWithAccessionedSequence	5685976	5685976	EXO1:BLM,WRN [nucleoplasm]	Complex	POS	AND
5683418	5683418	p-S25,S1778-TP53BP1 [nucleoplasm]	EntityWithAccessionedSequence	5683417	5683417	DNA DNA DSBs:p-MRN:p-S1981,Ac-K3016-ATM:KAT5:K63PolyUb-K14,K16,p-S139-H2AFX,Me2K21-HIST1H4A-Nucleosome:p-5T-MDC1:p-S102-WHSC1:RNF8:Zn2+:SUMO1:p-T4827-HERC2:UBE2N:UBE2V2:RNF168:PIAS4:p-S25,S1778-TP53BP1 [nucleoplasm]	Complex	POS	AND
5683079	5683079	DNA DSBs:p-MRN:p-S1981,Ac-K3016-ATM:KAT5:K63PolyUb-K14,K16,p-S139-H2AFX,Me2K21-HIST1H4A-Nucleosome:p-5T-MDC1:p-S102-WHSC1:RNF8:Zn2+:SUMO1:p-T4827-HERC2:UBE2N:UBE2V2:RNF168:PIAS4 [nucleoplasm]	Complex	5683417	5683417	DNA DNA DSBs:p-MRN:p-S1981,Ac-K3016-ATM:KAT5:K63PolyUb-K14,K16,p-S139-H2AFX,Me2K21-HIST1H4A-Nucleosome:p-5T-MDC1:p-S102-WHSC1:RNF8:Zn2+:SUMO1:p-T4827-HERC2:UBE2N:UBE2V2:RNF168:PIAS4:p-S25,S1778-TP53BP1 [nucleoplasm]	Complex	POS	AND
68462	68462	RPA heterotrimer [nucleoplasm]	Complex	5651799	5651799	PCNA:POLD,POLE:RPA:RFC [nucleoplasm]	Complex	POS	AND
68436	68436	RFC Heteropentamer [nucleoplasm]	Complex	5651799	5651799	PCNA:POLD,POLE:RPA:RFC [nucleoplasm]	Complex	POS	AND
68440	68440	PCNA homotrimer [nucleoplasm]	Complex	5651799	5651799	PCNA:POLD,POLE:RPA:RFC [nucleoplasm]	Complex	POS	AND
5651800	5651800	POLD,POLE [nucleoplasm]	CandidateSet	5651799	5651799	PCNA:POLD,POLE:RPA:RFC [nucleoplasm]	Complex	POS	AND
176372	176372	RAD9A [nucleoplasm]	EntityWithAccessionedSequence	176222	176222	RAD9 [nucleoplasm]	DefinedSet	POS	OR
176325	176325	RAD9B [nucleoplasm]	EntityWithAccessionedSequence	176222	176222	RAD9 [nucleoplasm]	DefinedSet	POS	OR
9707299	9707299	p-5S-BRCA1:p-2T-BARD1 [nucleoplasm]	DefinedSet	5683806	5683806	p-5S,2T-BRCA1-A Complex [nucleoplasm]	Complex	POS	AND
5682582	5682582	BABAM1 [nucleoplasm]	EntityWithAccessionedSequence	5683806	5683806	p-5S,2T-BRCA1-A Complex [nucleoplasm]	Complex	POS	AND
5682579	5682579	BRE [nucleoplasm]	EntityWithAccessionedSequence	5683806	5683806	p-5S,2T-BRCA1-A Complex [nucleoplasm]	Complex	POS	AND
5682577	5682577	BRCC3 [nucleoplasm]	EntityWithAccessionedSequence	5683806	5683806	p-5S,2T-BRCA1-A Complex [nucleoplasm]	Complex	POS	AND
5682574	5682574	UIMC1 [nucleoplasm]	EntityWithAccessionedSequence	5683806	5683806	p-5S,2T-BRCA1-A Complex [nucleoplasm]	Complex	POS	AND
5682575	5682575	p-S406-FAM175A [nucleoplasm]	EntityWithAccessionedSequence	5683806	5683806	p-5S,2T-BRCA1-A Complex [nucleoplasm]	Complex	POS	AND
2993789	2993789	PIAS4 [nucleoplasm]	EntityWithAccessionedSequence	5683079	5683079	DNA DSBs:p-MRN:p-S1981,Ac-K3016-ATM:KAT5:K63PolyUb-K14,K16,p-S139-H2AFX,Me2K21-HIST1H4A-Nucleosome:p-5T-MDC1:p-S102-WHSC1:RNF8:Zn2+:SUMO1:p-T4827-HERC2:UBE2N:UBE2V2:RNF168:PIAS4 [nucleoplasm]	Complex	POS	AND
4551605	4551605	RNF168 [nucleoplasm]	EntityWithAccessionedSequence	5683079	5683079	DNA DSBs:p-MRN:p-S1981,Ac-K3016-ATM:KAT5:K63PolyUb-K14,K16,p-S139-H2AFX,Me2K21-HIST1H4A-Nucleosome:p-5T-MDC1:p-S102-WHSC1:RNF8:Zn2+:SUMO1:p-T4827-HERC2:UBE2N:UBE2V2:RNF168:PIAS4 [nucleoplasm]	Complex	POS	AND
5682631	5682631	RNF8:Zn2+:SUMO1:p-T4827-HERC2:UBE2N:UBE2V2 [nucleoplasm]	Complex	5683079	5683079	DNA DSBs:p-MRN:p-S1981,Ac-K3016-ATM:KAT5:K63PolyUb-K14,K16,p-S139-H2AFX,Me2K21-HIST1H4A-Nucleosome:p-5T-MDC1:p-S102-WHSC1:RNF8:Zn2+:SUMO1:p-T4827-HERC2:UBE2N:UBE2V2:RNF168:PIAS4 [nucleoplasm]	Complex	POS	AND
5682996	5682996	DNA DSBs:p-MRN:p-S1981,Ac-K3016-ATM:KAT5:K63PolyUb-K14,K16,p-S139-H2AFX,Me2K21-HIST1H4A-Nucleosome:p-5T-MDC1:p-S102-WHSC1 [nucleoplasm]	Complex	5683079	5683079	DNA DSBs:p-MRN:p-S1981,Ac-K3016-ATM:KAT5:K63PolyUb-K14,K16,p-S139-H2AFX,Me2K21-HIST1H4A-Nucleosome:p-5T-MDC1:p-S102-WHSC1:RNF8:Zn2+:SUMO1:p-T4827-HERC2:UBE2N:UBE2V2:RNF168:PIAS4 [nucleoplasm]	Complex	POS	AND
5685656	5685656	BRCA1-C complex [nucleoplasm]	Complex	5685655	5685655	BRCA1-C complex:PALB2:p-T3387-BRCA2:SEM1:p-T309-RAD51:RAD51AP1 [nucleoplasm]	Complex	POS	AND
5693545	5693545	SEM1:p-T3387-BRCA2:p-T309-RAD51 complex [nucleoplasm]	Complex	5685655	5685655	BRCA1-C complex:PALB2:p-T3387-BRCA2:SEM1:p-T309-RAD51:RAD51AP1 [nucleoplasm]	Complex	POS	AND
5685301	5685301	RAD51AP1 [nucleoplasm]	EntityWithAccessionedSequence	5685655	5685655	BRCA1-C complex:PALB2:p-T3387-BRCA2:SEM1:p-T309-RAD51:RAD51AP1 [nucleoplasm]	Complex	POS	AND
419548	419548	PALB2 [nucleoplasm]	EntityWithAccessionedSequence	5685655	5685655	BRCA1-C complex:PALB2:p-T3387-BRCA2:SEM1:p-T309-RAD51:RAD51AP1 [nucleoplasm]	Complex	POS	AND
68462	68462	RPA heterotrimer [nucleoplasm]	Complex	5651997	5651997	MonoUb:K164-PCNA:RPA:RFC [nucleoplasm]	Complex	POS	AND
68436	68436	RFC Heteropentamer [nucleoplasm]	Complex	5651997	5651997	MonoUb:K164-PCNA:RPA:RFC [nucleoplasm]	Complex	POS	AND
5651993	5651993	MonoUb:K164-PCNA homotrimer [nucleoplasm]	Complex	5651997	5651997	MonoUb:K164-PCNA:RPA:RFC [nucleoplasm]	Complex	POS	AND
9707296	9707296	K6PolyUb,p-5S-BRCA1:K6PolyUb,p-2T-BARD1 [nucleoplasm]	Complex	9707299	9707299	p-5S-BRCA1:p-2T-BARD1 [nucleoplasm]	DefinedSet	POS	OR
5683809	5683809	p-5S-BRCA1:p-2T-BARD1 [nucleoplasm]	Complex	9707299	9707299	p-5S-BRCA1:p-2T-BARD1 [nucleoplasm]	DefinedSet	POS	OR
5684122	5684122	3' overhanging ssDNA-DSBs:p-MRN:p-S1981,Ac-K3016-ATM:KAT5 [nucleoplasm]	Complex	5685161	5685161	p-RPA:3' overhanging ssDNA-DSBs:p-MRN:p-S1981,Ac-K3016-ATM:KAT5:BRCA1-C complex [nucleoplasm]	Complex	POS	AND
5685656	5685656	BRCA1-C complex [nucleoplasm]	Complex	5685161	5685161	p-RPA:3' overhanging ssDNA-DSBs:p-MRN:p-S1981,Ac-K3016-ATM:KAT5:BRCA1-C complex [nucleoplasm]	Complex	POS	AND
5685169	5685169	p-RPA heterotrimer [nucleoplasm]	Complex	5685161	5685161	p-RPA:3' overhanging ssDNA-DSBs:p-MRN:p-S1981,Ac-K3016-ATM:KAT5:BRCA1-C complex [nucleoplasm]	Complex	POS	AND
217039	217039	RAD51C [nucleoplasm]	EntityWithAccessionedSequence	5685316	5685316	BCDX2 complex [nucleoplasm]	Complex	POS	AND
5685302	5685302	XRCC2 [nucleoplasm]	EntityWithAccessionedSequence	5685316	5685316	BCDX2 complex [nucleoplasm]	Complex	POS	AND
983271	983271	RAD51B [nucleoplasm]	EntityWithAccessionedSequence	5685316	5685316	BCDX2 complex [nucleoplasm]	Complex	POS	AND
216920	216920	RAD51D [nucleoplasm]	EntityWithAccessionedSequence	5685316	5685316	BCDX2 complex [nucleoplasm]	Complex	POS	AND
5655487	5655487	POLK [nucleoplasm]	EntityWithAccessionedSequence	5686093	5686093	POLH,POLK [nucleoplasm]	CandidateSet	POS	OR
110287	110287	POLH [nucleoplasm]	EntityWithAccessionedSequence	5686093	5686093	POLH,POLK [nucleoplasm]	CandidateSet	POS	OR
174881	174881	BLM [nucleoplasm]	EntityWithAccessionedSequence	5685968	5685968	BLM,WRN [nucleoplasm]	CandidateSet	POS	OR
67387	67387	WRN [nucleoplasm]	EntityWithAccessionedSequence	5685968	5685968	BLM,WRN [nucleoplasm]	CandidateSet	POS	OR
68433	68433	RFC2 [nucleoplasm]	EntityWithAccessionedSequence	68436	68436	RFC Heteropentamer [nucleoplasm]	Complex	POS	AND
68427	68427	RFC5 [nucleoplasm]	EntityWithAccessionedSequence	68436	68436	RFC Heteropentamer [nucleoplasm]	Complex	POS	AND
68429	68429	RFC4 [nucleoplasm]	EntityWithAccessionedSequence	68436	68436	RFC Heteropentamer [nucleoplasm]	Complex	POS	AND
68431	68431	RFC3 [nucleoplasm]	EntityWithAccessionedSequence	68436	68436	RFC Heteropentamer [nucleoplasm]	Complex	POS	AND
68435	68435	RFC1 [nucleoplasm]	EntityWithAccessionedSequence	68436	68436	RFC Heteropentamer [nucleoplasm]	Complex	POS	AND
68439	68439	PCNA [nucleoplasm]	EntityWithAccessionedSequence	68440	68440	PCNA homotrimer [nucleoplasm]	Complex	POS	AND
68483	68483	DNA polymerase epsilon [nucleoplasm]	Complex	5651800	5651800	POLD,POLE [nucleoplasm]	CandidateSet	POS	OR
68450	68450	DNA Polymerase delta tetramer [nucleoplasm]	Complex	5651800	5651800	POLD,POLE [nucleoplasm]	CandidateSet	POS	OR
68457	68457	RPA2 [nucleoplasm]	EntityWithAccessionedSequence	68462	68462	RPA heterotrimer [nucleoplasm]	Complex	POS	AND
68459	68459	RPA3 [nucleoplasm]	EntityWithAccessionedSequence	68462	68462	RPA heterotrimer [nucleoplasm]	Complex	POS	AND
68461	68461	RPA1 [nucleoplasm]	EntityWithAccessionedSequence	68462	68462	RPA heterotrimer [nucleoplasm]	Complex	POS	AND
8933489	8933489	MUS81:EME2 [nucleoplasm]	Complex	8933487	8933487	MUS81:EME1, (MUS81:EME2) [nucleoplasm]	CandidateSet	POS	OR
8933490	8933490	MUS81:EME1 [nucleoplasm]	Complex	8933487	8933487	MUS81:EME1, (MUS81:EME2) [nucleoplasm]	CandidateSet	POS	OR
75237	75237	p-S343-NBN [nucleoplasm]	EntityWithAccessionedSequence	5682166	5682166	p-MRN [nucleoplasm]	Complex	POS	AND
59544	59544	MRE11A [nucleoplasm]	EntityWithAccessionedSequence	5682166	5682166	p-MRN [nucleoplasm]	Complex	POS	AND
75160	75160	RAD50 [nucleoplasm]	EntityWithAccessionedSequence	5682166	5682166	p-MRN [nucleoplasm]	Complex	POS	AND
68482	68482	POLE2 [nucleoplasm]	EntityWithAccessionedSequence	68483	68483	DNA polymerase epsilon [nucleoplasm]	Complex	POS	AND
68473	68473	POLE [nucleoplasm]	EntityWithAccessionedSequence	68483	68483	DNA polymerase epsilon [nucleoplasm]	Complex	POS	AND
8866685	8866685	POLE3 [nucleoplasm]	EntityWithAccessionedSequence	68483	68483	DNA polymerase epsilon [nucleoplasm]	Complex	POS	AND
8866684	8866684	POLE4 [nucleoplasm]	EntityWithAccessionedSequence	68483	68483	DNA polymerase epsilon [nucleoplasm]	Complex	POS	AND
9707299	9707299	p-5S-BRCA1:p-2T-BARD1 [nucleoplasm]	DefinedSet	5685656	5685656	BRCA1-C complex [nucleoplasm]	Complex	POS	AND
5684137	5684137	p-S327,T847,T859-RBBP8 homotetramer [nucleoplasm]	Complex	5685656	5685656	BRCA1-C complex [nucleoplasm]	Complex	POS	AND
68439	68439	PCNA [nucleoplasm]	EntityWithAccessionedSequence	5651993	5651993	MonoUb:K164-PCNA homotrimer [nucleoplasm]	Complex	POS	AND
5651984	5651984	MonoUb:K164-PCNA [nucleoplasm]	Complex	5651993	5651993	MonoUb:K164-PCNA homotrimer [nucleoplasm]	Complex	POS	AND
5693527	5693527	p-S1981,Ac-K3016-ATM [nucleoplasm]	EntityWithAccessionedSequence	5684122	5684122	3' overhanging ssDNA-DSBs:p-MRN:p-S1981,Ac-K3016-ATM:KAT5 [nucleoplasm]	Complex	POS	AND
5684116	5684116	3' overhanging ssDNA-DSBs:p-MRN [nucleoplasm]	Complex	5684122	5684122	3' overhanging ssDNA-DSBs:p-MRN:p-S1981,Ac-K3016-ATM:KAT5 [nucleoplasm]	Complex	POS	AND
3321979	3321979	KAT5 [nucleoplasm]	EntityWithAccessionedSequence	5684122	5684122	3' overhanging ssDNA-DSBs:p-MRN:p-S1981,Ac-K3016-ATM:KAT5 [nucleoplasm]	Complex	POS	AND
9707286	9707286	K6PolyUb,p-T714,T734-BARD1 [nucleoplasm]	EntityWithAccessionedSequence	9707296	9707296	K6PolyUb,p-5S-BRCA1:K6PolyUb,p-2T-BARD1 [nucleoplasm]	Complex	POS	AND
9707298	9707298	K6PolyUb,p-S988,S1387,S1423,S1524,S1547-BRCA1 [nucleoplasm]	EntityWithAccessionedSequence	9707296	9707296	K6PolyUb,p-5S-BRCA1:K6PolyUb,p-2T-BARD1 [nucleoplasm]	Complex	POS	AND
68459	68459	RPA3 [nucleoplasm]	EntityWithAccessionedSequence	5685169	5685169	p-RPA heterotrimer [nucleoplasm]	Complex	POS	AND
68461	68461	RPA1 [nucleoplasm]	EntityWithAccessionedSequence	5685169	5685169	p-RPA heterotrimer [nucleoplasm]	Complex	POS	AND
5685148	5685148	p-S33-RPA2 [nucleoplasm]	EntityWithAccessionedSequence	5685169	5685169	p-RPA heterotrimer [nucleoplasm]	Complex	POS	AND
5682984	5682984	p-S102-WHSC1 [nucleoplasm]	EntityWithAccessionedSequence	5682996	5682996	DNA DSBs:p-MRN:p-S1981,Ac-K3016-ATM:KAT5:K63PolyUb-K14,K16,p-S139-H2AFX,Me2K21-HIST1H4A-Nucleosome:p-5T-MDC1:p-S102-WHSC1 [nucleoplasm]	Complex	POS	AND
5682997	5682997	DNA DSBs:p-MRN:p-S1981,Ac-K3016-ATM:KAT5:K63PolyUb-K14,K16,p-S139-H2AFX,Me2K21-HIST1H4A-Nucleosome:p-5T-MDC1 [nucleoplasm]	Complex	5682996	5682996	DNA DSBs:p-MRN:p-S1981,Ac-K3016-ATM:KAT5:K63PolyUb-K14,K16,p-S139-H2AFX,Me2K21-HIST1H4A-Nucleosome:p-5T-MDC1:p-S102-WHSC1 [nucleoplasm]	Complex	POS	AND
5682608	5682608	RNF8:Zn2+:SUMO1:p-T4827-HERC2 [nucleoplasm]	Complex	5682631	5682631	RNF8:Zn2+:SUMO1:p-T4827-HERC2:UBE2N:UBE2V2 [nucleoplasm]	Complex	POS	AND
5682542	5682542	UBE2N:UBE2V2 [nucleoplasm]	Complex	5682631	5682631	RNF8:Zn2+:SUMO1:p-T4827-HERC2:UBE2N:UBE2V2 [nucleoplasm]	Complex	POS	AND
5659846	5659846	p-T714,T734-BARD1 [nucleoplasm]	EntityWithAccessionedSequence	5683809	5683809	p-5S-BRCA1:p-2T-BARD1 [nucleoplasm]	Complex	POS	AND
5683800	5683800	p-S988,S1387,S1423,S1524,S1547-BRCA1 [nucleoplasm]	EntityWithAccessionedSequence	5683809	5683809	p-5S-BRCA1:p-2T-BARD1 [nucleoplasm]	Complex	POS	AND
68449	68449	POLD1 [nucleoplasm]	EntityWithAccessionedSequence	68450	68450	DNA Polymerase delta tetramer [nucleoplasm]	Complex	POS	AND
68443	68443	POLD2 [nucleoplasm]	EntityWithAccessionedSequence	68450	68450	DNA Polymerase delta tetramer [nucleoplasm]	Complex	POS	AND
68445	68445	POLD3 [nucleoplasm]	EntityWithAccessionedSequence	68450	68450	DNA Polymerase delta tetramer [nucleoplasm]	Complex	POS	AND
68447	68447	POLD4 [nucleoplasm]	EntityWithAccessionedSequence	68450	68450	DNA Polymerase delta tetramer [nucleoplasm]	Complex	POS	AND
9763139	9763139	p-T3387-BRCA2:SEM1 [nucleoplasm]	Complex	5693545	5693545	SEM1:p-T3387-BRCA2:p-T309-RAD51 complex [nucleoplasm]	Complex	POS	AND
5685231	5685231	p-T309-RAD51 [nucleoplasm]	EntityWithAccessionedSequence	5693545	5693545	SEM1:p-T3387-BRCA2:p-T309-RAD51 complex [nucleoplasm]	Complex	POS	AND
5686438	5686438	EME2 [nucleoplasm]	EntityWithAccessionedSequence	8933489	8933489	MUS81:EME2 [nucleoplasm]	Complex	POS	AND
5686443	5686443	MUS81 [nucleoplasm]	EntityWithAccessionedSequence	8933489	8933489	MUS81:EME2 [nucleoplasm]	Complex	POS	AND
5686443	5686443	MUS81 [nucleoplasm]	EntityWithAccessionedSequence	8933490	8933490	MUS81:EME1 [nucleoplasm]	Complex	POS	AND
5686437	5686437	EME1 [nucleoplasm]	EntityWithAccessionedSequence	8933490	8933490	MUS81:EME1 [nucleoplasm]	Complex	POS	AND
68524	68524	Ub [nucleoplasm]	DefinedSet	5651984	5651984	MonoUb:K164-PCNA [nucleoplasm]	Complex	POS	AND
5651986	5651986	MonoUb-K164-PCNA [nucleoplasm]	EntityWithAccessionedSequence	5651984	5651984	MonoUb:K164-PCNA [nucleoplasm]	Complex	POS	AND
5682166	5682166	p-MRN [nucleoplasm]	Complex	5684116	5684116	3' overhanging ssDNA-DSBs:p-MRN [nucleoplasm]	Complex	POS	AND
75156	75156	3' overhanging DNA at resected DSB ends [nucleoplasm]	OtherEntity	5684116	5684116	3' overhanging ssDNA-DSBs:p-MRN [nucleoplasm]	Complex	POS	AND
5684138	5684138	p-S327,T847,T859-RBBP8 [nucleoplasm]	EntityWithAccessionedSequence	5684137	5684137	p-S327,T847,T859-RBBP8 homotetramer [nucleoplasm]	Complex	POS	AND
5682615	5682615	p-T4827,SUMO1-HERC2 [nucleoplasm]	EntityWithAccessionedSequence	5682608	5682608	RNF8:Zn2+:SUMO1:p-T4827-HERC2 [nucleoplasm]	Complex	POS	AND
5682540	5682540	RNF8:Zn2+ [nucleoplasm]	Complex	5682608	5682608	RNF8:Zn2+:SUMO1:p-T4827-HERC2 [nucleoplasm]	Complex	POS	AND
5682995	5682995	DNA DSBs:p-MRN:p-S1981,Ac-K3016-ATM:KAT5:K63PolyUb-K14,K16,p-S139-H2AFX,Me2K21-HIST1H4A-Nucleosome [nucleoplasm]	Complex	5682997	5682997	DNA DSBs:p-MRN:p-S1981,Ac-K3016-ATM:KAT5:K63PolyUb-K14,K16,p-S139-H2AFX,Me2K21-HIST1H4A-Nucleosome:p-5T-MDC1 [nucleoplasm]	Complex	POS	AND
5682525	5682525	p-5T-MDC1 [nucleoplasm]	Complex	5682997	5682997	DNA DSBs:p-MRN:p-S1981,Ac-K3016-ATM:KAT5:K63PolyUb-K14,K16,p-S139-H2AFX,Me2K21-HIST1H4A-Nucleosome:p-5T-MDC1 [nucleoplasm]	Complex	POS	AND
8866665	8866665	SEM1 [nucleoplasm]	EntityWithAccessionedSequence	9763139	9763139	p-T3387-BRCA2:SEM1 [nucleoplasm]	Complex	POS	AND
5685241	5685241	p-T3387-BRCA2 [nucleoplasm]	EntityWithAccessionedSequence	9763139	9763139	p-T3387-BRCA2:SEM1 [nucleoplasm]	Complex	POS	AND
5682543	5682543	UBE2V2 [nucleoplasm]	EntityWithAccessionedSequence	5682542	5682542	UBE2N:UBE2V2 [nucleoplasm]	Complex	POS	AND
5682541	5682541	UBE2N [nucleoplasm]	EntityWithAccessionedSequence	5682542	5682542	UBE2N:UBE2V2 [nucleoplasm]	Complex	POS	AND
5682539	5682539	RNF8 [nucleoplasm]	EntityWithAccessionedSequence	5682540	5682540	RNF8:Zn2+ [nucleoplasm]	Complex	POS	AND
5682162	5682162	DNA DSB:p-MRN:p-S1981,Ac-K3016-ATM:KAT5 [nucleoplasm]	Complex	5682995	5682995	DNA DSBs:p-MRN:p-S1981,Ac-K3016-ATM:KAT5:K63PolyUb-K14,K16,p-S139-H2AFX,Me2K21-HIST1H4A-Nucleosome [nucleoplasm]	Complex	POS	AND
5682998	5682998	K63PolyUb:K14,K16,p-S139-H2AFX,Me2K21-HIST1H4A-Nucleosome [nucleoplasm]	Complex	5682995	5682995	DNA DSBs:p-MRN:p-S1981,Ac-K3016-ATM:KAT5:K63PolyUb-K14,K16,p-S139-H2AFX,Me2K21-HIST1H4A-Nucleosome [nucleoplasm]	Complex	POS	AND
75236	75236	p-5T-MDC1 [nucleoplasm]	EntityWithAccessionedSequence	5682525	5682525	p-5T-MDC1 [nucleoplasm]	Complex	POS	AND
5693527	5693527	p-S1981,Ac-K3016-ATM [nucleoplasm]	EntityWithAccessionedSequence	5682162	5682162	DNA DSB:p-MRN:p-S1981,Ac-K3016-ATM:KAT5 [nucleoplasm]	Complex	POS	AND
3321979	3321979	KAT5 [nucleoplasm]	EntityWithAccessionedSequence	5682162	5682162	DNA DSB:p-MRN:p-S1981,Ac-K3016-ATM:KAT5 [nucleoplasm]	Complex	POS	AND
5682175	5682175	DNA DSBs:p-MRN [nucleoplasm]	Complex	5682162	5682162	DNA DSB:p-MRN:p-S1981,Ac-K3016-ATM:KAT5 [nucleoplasm]	Complex	POS	AND
5651652	5651652	Me2K21-HIST1H4 [nucleoplasm]	EntityWithAccessionedSequence	5682998	5682998	K63PolyUb:K14,K16,p-S139-H2AFX,Me2K21-HIST1H4A-Nucleosome [nucleoplasm]	Complex	POS	AND
181911	181911	Histone H2B [nucleoplasm]	CandidateSet	5682998	5682998	K63PolyUb:K14,K16,p-S139-H2AFX,Me2K21-HIST1H4A-Nucleosome [nucleoplasm]	Complex	POS	AND
181914	181914	HIST3H3 [nucleoplasm]	EntityWithAccessionedSequence	5682998	5682998	K63PolyUb:K14,K16,p-S139-H2AFX,Me2K21-HIST1H4A-Nucleosome [nucleoplasm]	Complex	POS	AND
5682847	5682847	K63PolyUb-K14,K16,p-S140-H2AFX [nucleoplasm]	EntityWithAccessionedSequence	5682998	5682998	K63PolyUb:K14,K16,p-S139-H2AFX,Me2K21-HIST1H4A-Nucleosome [nucleoplasm]	Complex	POS	AND
181923	181923	HIST3H2BB [nucleoplasm]	EntityWithAccessionedSequence	181911	181911	Histone H2B [nucleoplasm]	CandidateSet	POS	OR
181920	181920	HIST1H2BL [nucleoplasm]	EntityWithAccessionedSequence	181911	181911	Histone H2B [nucleoplasm]	CandidateSet	POS	OR
181898	181898	HIST1H2BK [nucleoplasm]	EntityWithAccessionedSequence	181911	181911	Histone H2B [nucleoplasm]	CandidateSet	POS	OR
181903	181903	HIST1H2BB [nucleoplasm]	EntityWithAccessionedSequence	181911	181911	Histone H2B [nucleoplasm]	CandidateSet	POS	OR
181900	181900	HIST1H2BJ [nucleoplasm]	EntityWithAccessionedSequence	181911	181911	Histone H2B [nucleoplasm]	CandidateSet	POS	OR
181906	181906	HIST1H2BC [nucleoplasm]	EntityWithAccessionedSequence	181911	181911	Histone H2B [nucleoplasm]	CandidateSet	POS	OR
181907	181907	HIST1H2BN [nucleoplasm]	EntityWithAccessionedSequence	181911	181911	Histone H2B [nucleoplasm]	CandidateSet	POS	OR
181904	181904	H2BFS [nucleoplasm]	EntityWithAccessionedSequence	181911	181911	Histone H2B [nucleoplasm]	CandidateSet	POS	OR
181910	181910	HIST1H2BO [nucleoplasm]	EntityWithAccessionedSequence	181911	181911	Histone H2B [nucleoplasm]	CandidateSet	POS	OR
181908	181908	HIST2H2BE [nucleoplasm]	EntityWithAccessionedSequence	181911	181911	Histone H2B [nucleoplasm]	CandidateSet	POS	OR
181915	181915	HIST1H2BH [nucleoplasm]	EntityWithAccessionedSequence	181911	181911	Histone H2B [nucleoplasm]	CandidateSet	POS	OR
181912	181912	HIST1H2BD [nucleoplasm]	EntityWithAccessionedSequence	181911	181911	Histone H2B [nucleoplasm]	CandidateSet	POS	OR
181916	181916	HIST1H2BA [nucleoplasm]	EntityWithAccessionedSequence	181911	181911	Histone H2B [nucleoplasm]	CandidateSet	POS	OR
181917	181917	HIST1H2BM [nucleoplasm]	EntityWithAccessionedSequence	181911	181911	Histone H2B [nucleoplasm]	CandidateSet	POS	OR
5682166	5682166	p-MRN [nucleoplasm]	Complex	5682175	5682175	DNA DSBs:p-MRN [nucleoplasm]	Complex	POS	AND
75165	75165	DNA double-strand break ends [nucleoplasm]	OtherEntity	5682175	5682175	DNA DSBs:p-MRN [nucleoplasm]	Complex	POS	AND
5686104_output	5686104	Extended D-Loop:p-MRN:p-S1981,Ac-K3016-ATM:KAT5:EXO1,DNA2:BLM,WRN:p-S990,Ac-K1249-BRIP1:p-BRCA1-C complex:PALB2:p-T3387-BRCA2:SEM1:p-T309-RAD51:RAD51AP1:CX3 complex [nucleoplasm]	Complex	5685311_output	5685311	CX3 complex [nucleoplasm]	Complex	POS	OR
5686104_output	5686104	Extended D-Loop:p-MRN:p-S1981,Ac-K3016-ATM:KAT5:EXO1,DNA2:BLM,WRN:p-S990,Ac-K1249-BRIP1:p-BRCA1-C complex:PALB2:p-T3387-BRCA2:SEM1:p-T309-RAD51:RAD51AP1:CX3 complex [nucleoplasm]	Complex	5686227_output	5686227	Extended D-Loop:p-MRN:p-S1981,Ac-K3016-ATM:KAT5:EXO1,DNA2:BLM,WRN:p-S990,Ac-K1249-BRIP1:p-BRCA1-C complex:PALB2:p-T3387-BRCA2:SEM1:p-T309-RAD51:RAD51AP1 [nucleoplasm]	Complex	POS	OR
5685983_output	5685983	3' short overhanging ssDNA-DSBs:p-MRN:p-S1981,Ac-K3016-ATM:KAT5:BRCA1-C complex [nucleoplasm]	Complex	5685656_output	5685656	BRCA1-C complex [nucleoplasm]	Complex	POS	OR
5685983_output	5685983	3' short overhanging ssDNA-DSBs:p-MRN:p-S1981,Ac-K3016-ATM:KAT5:BRCA1-C complex [nucleoplasm]	Complex	5685987_output	5685987	3' short overhanging ssDNA-DSBs:p-MRN:p-S1981,Ac-K3016-ATM:KAT5 [nucleoplasm]	Complex	POS	OR
5686493_output	5686493	Cleaved Holliday Junction:p-MRN:p-S1981,Ac-K3016-ATM:KAT5:EXO1,DNA2:BLM,WRN:p-BRCA1-C complex:PALB2:p-T3387-BRCA2:SEM1:p-T309-RAD51:RAD51AP1:CX3 complex [nucleoplasm]	Complex	5685311_output	5685311	CX3 complex [nucleoplasm]	Complex	POS	OR
5686493_output	5686493	Cleaved Holliday Junction:p-MRN:p-S1981,Ac-K3016-ATM:KAT5:EXO1,DNA2:BLM,WRN:p-BRCA1-C complex:PALB2:p-T3387-BRCA2:SEM1:p-T309-RAD51:RAD51AP1:CX3 complex [nucleoplasm]	Complex	5686487_output	5686487	Cleaved Holliday Junction:p-MRN:p-S1981,Ac-K3016-ATM:KAT5:EXO1,DNA2:BLM,WRN:p-BRCA1-C complex:PALB2:p-T3387-BRCA2:p-T309-RAD51:RAD51AP1 [nucleoplasm]	Complex	POS	OR
176353_output	176353	RAD17:RFC [nucleoplasm]	Complex	68433_output	68433	RFC2 [nucleoplasm]	EntityWithAccessionedSequence	POS	OR
176353_output	176353	RAD17:RFC [nucleoplasm]	Complex	3008665_output	3008665	RAD17 [nucleoplasm]	EntityWithAccessionedSequence	POS	OR
176353_output	176353	RAD17:RFC [nucleoplasm]	Complex	68427_output	68427	RFC5 [nucleoplasm]	EntityWithAccessionedSequence	POS	OR
176353_output	176353	RAD17:RFC [nucleoplasm]	Complex	68429_output	68429	RFC4 [nucleoplasm]	EntityWithAccessionedSequence	POS	OR
176353_output	176353	RAD17:RFC [nucleoplasm]	Complex	68431_output	68431	RFC3 [nucleoplasm]	EntityWithAccessionedSequence	POS	OR
5686613_output	5686613	RAD51:p-Y104-RAD52:p-RPA:ATR:ATRIP:DNA DSBs with annealed 3' ssDNA overhangs and displaced flaps:p-MRN:p-S1981,Ac-K3016-ATM:KAT5:BRCA1-C complex:EXO1,DNA2:BLM,WRN:p-S990,Ac-K1249-BRIP1:RAD17:RFC:RAD9:HUS1:RAD1:RHNO1:TOPBP1 [nucleoplasm]	Complex	62637_output	62637	RAD51 [nucleoplasm]	EntityWithAccessionedSequence	POS	OR
5686613_output	5686613	RAD51:p-Y104-RAD52:p-RPA:ATR:ATRIP:DNA DSBs with annealed 3' ssDNA overhangs and displaced flaps:p-MRN:p-S1981,Ac-K3016-ATM:KAT5:BRCA1-C complex:EXO1,DNA2:BLM,WRN:p-S990,Ac-K1249-BRIP1:RAD17:RFC:RAD9:HUS1:RAD1:RHNO1:TOPBP1 [nucleoplasm]	Complex	5686617_output	5686617	p-Y104-RAD52:p-RPA:ATR:ATRIP:DNA DSBs with annealed 3' ssDNA overhangs and displaced flaps:p-MRN:p-S1981,Ac-K3016-ATM:KAT5:BRCA1-C complex:EXO1,DNA2:BLM,WRN:p-S990,Ac-K1249-BRIP1:RAD17:RFC:RAD9:HUS1:RAD1:RHNO1:TOPBP1 [nucleoplasm]	Complex	POS	OR
5684077_output	5684077	K48PolyUb:SUMO2:K1840,p-5T-MDC1 dimer [nucleoplasm]	Complex	5684074_output	5684074	K48PolyUb,SUMO2-K1840,p-5T-MDC1 [nucleoplasm]	EntityWithAccessionedSequence	POS	OR
176269_output	176269	ATR:ATRIP [nucleoplasm]	Complex	176231_output	176231	ATRIP [nucleoplasm]	EntityWithAccessionedSequence	POS	OR
176269_output	176269	ATR:ATRIP [nucleoplasm]	Complex	912443_output	912443	ATR [nucleoplasm]	EntityWithAccessionedSequence	POS	OR
5684097_output	5684097	RBBP8 homotetramer [nucleoplasm]	Complex	912399_output	912399	RBBP8 [nucleoplasm]	EntityWithAccessionedSequence	POS	OR
5686474_output	5686474	SLX1A:SLX4:MUS81:EME1,(MUS81:EME2) [nucleoplasm]	Complex	8933487_output	8933487	MUS81:EME1, (MUS81:EME2) [nucleoplasm]	CandidateSet	POS	OR
5686474_output	5686474	SLX1A:SLX4:MUS81:EME1,(MUS81:EME2) [nucleoplasm]	Complex	5686480_output	5686480	SLX1A:SLX4 [nucleoplasm]	Complex	POS	OR
5682998_output	5682998	K63PolyUb:K14,K16,p-S139-H2AFX,Me2K21-HIST1H4A-Nucleosome [nucleoplasm]	Complex	5651652_output	5651652	Me2K21-HIST1H4 [nucleoplasm]	EntityWithAccessionedSequence	POS	OR
5682998_output	5682998	K63PolyUb:K14,K16,p-S139-H2AFX,Me2K21-HIST1H4A-Nucleosome [nucleoplasm]	Complex	181911_output	181911	Histone H2B [nucleoplasm]	CandidateSet	POS	OR
5682998_output	5682998	K63PolyUb:K14,K16,p-S139-H2AFX,Me2K21-HIST1H4A-Nucleosome [nucleoplasm]	Complex	181914_output	181914	HIST3H3 [nucleoplasm]	EntityWithAccessionedSequence	POS	OR
5682998_output	5682998	K63PolyUb:K14,K16,p-S139-H2AFX,Me2K21-HIST1H4A-Nucleosome [nucleoplasm]	Complex	5682847_output	5682847	K63PolyUb-K14,K16,p-S140-H2AFX [nucleoplasm]	EntityWithAccessionedSequence	POS	OR
5684874_output	5684874	ATR:ATRIP:RPA:3' overhanging ssDNA-DSBs:p-MRN:p-S1981,Ac-K3016-ATM:KAT5:BRCA1-C complex:EXO1,DNA2:BLM,WRN:p-S990,Ac-K1249-BRIP1 [nucleoplasm]	Complex	176269_output	176269	ATR:ATRIP [nucleoplasm]	Complex	POS	OR
5684874_output	5684874	ATR:ATRIP:RPA:3' overhanging ssDNA-DSBs:p-MRN:p-S1981,Ac-K3016-ATM:KAT5:BRCA1-C complex:EXO1,DNA2:BLM,WRN:p-S990,Ac-K1249-BRIP1 [nucleoplasm]	Complex	5693552_output	5693552	RPA:3' overhanging ssDNA-DSBs:p-MRN:p-S1981,Ac-K3016-ATM:KAT5:BRCA1-C complex:EXO1,DNA2:BLM,WRN:p-S990,Ac-K1249-BRIP1 [nucleoplasm]	Complex	POS	OR
5693552_output	5693552	RPA:3' overhanging ssDNA-DSBs:p-MRN:p-S1981,Ac-K3016-ATM:KAT5:BRCA1-C complex:EXO1,DNA2:BLM,WRN:p-S990,Ac-K1249-BRIP1 [nucleoplasm]	Complex	5684128_output	5684128	3' overhanging ssDNA-DSBs:p-MRN:p-S1981,Ac-K3016-ATM:KAT5:BRCA1-C complex:EXO1,DNA2:BLM,WRN:p-S990,Ac-K1249-BRIP1 [nucleoplasm]	Complex	POS	OR
5693552_output	5693552	RPA:3' overhanging ssDNA-DSBs:p-MRN:p-S1981,Ac-K3016-ATM:KAT5:BRCA1-C complex:EXO1,DNA2:BLM,WRN:p-S990,Ac-K1249-BRIP1 [nucleoplasm]	Complex	68462_output	68462	RPA heterotrimer [nucleoplasm]	Complex	POS	OR
83899_output	83899	RAD52 heptamer [nucleoplasm]	Complex	62639_output	62639	RAD52 [nucleoplasm]	EntityWithAccessionedSequence	POS	OR
5682542_output	5682542	UBE2N:UBE2V2 [nucleoplasm]	Complex	5682543_output	5682543	UBE2V2 [nucleoplasm]	EntityWithAccessionedSequence	POS	OR
5682542_output	5682542	UBE2N:UBE2V2 [nucleoplasm]	Complex	5682541_output	5682541	UBE2N [nucleoplasm]	EntityWithAccessionedSequence	POS	OR
5686589_output	5686589	p-Y104-RAD52 heptamer [nucleoplasm]	Complex	5686588_output	5686588	p-Y104-RAD52 [nucleoplasm]	EntityWithAccessionedSequence	POS	OR
9707299_output	9707299	p-5S-BRCA1:p-2T-BARD1 [nucleoplasm]	DefinedSet	9707296_output	9707296	K6PolyUb,p-5S-BRCA1:K6PolyUb,p-2T-BARD1 [nucleoplasm]	Complex	POS	OR
9707299_output	9707299	p-5S-BRCA1:p-2T-BARD1 [nucleoplasm]	DefinedSet	5683809_output	5683809	p-5S-BRCA1:p-2T-BARD1 [nucleoplasm]	Complex	POS	OR
5682162_output	5682162	DNA DSB:p-MRN:p-S1981,Ac-K3016-ATM:KAT5 [nucleoplasm]	Complex	5693527_output	5693527	p-S1981,Ac-K3016-ATM [nucleoplasm]	EntityWithAccessionedSequence	POS	OR
5682162_output	5682162	DNA DSB:p-MRN:p-S1981,Ac-K3016-ATM:KAT5 [nucleoplasm]	Complex	3321979_output	3321979	KAT5 [nucleoplasm]	EntityWithAccessionedSequence	POS	OR
5682162_output	5682162	DNA DSB:p-MRN:p-S1981,Ac-K3016-ATM:KAT5 [nucleoplasm]	Complex	5682175_output	5682175	DNA DSBs:p-MRN [nucleoplasm]	Complex	POS	OR
9763139_output	9763139	p-T3387-BRCA2:SEM1 [nucleoplasm]	Complex	8866665_output	8866665	SEM1 [nucleoplasm]	EntityWithAccessionedSequence	POS	OR
9763139_output	9763139	p-T3387-BRCA2:SEM1 [nucleoplasm]	Complex	5685241_output	5685241	p-T3387-BRCA2 [nucleoplasm]	EntityWithAccessionedSequence	POS	OR
68462_output	68462	RPA heterotrimer [nucleoplasm]	Complex	68457_output	68457	RPA2 [nucleoplasm]	EntityWithAccessionedSequence	POS	OR
68462_output	68462	RPA heterotrimer [nucleoplasm]	Complex	68459_output	68459	RPA3 [nucleoplasm]	EntityWithAccessionedSequence	POS	OR
68462_output	68462	RPA heterotrimer [nucleoplasm]	Complex	68461_output	68461	RPA1 [nucleoplasm]	EntityWithAccessionedSequence	POS	OR
5684135_output	5684135	DNA DSBs:p-MRN:p-S327,T847,T859-RBBP8:p-S1981,Ac-K3016-ATM:KAT5 [nucleoplasm]	Complex	5684137_output	5684137	p-S327,T847,T859-RBBP8 homotetramer [nucleoplasm]	Complex	POS	OR
5684135_output	5684135	DNA DSBs:p-MRN:p-S327,T847,T859-RBBP8:p-S1981,Ac-K3016-ATM:KAT5 [nucleoplasm]	Complex	5682162_output	5682162	DNA DSB:p-MRN:p-S1981,Ac-K3016-ATM:KAT5 [nucleoplasm]	Complex	POS	OR
5693545_output	5693545	SEM1:p-T3387-BRCA2:p-T309-RAD51 complex [nucleoplasm]	Complex	9763139_output	9763139	p-T3387-BRCA2:SEM1 [nucleoplasm]	Complex	POS	OR
5693545_output	5693545	SEM1:p-T3387-BRCA2:p-T309-RAD51 complex [nucleoplasm]	Complex	5685231_output	5685231	p-T309-RAD51 [nucleoplasm]	EntityWithAccessionedSequence	POS	OR
5686432_output	5686432	Cleaved D-Loop:p-MRN:p-S1981,Ac-K3016-ATM:KAT5:EXO1,DNA2:BLM,WRN:p-BRCA1-C complex:PALB2:p-T3387-BRCA2:p-T309-RAD51:RAD51AP1:CX3 complex [nucleoplasm]	Complex	5685311_output	5685311	CX3 complex [nucleoplasm]	Complex	POS	OR
5686432_output	5686432	Cleaved D-Loop:p-MRN:p-S1981,Ac-K3016-ATM:KAT5:EXO1,DNA2:BLM,WRN:p-BRCA1-C complex:PALB2:p-T3387-BRCA2:p-T309-RAD51:RAD51AP1:CX3 complex [nucleoplasm]	Complex	5686428_output	5686428	Cleaved D-Loop:p-MRN:p-S1981,Ac-K3016-ATM:KAT5:EXO1,DNA2:BLM,WRN:p-BRCA1-C complex:PALB2:p-T3387-BRCA2:p-T309-RAD51:RAD51AP1 [nucleoplasm]	Complex	POS	OR
5693547_output	5693547	p-Y104-RAD52:p-RPA:ATR:ATRIP:3' overhanging ssDNA-DSBs:p-MRN:p-S1981,Ac-K3016-ATM:KAT5:BRCA1-C complex:EXO1,DNA2:BLM,WRN:p-S990,Ac-K1249-BRIP1:RAD17:RFC:RAD9:HUS1:RAD1:RHNO1:TOPBP1 [nucleoplasm]	Complex	5685162_output	5685162	ATR:ATRIP:p-RPA:3' overhanging ssDNA-DSBs:p-MRN:p-S1981,Ac-K3016-ATM:KAT5:BRCA1-C complex:EXO1,DNA2:BLM,WRN:p-S990,Ac-K1249-BRIP1:RAD17:RFC:RAD9:HUS1:RAD1:RHNO1:TOPBP1 [nucleoplasm]	Complex	POS	OR
5693547_output	5693547	p-Y104-RAD52:p-RPA:ATR:ATRIP:3' overhanging ssDNA-DSBs:p-MRN:p-S1981,Ac-K3016-ATM:KAT5:BRCA1-C complex:EXO1,DNA2:BLM,WRN:p-S990,Ac-K1249-BRIP1:RAD17:RFC:RAD9:HUS1:RAD1:RHNO1:TOPBP1 [nucleoplasm]	Complex	5686589_output	5686589	p-Y104-RAD52 heptamer [nucleoplasm]	Complex	POS	OR
5684137_output	5684137	p-S327,T847,T859-RBBP8 homotetramer [nucleoplasm]	Complex	5684138_output	5684138	p-S327,T847,T859-RBBP8 [nucleoplasm]	EntityWithAccessionedSequence	POS	OR
5685317_output	5685317	3' overhanging ssDNA-DSBs:p-MRN:p-S1981,Ac-K3016-ATM:KAT5:BRCA1-C complex:EXO1,DNA2:BLM,WRN:p-S990,Ac-K1249-BRIP1:p-T309-RAD51:p-T3387-BRCA2:SEM1 [nucleoplasm]	Complex	5687710_output	5687710	p-S990,Ac-K1249-BRIP1 [nucleoplasm]	EntityWithAccessionedSequence	POS	OR
5685317_output	5685317	3' overhanging ssDNA-DSBs:p-MRN:p-S1981,Ac-K3016-ATM:KAT5:BRCA1-C complex:EXO1,DNA2:BLM,WRN:p-S990,Ac-K1249-BRIP1:p-T309-RAD51:p-T3387-BRCA2:SEM1 [nucleoplasm]	Complex	5685980_output	5685980	EXO1,DNA2:BLM,WRN [nucleoplasm]	DefinedSet	POS	OR
5685317_output	5685317	3' overhanging ssDNA-DSBs:p-MRN:p-S1981,Ac-K3016-ATM:KAT5:BRCA1-C complex:EXO1,DNA2:BLM,WRN:p-S990,Ac-K1249-BRIP1:p-T309-RAD51:p-T3387-BRCA2:SEM1 [nucleoplasm]	Complex	5684122_output	5684122	3' overhanging ssDNA-DSBs:p-MRN:p-S1981,Ac-K3016-ATM:KAT5 [nucleoplasm]	Complex	POS	OR
5685317_output	5685317	3' overhanging ssDNA-DSBs:p-MRN:p-S1981,Ac-K3016-ATM:KAT5:BRCA1-C complex:EXO1,DNA2:BLM,WRN:p-S990,Ac-K1249-BRIP1:p-T309-RAD51:p-T3387-BRCA2:SEM1 [nucleoplasm]	Complex	5685656_output	5685656	BRCA1-C complex [nucleoplasm]	Complex	POS	OR
5685317_output	5685317	3' overhanging ssDNA-DSBs:p-MRN:p-S1981,Ac-K3016-ATM:KAT5:BRCA1-C complex:EXO1,DNA2:BLM,WRN:p-S990,Ac-K1249-BRIP1:p-T309-RAD51:p-T3387-BRCA2:SEM1 [nucleoplasm]	Complex	5693545_output	5693545	SEM1:p-T3387-BRCA2:p-T309-RAD51 complex [nucleoplasm]	Complex	POS	OR
5685658_output	5685658	D-Loop:p-MRN:p-S1981,Ac-K3016-ATM:KAT5:EXO1,DNA2:BLM,WRN:p-S990,Ac-K1249-BRIP1:p-BRCA1-C complex:PALB2:p-T3387-BRCA2:SEM1:p-T309-RAD51:RAD51AP1 [nucleoplasm]	Complex	5687710_output	5687710	p-S990,Ac-K1249-BRIP1 [nucleoplasm]	EntityWithAccessionedSequence	POS	OR
5685658_output	5685658	D-Loop:p-MRN:p-S1981,Ac-K3016-ATM:KAT5:EXO1,DNA2:BLM,WRN:p-S990,Ac-K1249-BRIP1:p-BRCA1-C complex:PALB2:p-T3387-BRCA2:SEM1:p-T309-RAD51:RAD51AP1 [nucleoplasm]	Complex	5685980_output	5685980	EXO1,DNA2:BLM,WRN [nucleoplasm]	DefinedSet	POS	OR
5685658_output	5685658	D-Loop:p-MRN:p-S1981,Ac-K3016-ATM:KAT5:EXO1,DNA2:BLM,WRN:p-S990,Ac-K1249-BRIP1:p-BRCA1-C complex:PALB2:p-T3387-BRCA2:SEM1:p-T309-RAD51:RAD51AP1 [nucleoplasm]	Complex	5693527_output	5693527	p-S1981,Ac-K3016-ATM [nucleoplasm]	EntityWithAccessionedSequence	POS	OR
5685658_output	5685658	D-Loop:p-MRN:p-S1981,Ac-K3016-ATM:KAT5:EXO1,DNA2:BLM,WRN:p-S990,Ac-K1249-BRIP1:p-BRCA1-C complex:PALB2:p-T3387-BRCA2:SEM1:p-T309-RAD51:RAD51AP1 [nucleoplasm]	Complex	5682166_output	5682166	p-MRN [nucleoplasm]	Complex	POS	OR
5685658_output	5685658	D-Loop:p-MRN:p-S1981,Ac-K3016-ATM:KAT5:EXO1,DNA2:BLM,WRN:p-S990,Ac-K1249-BRIP1:p-BRCA1-C complex:PALB2:p-T3387-BRCA2:SEM1:p-T309-RAD51:RAD51AP1 [nucleoplasm]	Complex	3321979_output	3321979	KAT5 [nucleoplasm]	EntityWithAccessionedSequence	POS	OR
5685658_output	5685658	D-Loop:p-MRN:p-S1981,Ac-K3016-ATM:KAT5:EXO1,DNA2:BLM,WRN:p-S990,Ac-K1249-BRIP1:p-BRCA1-C complex:PALB2:p-T3387-BRCA2:SEM1:p-T309-RAD51:RAD51AP1 [nucleoplasm]	Complex	5685655_output	5685655	BRCA1-C complex:PALB2:p-T3387-BRCA2:SEM1:p-T309-RAD51:RAD51AP1 [nucleoplasm]	Complex	POS	OR
5685658_output	5685658	D-Loop:p-MRN:p-S1981,Ac-K3016-ATM:KAT5:EXO1,DNA2:BLM,WRN:p-S990,Ac-K1249-BRIP1:p-BRCA1-C complex:PALB2:p-T3387-BRCA2:SEM1:p-T309-RAD51:RAD51AP1 [nucleoplasm]	Complex	5685316_output	5685316	BCDX2 complex [nucleoplasm]	Complex	POS	OR
5685658_output	5685658	D-Loop:p-MRN:p-S1981,Ac-K3016-ATM:KAT5:EXO1,DNA2:BLM,WRN:p-S990,Ac-K1249-BRIP1:p-BRCA1-C complex:PALB2:p-T3387-BRCA2:SEM1:p-T309-RAD51:RAD51AP1 [nucleoplasm]	Complex	83893_output	83893	Heteroduplex DNA with D-loop structure with extended pairing between invading strand and complementary heteroduplex strand [nucleoplasm]	OtherEntity	POS	OR
5685162_output	5685162	ATR:ATRIP:p-RPA:3' overhanging ssDNA-DSBs:p-MRN:p-S1981,Ac-K3016-ATM:KAT5:BRCA1-C complex:EXO1,DNA2:BLM,WRN:p-S990,Ac-K1249-BRIP1:RAD17:RFC:RAD9:HUS1:RAD1:RHNO1:TOPBP1 [nucleoplasm]	Complex	176353_output	176353	RAD17:RFC [nucleoplasm]	Complex	POS	OR
5685162_output	5685162	ATR:ATRIP:p-RPA:3' overhanging ssDNA-DSBs:p-MRN:p-S1981,Ac-K3016-ATM:KAT5:BRCA1-C complex:EXO1,DNA2:BLM,WRN:p-S990,Ac-K1249-BRIP1:RAD17:RFC:RAD9:HUS1:RAD1:RHNO1:TOPBP1 [nucleoplasm]	Complex	5684880_output	5684880	RHNO1 [nucleoplasm]	EntityWithAccessionedSequence	POS	OR
5685162_output	5685162	ATR:ATRIP:p-RPA:3' overhanging ssDNA-DSBs:p-MRN:p-S1981,Ac-K3016-ATM:KAT5:BRCA1-C complex:EXO1,DNA2:BLM,WRN:p-S990,Ac-K1249-BRIP1:RAD17:RFC:RAD9:HUS1:RAD1:RHNO1:TOPBP1 [nucleoplasm]	Complex	5684878_output	5684878	TOPBP1 [nucleoplasm]	EntityWithAccessionedSequence	POS	OR
5685162_output	5685162	ATR:ATRIP:p-RPA:3' overhanging ssDNA-DSBs:p-MRN:p-S1981,Ac-K3016-ATM:KAT5:BRCA1-C complex:EXO1,DNA2:BLM,WRN:p-S990,Ac-K1249-BRIP1:RAD17:RFC:RAD9:HUS1:RAD1:RHNO1:TOPBP1 [nucleoplasm]	Complex	176312_output	176312	RAD9:HUS1:RAD1 [nucleoplasm]	Complex	POS	OR
5685162_output	5685162	ATR:ATRIP:p-RPA:3' overhanging ssDNA-DSBs:p-MRN:p-S1981,Ac-K3016-ATM:KAT5:BRCA1-C complex:EXO1,DNA2:BLM,WRN:p-S990,Ac-K1249-BRIP1:RAD17:RFC:RAD9:HUS1:RAD1:RHNO1:TOPBP1 [nucleoplasm]	Complex	5687710_output	5687710	p-S990,Ac-K1249-BRIP1 [nucleoplasm]	EntityWithAccessionedSequence	POS	OR
5685162_output	5685162	ATR:ATRIP:p-RPA:3' overhanging ssDNA-DSBs:p-MRN:p-S1981,Ac-K3016-ATM:KAT5:BRCA1-C complex:EXO1,DNA2:BLM,WRN:p-S990,Ac-K1249-BRIP1:RAD17:RFC:RAD9:HUS1:RAD1:RHNO1:TOPBP1 [nucleoplasm]	Complex	5685980_output	5685980	EXO1,DNA2:BLM,WRN [nucleoplasm]	DefinedSet	POS	OR
5685162_output	5685162	ATR:ATRIP:p-RPA:3' overhanging ssDNA-DSBs:p-MRN:p-S1981,Ac-K3016-ATM:KAT5:BRCA1-C complex:EXO1,DNA2:BLM,WRN:p-S990,Ac-K1249-BRIP1:RAD17:RFC:RAD9:HUS1:RAD1:RHNO1:TOPBP1 [nucleoplasm]	Complex	5685178_output	5685178	ATR:ATRIP:p-RPA:3' overhanging ssDNA-DSBs:p-MRN:p-S1981,Ac-K3016-ATM:KAT5:BRCA1-C complex [nucleoplasm]	Complex	POS	OR
5682540_output	5682540	RNF8:Zn2+ [nucleoplasm]	Complex	5682539_output	5682539	RNF8 [nucleoplasm]	EntityWithAccessionedSequence	POS	OR
9763138_output	9763138	BRCA2:SEM1 [cytosol]	Complex	8866674_output	8866674	SEM1 [cytosol]	EntityWithAccessionedSequence	POS	OR
9763138_output	9763138	BRCA2:SEM1 [cytosol]	Complex	9709265_output	9709265	BRCA2 [cytosol]	EntityWithAccessionedSequence	POS	OR
5685343_output	5685343	3' overhanging ssDNA-DSBs:p-MRN:p-S1981,Ac-K3016-ATM:KAT5:BRCA1-C complex:EXO1,DNA2:BLM,WRN:p-S990,Ac-K1249-BRIP1:p-T309-RAD51:p-T3387-BRCA2:SEM1:BCDX2 complex [nucleoplasm]	Complex	5685317_output	5685317	3' overhanging ssDNA-DSBs:p-MRN:p-S1981,Ac-K3016-ATM:KAT5:BRCA1-C complex:EXO1,DNA2:BLM,WRN:p-S990,Ac-K1249-BRIP1:p-T309-RAD51:p-T3387-BRCA2:SEM1 [nucleoplasm]	Complex	POS	OR
5685343_output	5685343	3' overhanging ssDNA-DSBs:p-MRN:p-S1981,Ac-K3016-ATM:KAT5:BRCA1-C complex:EXO1,DNA2:BLM,WRN:p-S990,Ac-K1249-BRIP1:p-T309-RAD51:p-T3387-BRCA2:SEM1:BCDX2 complex [nucleoplasm]	Complex	5685316_output	5685316	BCDX2 complex [nucleoplasm]	Complex	POS	OR
5685311_output	5685311	CX3 complex [nucleoplasm]	Complex	5685303_output	5685303	XRCC3 [nucleoplasm]	EntityWithAccessionedSequence	POS	OR
5685311_output	5685311	CX3 complex [nucleoplasm]	Complex	217039_output	217039	RAD51C [nucleoplasm]	EntityWithAccessionedSequence	POS	OR
5682166_output	5682166	p-MRN [nucleoplasm]	Complex	75237_output	75237	p-S343-NBN [nucleoplasm]	EntityWithAccessionedSequence	POS	OR
5682166_output	5682166	p-MRN [nucleoplasm]	Complex	59544_output	59544	MRE11A [nucleoplasm]	EntityWithAccessionedSequence	POS	OR
5682166_output	5682166	p-MRN [nucleoplasm]	Complex	75160_output	75160	RAD50 [nucleoplasm]	EntityWithAccessionedSequence	POS	OR
5685826_output	5685826	D-Loop:p-MRN:p-S1981,Ac-K3016-ATM:KAT5:EXO1,DNA2:BLM,WRN:p-S990,Ac-K1249-BRIP1:p-BRCA1-C complex:PALB2:p-T3387-BRCA2:SEM1:p-T309-RAD51:RAD51AP1:CX3 complex [nucleoplasm]	Complex	5685311_output	5685311	CX3 complex [nucleoplasm]	Complex	POS	OR
5685826_output	5685826	D-Loop:p-MRN:p-S1981,Ac-K3016-ATM:KAT5:EXO1,DNA2:BLM,WRN:p-S990,Ac-K1249-BRIP1:p-BRCA1-C complex:PALB2:p-T3387-BRCA2:SEM1:p-T309-RAD51:RAD51AP1:CX3 complex [nucleoplasm]	Complex	5685658_output	5685658	D-Loop:p-MRN:p-S1981,Ac-K3016-ATM:KAT5:EXO1,DNA2:BLM,WRN:p-S990,Ac-K1249-BRIP1:p-BRCA1-C complex:PALB2:p-T3387-BRCA2:SEM1:p-T309-RAD51:RAD51AP1 [nucleoplasm]	Complex	POS	OR
5684985_output	5684985	TIMELESS:TIPIN [nucleoplasm]	Complex	5684982_output	5684982	TIMELESS [nucleoplasm]	EntityWithAccessionedSequence	POS	OR
5684985_output	5684985	TIMELESS:TIPIN [nucleoplasm]	Complex	5684983_output	5684983	TIPIN [nucleoplasm]	EntityWithAccessionedSequence	POS	OR
5685316_output	5685316	BCDX2 complex [nucleoplasm]	Complex	217039_output	217039	RAD51C [nucleoplasm]	EntityWithAccessionedSequence	POS	OR
5685316_output	5685316	BCDX2 complex [nucleoplasm]	Complex	5685302_output	5685302	XRCC2 [nucleoplasm]	EntityWithAccessionedSequence	POS	OR
5685316_output	5685316	BCDX2 complex [nucleoplasm]	Complex	983271_output	983271	RAD51B [nucleoplasm]	EntityWithAccessionedSequence	POS	OR
5685316_output	5685316	BCDX2 complex [nucleoplasm]	Complex	216920_output	216920	RAD51D [nucleoplasm]	EntityWithAccessionedSequence	POS	OR
5684053_output	5684053	DNA DNA DSBs:p-MRN:p-S1981,Ac-K3016-ATM:KAT5:K63PolyUb-K14,K16,p-S139-H2AFX,Me2K21-HIST1H4A-Nucleosome:SUMO2:K1840,p-5T-MDC1:p-S102-WHSC1:RNF8:Zn2+:SUMO1:p-T4827-HERC2:UBE2N:UBE2V2:RNF168:PIAS4:p-S25,S1778-TP53BP1:p-5S,2T-BRCA1-A complex [nucleoplasm]	Complex	5684065_output	5684065	DNA DNA DSBs:p-MRN:p-S1981,Ac-K3016-ATM:KAT5:K63PolyUb-K14,K16,p-S139-H2AFX,Me2K21-HIST1H4A-Nucleosome:SUMO2:K1840,p-5T-MDC1:p-S102-WHSC1:RNF8:Zn2+:SUMO1:p-T4827-HERC2:UBE2N:UBE2V2:RNF168:PIAS4:p-S25,S1778-TP53BP1 [nucleoplasm]	Complex	POS	OR
5684053_output	5684053	DNA DNA DSBs:p-MRN:p-S1981,Ac-K3016-ATM:KAT5:K63PolyUb-K14,K16,p-S139-H2AFX,Me2K21-HIST1H4A-Nucleosome:SUMO2:K1840,p-5T-MDC1:p-S102-WHSC1:RNF8:Zn2+:SUMO1:p-T4827-HERC2:UBE2N:UBE2V2:RNF168:PIAS4:p-S25,S1778-TP53BP1:p-5S,2T-BRCA1-A complex [nucleoplasm]	Complex	5683806_output	5683806	p-5S,2T-BRCA1-A Complex [nucleoplasm]	Complex	POS	OR
176312_output	176312	RAD9:HUS1:RAD1 [nucleoplasm]	Complex	176374_output	176374	HUS1 [nucleoplasm]	EntityWithAccessionedSequence	POS	OR
176312_output	176312	RAD9:HUS1:RAD1 [nucleoplasm]	Complex	176222_output	176222	RAD9 [nucleoplasm]	DefinedSet	POS	OR
176312_output	176312	RAD9:HUS1:RAD1 [nucleoplasm]	Complex	176382_output	176382	RAD1 [nucleoplasm]	EntityWithAccessionedSequence	POS	OR
5685169_output	5685169	p-RPA heterotrimer [nucleoplasm]	Complex	68459_output	68459	RPA3 [nucleoplasm]	EntityWithAccessionedSequence	POS	OR
5685169_output	5685169	p-RPA heterotrimer [nucleoplasm]	Complex	68461_output	68461	RPA1 [nucleoplasm]	EntityWithAccessionedSequence	POS	OR
5685169_output	5685169	p-RPA heterotrimer [nucleoplasm]	Complex	5685148_output	5685148	p-S33-RPA2 [nucleoplasm]	EntityWithAccessionedSequence	POS	OR
187952_output	187952	CCNA:p-T160-CDK2 [nucleoplasm]	Complex	75202_output	75202	CCNA [nucleoplasm]	CandidateSet	POS	OR
187952_output	187952	CCNA:p-T160-CDK2 [nucleoplasm]	Complex	187967_output	187967	p-T160-CDK2 [nucleoplasm]	EntityWithAccessionedSequence	POS	OR
5685980_output	5685980	EXO1,DNA2:BLM,WRN [nucleoplasm]	DefinedSet	5685974_output	5685974	DNA2:BLM:TOP3A:RMI1:RMI2 [nucleoplasm]	Complex	POS	OR
5685980_output	5685980	EXO1,DNA2:BLM,WRN [nucleoplasm]	DefinedSet	5685969_output	5685969	DNA2:WRN [nucleoplasm]	Complex	POS	OR
5685980_output	5685980	EXO1,DNA2:BLM,WRN [nucleoplasm]	DefinedSet	5685976_output	5685976	EXO1:BLM,WRN [nucleoplasm]	Complex	POS	OR
5684128_output	5684128	3' overhanging ssDNA-DSBs:p-MRN:p-S1981,Ac-K3016-ATM:KAT5:BRCA1-C complex:EXO1,DNA2:BLM,WRN:p-S990,Ac-K1249-BRIP1 [nucleoplasm]	Complex	5687710_output	5687710	p-S990,Ac-K1249-BRIP1 [nucleoplasm]	EntityWithAccessionedSequence	POS	OR
5684128_output	5684128	3' overhanging ssDNA-DSBs:p-MRN:p-S1981,Ac-K3016-ATM:KAT5:BRCA1-C complex:EXO1,DNA2:BLM,WRN:p-S990,Ac-K1249-BRIP1 [nucleoplasm]	Complex	5685980_output	5685980	EXO1,DNA2:BLM,WRN [nucleoplasm]	DefinedSet	POS	OR
5684128_output	5684128	3' overhanging ssDNA-DSBs:p-MRN:p-S1981,Ac-K3016-ATM:KAT5:BRCA1-C complex:EXO1,DNA2:BLM,WRN:p-S990,Ac-K1249-BRIP1 [nucleoplasm]	Complex	5684122_output	5684122	3' overhanging ssDNA-DSBs:p-MRN:p-S1981,Ac-K3016-ATM:KAT5 [nucleoplasm]	Complex	POS	OR
5684128_output	5684128	3' overhanging ssDNA-DSBs:p-MRN:p-S1981,Ac-K3016-ATM:KAT5:BRCA1-C complex:EXO1,DNA2:BLM,WRN:p-S990,Ac-K1249-BRIP1 [nucleoplasm]	Complex	5685656_output	5685656	BRCA1-C complex [nucleoplasm]	Complex	POS	OR
5686480_output	5686480	SLX1A:SLX4 [nucleoplasm]	Complex	5686481_output	5686481	SLX1A [nucleoplasm]	EntityWithAccessionedSequence	POS	OR
5686480_output	5686480	SLX1A:SLX4 [nucleoplasm]	Complex	5686477_output	5686477	SLX4 [nucleoplasm]	EntityWithAccessionedSequence	POS	OR
5685178_output	5685178	ATR:ATRIP:p-RPA:3' overhanging ssDNA-DSBs:p-MRN:p-S1981,Ac-K3016-ATM:KAT5:BRCA1-C complex [nucleoplasm]	Complex	176269_output	176269	ATR:ATRIP [nucleoplasm]	Complex	POS	OR
5685178_output	5685178	ATR:ATRIP:p-RPA:3' overhanging ssDNA-DSBs:p-MRN:p-S1981,Ac-K3016-ATM:KAT5:BRCA1-C complex [nucleoplasm]	Complex	5685161_output	5685161	p-RPA:3' overhanging ssDNA-DSBs:p-MRN:p-S1981,Ac-K3016-ATM:KAT5:BRCA1-C complex [nucleoplasm]	Complex	POS	OR
5684065_output	5684065	DNA DNA DSBs:p-MRN:p-S1981,Ac-K3016-ATM:KAT5:K63PolyUb-K14,K16,p-S139-H2AFX,Me2K21-HIST1H4A-Nucleosome:SUMO2:K1840,p-5T-MDC1:p-S102-WHSC1:RNF8:Zn2+:SUMO1:p-T4827-HERC2:UBE2N:UBE2V2:RNF168:PIAS4:p-S25,S1778-TP53BP1 [nucleoplasm]	Complex	5683418_output	5683418	p-S25,S1778-TP53BP1 [nucleoplasm]	EntityWithAccessionedSequence	POS	OR
5684065_output	5684065	DNA DNA DSBs:p-MRN:p-S1981,Ac-K3016-ATM:KAT5:K63PolyUb-K14,K16,p-S139-H2AFX,Me2K21-HIST1H4A-Nucleosome:SUMO2:K1840,p-5T-MDC1:p-S102-WHSC1:RNF8:Zn2+:SUMO1:p-T4827-HERC2:UBE2N:UBE2V2:RNF168:PIAS4:p-S25,S1778-TP53BP1 [nucleoplasm]	Complex	5684058_output	5684058	DNA DSBs:p-MRN:p-S1981,Ac-K3016-ATM:KAT5:K63PolyUb-K14,K16,p-S139-H2AFX,Me2K21-HIST1H4A-Nucleosome:SUMO2:K1840,p-5T-MDC1:p-S102-WHSC1:RNF8:Zn2+:SUMO1:p-T4827-HERC2:UBE2N:UBE2V2:RNF168:PIAS4 [nucleoplasm]	Complex	POS	OR
5683806_output	5683806	p-5S,2T-BRCA1-A Complex [nucleoplasm]	Complex	9707299_output	9707299	p-5S-BRCA1:p-2T-BARD1 [nucleoplasm]	DefinedSet	POS	OR
5683806_output	5683806	p-5S,2T-BRCA1-A Complex [nucleoplasm]	Complex	5682582_output	5682582	BABAM1 [nucleoplasm]	EntityWithAccessionedSequence	POS	OR
5683806_output	5683806	p-5S,2T-BRCA1-A Complex [nucleoplasm]	Complex	5682579_output	5682579	BRE [nucleoplasm]	EntityWithAccessionedSequence	POS	OR
5683806_output	5683806	p-5S,2T-BRCA1-A Complex [nucleoplasm]	Complex	5682577_output	5682577	BRCC3 [nucleoplasm]	EntityWithAccessionedSequence	POS	OR
5683806_output	5683806	p-5S,2T-BRCA1-A Complex [nucleoplasm]	Complex	5682574_output	5682574	UIMC1 [nucleoplasm]	EntityWithAccessionedSequence	POS	OR
5683806_output	5683806	p-5S,2T-BRCA1-A Complex [nucleoplasm]	Complex	5682575_output	5682575	p-S406-FAM175A [nucleoplasm]	EntityWithAccessionedSequence	POS	OR
5686227_output	5686227	Extended D-Loop:p-MRN:p-S1981,Ac-K3016-ATM:KAT5:EXO1,DNA2:BLM,WRN:p-S990,Ac-K1249-BRIP1:p-BRCA1-C complex:PALB2:p-T3387-BRCA2:SEM1:p-T309-RAD51:RAD51AP1 [nucleoplasm]	Complex	5687710_output	5687710	p-S990,Ac-K1249-BRIP1 [nucleoplasm]	EntityWithAccessionedSequence	POS	OR
5686227_output	5686227	Extended D-Loop:p-MRN:p-S1981,Ac-K3016-ATM:KAT5:EXO1,DNA2:BLM,WRN:p-S990,Ac-K1249-BRIP1:p-BRCA1-C complex:PALB2:p-T3387-BRCA2:SEM1:p-T309-RAD51:RAD51AP1 [nucleoplasm]	Complex	5685980_output	5685980	EXO1,DNA2:BLM,WRN [nucleoplasm]	DefinedSet	POS	OR
5686227_output	5686227	Extended D-Loop:p-MRN:p-S1981,Ac-K3016-ATM:KAT5:EXO1,DNA2:BLM,WRN:p-S990,Ac-K1249-BRIP1:p-BRCA1-C complex:PALB2:p-T3387-BRCA2:SEM1:p-T309-RAD51:RAD51AP1 [nucleoplasm]	Complex	5693527_output	5693527	p-S1981,Ac-K3016-ATM [nucleoplasm]	EntityWithAccessionedSequence	POS	OR
5686227_output	5686227	Extended D-Loop:p-MRN:p-S1981,Ac-K3016-ATM:KAT5:EXO1,DNA2:BLM,WRN:p-S990,Ac-K1249-BRIP1:p-BRCA1-C complex:PALB2:p-T3387-BRCA2:SEM1:p-T309-RAD51:RAD51AP1 [nucleoplasm]	Complex	5682166_output	5682166	p-MRN [nucleoplasm]	Complex	POS	OR
5686227_output	5686227	Extended D-Loop:p-MRN:p-S1981,Ac-K3016-ATM:KAT5:EXO1,DNA2:BLM,WRN:p-S990,Ac-K1249-BRIP1:p-BRCA1-C complex:PALB2:p-T3387-BRCA2:SEM1:p-T309-RAD51:RAD51AP1 [nucleoplasm]	Complex	3321979_output	3321979	KAT5 [nucleoplasm]	EntityWithAccessionedSequence	POS	OR
5686227_output	5686227	Extended D-Loop:p-MRN:p-S1981,Ac-K3016-ATM:KAT5:EXO1,DNA2:BLM,WRN:p-S990,Ac-K1249-BRIP1:p-BRCA1-C complex:PALB2:p-T3387-BRCA2:SEM1:p-T309-RAD51:RAD51AP1 [nucleoplasm]	Complex	5685655_output	5685655	BRCA1-C complex:PALB2:p-T3387-BRCA2:SEM1:p-T309-RAD51:RAD51AP1 [nucleoplasm]	Complex	POS	OR
5686227_output	5686227	Extended D-Loop:p-MRN:p-S1981,Ac-K3016-ATM:KAT5:EXO1,DNA2:BLM,WRN:p-S990,Ac-K1249-BRIP1:p-BRCA1-C complex:PALB2:p-T3387-BRCA2:SEM1:p-T309-RAD51:RAD51AP1 [nucleoplasm]	Complex	5685316_output	5685316	BCDX2 complex [nucleoplasm]	Complex	POS	OR
5686227_output	5686227	Extended D-Loop:p-MRN:p-S1981,Ac-K3016-ATM:KAT5:EXO1,DNA2:BLM,WRN:p-S990,Ac-K1249-BRIP1:p-BRCA1-C complex:PALB2:p-T3387-BRCA2:SEM1:p-T309-RAD51:RAD51AP1 [nucleoplasm]	Complex	5686092_output	5686092	Extended D-loop [nucleoplasm]	OtherEntity	POS	OR
5685974_output	5685974	DNA2:BLM:TOP3A:RMI1:RMI2 [nucleoplasm]	Complex	68465_output	68465	DNA2 [nucleoplasm]	EntityWithAccessionedSequence	POS	OR
5685974_output	5685974	DNA2:BLM:TOP3A:RMI1:RMI2 [nucleoplasm]	Complex	5685972_output	5685972	BLM:TOP3A:RMI1:RMI2 [nucleoplasm]	Complex	POS	OR
9707296_output	9707296	K6PolyUb,p-5S-BRCA1:K6PolyUb,p-2T-BARD1 [nucleoplasm]	Complex	9707286_output	9707286	K6PolyUb,p-T714,T734-BARD1 [nucleoplasm]	EntityWithAccessionedSequence	POS	OR
9707296_output	9707296	K6PolyUb,p-5S-BRCA1:K6PolyUb,p-2T-BARD1 [nucleoplasm]	Complex	9707298_output	9707298	K6PolyUb,p-S988,S1387,S1423,S1524,S1547-BRCA1 [nucleoplasm]	EntityWithAccessionedSequence	POS	OR
5686487_output	5686487	Cleaved Holliday Junction:p-MRN:p-S1981,Ac-K3016-ATM:KAT5:EXO1,DNA2:BLM,WRN:p-BRCA1-C complex:PALB2:p-T3387-BRCA2:p-T309-RAD51:RAD51AP1 [nucleoplasm]	Complex	5687710_output	5687710	p-S990,Ac-K1249-BRIP1 [nucleoplasm]	EntityWithAccessionedSequence	POS	OR
5686487_output	5686487	Cleaved Holliday Junction:p-MRN:p-S1981,Ac-K3016-ATM:KAT5:EXO1,DNA2:BLM,WRN:p-BRCA1-C complex:PALB2:p-T3387-BRCA2:p-T309-RAD51:RAD51AP1 [nucleoplasm]	Complex	5685980_output	5685980	EXO1,DNA2:BLM,WRN [nucleoplasm]	DefinedSet	POS	OR
5686487_output	5686487	Cleaved Holliday Junction:p-MRN:p-S1981,Ac-K3016-ATM:KAT5:EXO1,DNA2:BLM,WRN:p-BRCA1-C complex:PALB2:p-T3387-BRCA2:p-T309-RAD51:RAD51AP1 [nucleoplasm]	Complex	5693527_output	5693527	p-S1981,Ac-K3016-ATM [nucleoplasm]	EntityWithAccessionedSequence	POS	OR
5686487_output	5686487	Cleaved Holliday Junction:p-MRN:p-S1981,Ac-K3016-ATM:KAT5:EXO1,DNA2:BLM,WRN:p-BRCA1-C complex:PALB2:p-T3387-BRCA2:p-T309-RAD51:RAD51AP1 [nucleoplasm]	Complex	5682166_output	5682166	p-MRN [nucleoplasm]	Complex	POS	OR
5686487_output	5686487	Cleaved Holliday Junction:p-MRN:p-S1981,Ac-K3016-ATM:KAT5:EXO1,DNA2:BLM,WRN:p-BRCA1-C complex:PALB2:p-T3387-BRCA2:p-T309-RAD51:RAD51AP1 [nucleoplasm]	Complex	3321979_output	3321979	KAT5 [nucleoplasm]	EntityWithAccessionedSequence	POS	OR
5686487_output	5686487	Cleaved Holliday Junction:p-MRN:p-S1981,Ac-K3016-ATM:KAT5:EXO1,DNA2:BLM,WRN:p-BRCA1-C complex:PALB2:p-T3387-BRCA2:p-T309-RAD51:RAD51AP1 [nucleoplasm]	Complex	5685655_output	5685655	BRCA1-C complex:PALB2:p-T3387-BRCA2:SEM1:p-T309-RAD51:RAD51AP1 [nucleoplasm]	Complex	POS	OR
5686487_output	5686487	Cleaved Holliday Junction:p-MRN:p-S1981,Ac-K3016-ATM:KAT5:EXO1,DNA2:BLM,WRN:p-BRCA1-C complex:PALB2:p-T3387-BRCA2:p-T309-RAD51:RAD51AP1 [nucleoplasm]	Complex	5685316_output	5685316	BCDX2 complex [nucleoplasm]	Complex	POS	OR
5686487_output	5686487	Cleaved Holliday Junction:p-MRN:p-S1981,Ac-K3016-ATM:KAT5:EXO1,DNA2:BLM,WRN:p-BRCA1-C complex:PALB2:p-T3387-BRCA2:p-T309-RAD51:RAD51AP1 [nucleoplasm]	Complex	83636_output	83636	cleaved Holliday structure [nucleoplasm]	OtherEntity	POS	OR
5684122_output	5684122	3' overhanging ssDNA-DSBs:p-MRN:p-S1981,Ac-K3016-ATM:KAT5 [nucleoplasm]	Complex	5693527_output	5693527	p-S1981,Ac-K3016-ATM [nucleoplasm]	EntityWithAccessionedSequence	POS	OR
5684122_output	5684122	3' overhanging ssDNA-DSBs:p-MRN:p-S1981,Ac-K3016-ATM:KAT5 [nucleoplasm]	Complex	5684116_output	5684116	3' overhanging ssDNA-DSBs:p-MRN [nucleoplasm]	Complex	POS	OR
5684122_output	5684122	3' overhanging ssDNA-DSBs:p-MRN:p-S1981,Ac-K3016-ATM:KAT5 [nucleoplasm]	Complex	3321979_output	3321979	KAT5 [nucleoplasm]	EntityWithAccessionedSequence	POS	OR
8933487_output	8933487	MUS81:EME1, (MUS81:EME2) [nucleoplasm]	CandidateSet	8933489_output	8933489	MUS81:EME2 [nucleoplasm]	Complex	POS	OR
8933487_output	8933487	MUS81:EME1, (MUS81:EME2) [nucleoplasm]	CandidateSet	8933490_output	8933490	MUS81:EME1 [nucleoplasm]	Complex	POS	OR
5685969_output	5685969	DNA2:WRN [nucleoplasm]	Complex	68465_output	68465	DNA2 [nucleoplasm]	EntityWithAccessionedSequence	POS	OR
5685969_output	5685969	DNA2:WRN [nucleoplasm]	Complex	67387_output	67387	WRN [nucleoplasm]	EntityWithAccessionedSequence	POS	OR
5683809_output	5683809	p-5S-BRCA1:p-2T-BARD1 [nucleoplasm]	Complex	5659846_output	5659846	p-T714,T734-BARD1 [nucleoplasm]	EntityWithAccessionedSequence	POS	OR
5683809_output	5683809	p-5S-BRCA1:p-2T-BARD1 [nucleoplasm]	Complex	5683800_output	5683800	p-S988,S1387,S1423,S1524,S1547-BRCA1 [nucleoplasm]	EntityWithAccessionedSequence	POS	OR
5685976_output	5685976	EXO1:BLM,WRN [nucleoplasm]	Complex	5685968_output	5685968	BLM,WRN [nucleoplasm]	CandidateSet	POS	OR
5685976_output	5685976	EXO1:BLM,WRN [nucleoplasm]	Complex	5357514_output	5357514	EXO1 [nucleoplasm]	EntityWithAccessionedSequence	POS	OR
5686428_output	5686428	Cleaved D-Loop:p-MRN:p-S1981,Ac-K3016-ATM:KAT5:EXO1,DNA2:BLM,WRN:p-BRCA1-C complex:PALB2:p-T3387-BRCA2:p-T309-RAD51:RAD51AP1 [nucleoplasm]	Complex	5687710_output	5687710	p-S990,Ac-K1249-BRIP1 [nucleoplasm]	EntityWithAccessionedSequence	POS	OR
5686428_output	5686428	Cleaved D-Loop:p-MRN:p-S1981,Ac-K3016-ATM:KAT5:EXO1,DNA2:BLM,WRN:p-BRCA1-C complex:PALB2:p-T3387-BRCA2:p-T309-RAD51:RAD51AP1 [nucleoplasm]	Complex	5685980_output	5685980	EXO1,DNA2:BLM,WRN [nucleoplasm]	DefinedSet	POS	OR
5686428_output	5686428	Cleaved D-Loop:p-MRN:p-S1981,Ac-K3016-ATM:KAT5:EXO1,DNA2:BLM,WRN:p-BRCA1-C complex:PALB2:p-T3387-BRCA2:p-T309-RAD51:RAD51AP1 [nucleoplasm]	Complex	5693527_output	5693527	p-S1981,Ac-K3016-ATM [nucleoplasm]	EntityWithAccessionedSequence	POS	OR
5686428_output	5686428	Cleaved D-Loop:p-MRN:p-S1981,Ac-K3016-ATM:KAT5:EXO1,DNA2:BLM,WRN:p-BRCA1-C complex:PALB2:p-T3387-BRCA2:p-T309-RAD51:RAD51AP1 [nucleoplasm]	Complex	5682166_output	5682166	p-MRN [nucleoplasm]	Complex	POS	OR
5686428_output	5686428	Cleaved D-Loop:p-MRN:p-S1981,Ac-K3016-ATM:KAT5:EXO1,DNA2:BLM,WRN:p-BRCA1-C complex:PALB2:p-T3387-BRCA2:p-T309-RAD51:RAD51AP1 [nucleoplasm]	Complex	3321979_output	3321979	KAT5 [nucleoplasm]	EntityWithAccessionedSequence	POS	OR
5686428_output	5686428	Cleaved D-Loop:p-MRN:p-S1981,Ac-K3016-ATM:KAT5:EXO1,DNA2:BLM,WRN:p-BRCA1-C complex:PALB2:p-T3387-BRCA2:p-T309-RAD51:RAD51AP1 [nucleoplasm]	Complex	5685655_output	5685655	BRCA1-C complex:PALB2:p-T3387-BRCA2:SEM1:p-T309-RAD51:RAD51AP1 [nucleoplasm]	Complex	POS	OR
5686428_output	5686428	Cleaved D-Loop:p-MRN:p-S1981,Ac-K3016-ATM:KAT5:EXO1,DNA2:BLM,WRN:p-BRCA1-C complex:PALB2:p-T3387-BRCA2:p-T309-RAD51:RAD51AP1 [nucleoplasm]	Complex	5685316_output	5685316	BCDX2 complex [nucleoplasm]	Complex	POS	OR
5686428_output	5686428	Cleaved D-Loop:p-MRN:p-S1981,Ac-K3016-ATM:KAT5:EXO1,DNA2:BLM,WRN:p-BRCA1-C complex:PALB2:p-T3387-BRCA2:p-T309-RAD51:RAD51AP1 [nucleoplasm]	Complex	5686442_output	5686442	Cleaved D-loop [nucleoplasm]	OtherEntity	POS	OR
176222_output	176222	RAD9 [nucleoplasm]	DefinedSet	176372_output	176372	RAD9A [nucleoplasm]	EntityWithAccessionedSequence	POS	OR
176222_output	176222	RAD9 [nucleoplasm]	DefinedSet	176325_output	176325	RAD9B [nucleoplasm]	EntityWithAccessionedSequence	POS	OR
5685655_output	5685655	BRCA1-C complex:PALB2:p-T3387-BRCA2:SEM1:p-T309-RAD51:RAD51AP1 [nucleoplasm]	Complex	5685656_output	5685656	BRCA1-C complex [nucleoplasm]	Complex	POS	OR
5685655_output	5685655	BRCA1-C complex:PALB2:p-T3387-BRCA2:SEM1:p-T309-RAD51:RAD51AP1 [nucleoplasm]	Complex	5693545_output	5693545	SEM1:p-T3387-BRCA2:p-T309-RAD51 complex [nucleoplasm]	Complex	POS	OR
5685655_output	5685655	BRCA1-C complex:PALB2:p-T3387-BRCA2:SEM1:p-T309-RAD51:RAD51AP1 [nucleoplasm]	Complex	5685301_output	5685301	RAD51AP1 [nucleoplasm]	EntityWithAccessionedSequence	POS	OR
5685655_output	5685655	BRCA1-C complex:PALB2:p-T3387-BRCA2:SEM1:p-T309-RAD51:RAD51AP1 [nucleoplasm]	Complex	419548_output	419548	PALB2 [nucleoplasm]	EntityWithAccessionedSequence	POS	OR
5685656_output	5685656	BRCA1-C complex [nucleoplasm]	Complex	9707299_output	9707299	p-5S-BRCA1:p-2T-BARD1 [nucleoplasm]	DefinedSet	POS	OR
5685656_output	5685656	BRCA1-C complex [nucleoplasm]	Complex	5684137_output	5684137	p-S327,T847,T859-RBBP8 homotetramer [nucleoplasm]	Complex	POS	OR
5682175_output	5682175	DNA DSBs:p-MRN [nucleoplasm]	Complex	5682166_output	5682166	p-MRN [nucleoplasm]	Complex	POS	OR
5682175_output	5682175	DNA DSBs:p-MRN [nucleoplasm]	Complex	75165_output	75165	DNA double-strand break ends [nucleoplasm]	OtherEntity	POS	OR
5686617_output	5686617	p-Y104-RAD52:p-RPA:ATR:ATRIP:DNA DSBs with annealed 3' ssDNA overhangs and displaced flaps:p-MRN:p-S1981,Ac-K3016-ATM:KAT5:BRCA1-C complex:EXO1,DNA2:BLM,WRN:p-S990,Ac-K1249-BRIP1:RAD17:RFC:RAD9:HUS1:RAD1:RHNO1:TOPBP1 [nucleoplasm]	Complex	5686589_output	5686589	p-Y104-RAD52 heptamer [nucleoplasm]	Complex	POS	OR
5686617_output	5686617	p-Y104-RAD52:p-RPA:ATR:ATRIP:DNA DSBs with annealed 3' ssDNA overhangs and displaced flaps:p-MRN:p-S1981,Ac-K3016-ATM:KAT5:BRCA1-C complex:EXO1,DNA2:BLM,WRN:p-S990,Ac-K1249-BRIP1:RAD17:RFC:RAD9:HUS1:RAD1:RHNO1:TOPBP1 [nucleoplasm]	Complex	5686616_output	5686616	ATR:ATRIP:p-RPA:DNA DSBs with annealed 3' ssDNA overhangs and displaced flaps:p-MRN:p-S1981,Ac-K3016-ATM:KAT5:BRCA1-C complex:EXO1,DNA2:BLM,WRN:p-S990,Ac-K1249-BRIP1:RAD17:RFC:RAD9:HUS1:RAD1:RHNO1:TOPBP1 [nucleoplasm]	Complex	POS	OR
181911_output	181911	Histone H2B [nucleoplasm]	CandidateSet	181923_output	181923	HIST3H2BB [nucleoplasm]	EntityWithAccessionedSequence	POS	OR
181911_output	181911	Histone H2B [nucleoplasm]	CandidateSet	181920_output	181920	HIST1H2BL [nucleoplasm]	EntityWithAccessionedSequence	POS	OR
181911_output	181911	Histone H2B [nucleoplasm]	CandidateSet	181898_output	181898	HIST1H2BK [nucleoplasm]	EntityWithAccessionedSequence	POS	OR
181911_output	181911	Histone H2B [nucleoplasm]	CandidateSet	181903_output	181903	HIST1H2BB [nucleoplasm]	EntityWithAccessionedSequence	POS	OR
181911_output	181911	Histone H2B [nucleoplasm]	CandidateSet	181900_output	181900	HIST1H2BJ [nucleoplasm]	EntityWithAccessionedSequence	POS	OR
181911_output	181911	Histone H2B [nucleoplasm]	CandidateSet	181906_output	181906	HIST1H2BC [nucleoplasm]	EntityWithAccessionedSequence	POS	OR
181911_output	181911	Histone H2B [nucleoplasm]	CandidateSet	181907_output	181907	HIST1H2BN [nucleoplasm]	EntityWithAccessionedSequence	POS	OR
181911_output	181911	Histone H2B [nucleoplasm]	CandidateSet	181904_output	181904	H2BFS [nucleoplasm]	EntityWithAccessionedSequence	POS	OR
181911_output	181911	Histone H2B [nucleoplasm]	CandidateSet	181910_output	181910	HIST1H2BO [nucleoplasm]	EntityWithAccessionedSequence	POS	OR
181911_output	181911	Histone H2B [nucleoplasm]	CandidateSet	181908_output	181908	HIST2H2BE [nucleoplasm]	EntityWithAccessionedSequence	POS	OR
181911_output	181911	Histone H2B [nucleoplasm]	CandidateSet	181915_output	181915	HIST1H2BH [nucleoplasm]	EntityWithAccessionedSequence	POS	OR
181911_output	181911	Histone H2B [nucleoplasm]	CandidateSet	181912_output	181912	HIST1H2BD [nucleoplasm]	EntityWithAccessionedSequence	POS	OR
181911_output	181911	Histone H2B [nucleoplasm]	CandidateSet	181916_output	181916	HIST1H2BA [nucleoplasm]	EntityWithAccessionedSequence	POS	OR
181911_output	181911	Histone H2B [nucleoplasm]	CandidateSet	181917_output	181917	HIST1H2BM [nucleoplasm]	EntityWithAccessionedSequence	POS	OR
75202_output	75202	CCNA [nucleoplasm]	CandidateSet	68905_output	68905	CCNA2 [nucleoplasm]	EntityWithAccessionedSequence	POS	OR
75202_output	75202	CCNA [nucleoplasm]	CandidateSet	68891_output	68891	CCNA1 [nucleoplasm]	EntityWithAccessionedSequence	POS	OR
5685987_output	5685987	3' short overhanging ssDNA-DSBs:p-MRN:p-S1981,Ac-K3016-ATM:KAT5 [nucleoplasm]	Complex	5693527_output	5693527	p-S1981,Ac-K3016-ATM [nucleoplasm]	EntityWithAccessionedSequence	POS	OR
5685987_output	5685987	3' short overhanging ssDNA-DSBs:p-MRN:p-S1981,Ac-K3016-ATM:KAT5 [nucleoplasm]	Complex	3321979_output	3321979	KAT5 [nucleoplasm]	EntityWithAccessionedSequence	POS	OR
5685987_output	5685987	3' short overhanging ssDNA-DSBs:p-MRN:p-S1981,Ac-K3016-ATM:KAT5 [nucleoplasm]	Complex	5685986_output	5685986	3' short overhanging ssDNA-DSBs:p-MRN [nucleoplasm]	Complex	POS	OR
5686616_output	5686616	ATR:ATRIP:p-RPA:DNA DSBs with annealed 3' ssDNA overhangs and displaced flaps:p-MRN:p-S1981,Ac-K3016-ATM:KAT5:BRCA1-C complex:EXO1,DNA2:BLM,WRN:p-S990,Ac-K1249-BRIP1:RAD17:RFC:RAD9:HUS1:RAD1:RHNO1:TOPBP1 [nucleoplasm]	Complex	176353_output	176353	RAD17:RFC [nucleoplasm]	Complex	POS	OR
5686616_output	5686616	ATR:ATRIP:p-RPA:DNA DSBs with annealed 3' ssDNA overhangs and displaced flaps:p-MRN:p-S1981,Ac-K3016-ATM:KAT5:BRCA1-C complex:EXO1,DNA2:BLM,WRN:p-S990,Ac-K1249-BRIP1:RAD17:RFC:RAD9:HUS1:RAD1:RHNO1:TOPBP1 [nucleoplasm]	Complex	5684880_output	5684880	RHNO1 [nucleoplasm]	EntityWithAccessionedSequence	POS	OR
5686616_output	5686616	ATR:ATRIP:p-RPA:DNA DSBs with annealed 3' ssDNA overhangs and displaced flaps:p-MRN:p-S1981,Ac-K3016-ATM:KAT5:BRCA1-C complex:EXO1,DNA2:BLM,WRN:p-S990,Ac-K1249-BRIP1:RAD17:RFC:RAD9:HUS1:RAD1:RHNO1:TOPBP1 [nucleoplasm]	Complex	5684878_output	5684878	TOPBP1 [nucleoplasm]	EntityWithAccessionedSequence	POS	OR
5686616_output	5686616	ATR:ATRIP:p-RPA:DNA DSBs with annealed 3' ssDNA overhangs and displaced flaps:p-MRN:p-S1981,Ac-K3016-ATM:KAT5:BRCA1-C complex:EXO1,DNA2:BLM,WRN:p-S990,Ac-K1249-BRIP1:RAD17:RFC:RAD9:HUS1:RAD1:RHNO1:TOPBP1 [nucleoplasm]	Complex	176312_output	176312	RAD9:HUS1:RAD1 [nucleoplasm]	Complex	POS	OR
5686616_output	5686616	ATR:ATRIP:p-RPA:DNA DSBs with annealed 3' ssDNA overhangs and displaced flaps:p-MRN:p-S1981,Ac-K3016-ATM:KAT5:BRCA1-C complex:EXO1,DNA2:BLM,WRN:p-S990,Ac-K1249-BRIP1:RAD17:RFC:RAD9:HUS1:RAD1:RHNO1:TOPBP1 [nucleoplasm]	Complex	5687710_output	5687710	p-S990,Ac-K1249-BRIP1 [nucleoplasm]	EntityWithAccessionedSequence	POS	OR
5686616_output	5686616	ATR:ATRIP:p-RPA:DNA DSBs with annealed 3' ssDNA overhangs and displaced flaps:p-MRN:p-S1981,Ac-K3016-ATM:KAT5:BRCA1-C complex:EXO1,DNA2:BLM,WRN:p-S990,Ac-K1249-BRIP1:RAD17:RFC:RAD9:HUS1:RAD1:RHNO1:TOPBP1 [nucleoplasm]	Complex	5685980_output	5685980	EXO1,DNA2:BLM,WRN [nucleoplasm]	DefinedSet	POS	OR
5686616_output	5686616	ATR:ATRIP:p-RPA:DNA DSBs with annealed 3' ssDNA overhangs and displaced flaps:p-MRN:p-S1981,Ac-K3016-ATM:KAT5:BRCA1-C complex:EXO1,DNA2:BLM,WRN:p-S990,Ac-K1249-BRIP1:RAD17:RFC:RAD9:HUS1:RAD1:RHNO1:TOPBP1 [nucleoplasm]	Complex	5686619_output	5686619	ATR:ATRIP:p-RPA:DNA DSBs with annealed 3' ssDNA overhangs and displaced flaps:p-MRN:p-S1981,Ac-K3016-ATM:KAT5:BRCA1-C complex [nucleoplasm]	Complex	POS	OR
5685986_output	5685986	3' short overhanging ssDNA-DSBs:p-MRN [nucleoplasm]	Complex	5682166_output	5682166	p-MRN [nucleoplasm]	Complex	POS	OR
5685986_output	5685986	3' short overhanging ssDNA-DSBs:p-MRN [nucleoplasm]	Complex	5685984_output	5685984	3' short overhanging ssDNA-DSBs [nucleoplasm]	OtherEntity	POS	OR
8933490_output	8933490	MUS81:EME1 [nucleoplasm]	Complex	5686443_output	5686443	MUS81 [nucleoplasm]	EntityWithAccessionedSequence	POS	OR
8933490_output	8933490	MUS81:EME1 [nucleoplasm]	Complex	5686437_output	5686437	EME1 [nucleoplasm]	EntityWithAccessionedSequence	POS	OR
5684116_output	5684116	3' overhanging ssDNA-DSBs:p-MRN [nucleoplasm]	Complex	5682166_output	5682166	p-MRN [nucleoplasm]	Complex	POS	OR
5684116_output	5684116	3' overhanging ssDNA-DSBs:p-MRN [nucleoplasm]	Complex	75156_output	75156	3' overhanging DNA at resected DSB ends [nucleoplasm]	OtherEntity	POS	OR
5685972_output	5685972	BLM:TOP3A:RMI1:RMI2 [nucleoplasm]	Complex	174881_output	174881	BLM [nucleoplasm]	EntityWithAccessionedSequence	POS	OR
5685972_output	5685972	BLM:TOP3A:RMI1:RMI2 [nucleoplasm]	Complex	912452_output	912452	TOP3A [nucleoplasm]	EntityWithAccessionedSequence	POS	OR
5685972_output	5685972	BLM:TOP3A:RMI1:RMI2 [nucleoplasm]	Complex	5685951_output	5685951	RMI2 [nucleoplasm]	EntityWithAccessionedSequence	POS	OR
5685972_output	5685972	BLM:TOP3A:RMI1:RMI2 [nucleoplasm]	Complex	5685949_output	5685949	RMI1 [nucleoplasm]	EntityWithAccessionedSequence	POS	OR
5685161_output	5685161	p-RPA:3' overhanging ssDNA-DSBs:p-MRN:p-S1981,Ac-K3016-ATM:KAT5:BRCA1-C complex [nucleoplasm]	Complex	5684122_output	5684122	3' overhanging ssDNA-DSBs:p-MRN:p-S1981,Ac-K3016-ATM:KAT5 [nucleoplasm]	Complex	POS	OR
5685161_output	5685161	p-RPA:3' overhanging ssDNA-DSBs:p-MRN:p-S1981,Ac-K3016-ATM:KAT5:BRCA1-C complex [nucleoplasm]	Complex	5685656_output	5685656	BRCA1-C complex [nucleoplasm]	Complex	POS	OR
5685161_output	5685161	p-RPA:3' overhanging ssDNA-DSBs:p-MRN:p-S1981,Ac-K3016-ATM:KAT5:BRCA1-C complex [nucleoplasm]	Complex	5685169_output	5685169	p-RPA heterotrimer [nucleoplasm]	Complex	POS	OR
5685968_output	5685968	BLM,WRN [nucleoplasm]	CandidateSet	174881_output	174881	BLM [nucleoplasm]	EntityWithAccessionedSequence	POS	OR
5685968_output	5685968	BLM,WRN [nucleoplasm]	CandidateSet	67387_output	67387	WRN [nucleoplasm]	EntityWithAccessionedSequence	POS	OR
5684058_output	5684058	DNA DSBs:p-MRN:p-S1981,Ac-K3016-ATM:KAT5:K63PolyUb-K14,K16,p-S139-H2AFX,Me2K21-HIST1H4A-Nucleosome:SUMO2:K1840,p-5T-MDC1:p-S102-WHSC1:RNF8:Zn2+:SUMO1:p-T4827-HERC2:UBE2N:UBE2V2:RNF168:PIAS4 [nucleoplasm]	Complex	2993789_output	2993789	PIAS4 [nucleoplasm]	EntityWithAccessionedSequence	POS	OR
5684058_output	5684058	DNA DSBs:p-MRN:p-S1981,Ac-K3016-ATM:KAT5:K63PolyUb-K14,K16,p-S139-H2AFX,Me2K21-HIST1H4A-Nucleosome:SUMO2:K1840,p-5T-MDC1:p-S102-WHSC1:RNF8:Zn2+:SUMO1:p-T4827-HERC2:UBE2N:UBE2V2:RNF168:PIAS4 [nucleoplasm]	Complex	4551605_output	4551605	RNF168 [nucleoplasm]	EntityWithAccessionedSequence	POS	OR
5684058_output	5684058	DNA DSBs:p-MRN:p-S1981,Ac-K3016-ATM:KAT5:K63PolyUb-K14,K16,p-S139-H2AFX,Me2K21-HIST1H4A-Nucleosome:SUMO2:K1840,p-5T-MDC1:p-S102-WHSC1:RNF8:Zn2+:SUMO1:p-T4827-HERC2:UBE2N:UBE2V2:RNF168:PIAS4 [nucleoplasm]	Complex	5682631_output	5682631	RNF8:Zn2+:SUMO1:p-T4827-HERC2:UBE2N:UBE2V2 [nucleoplasm]	Complex	POS	OR
5684058_output	5684058	DNA DSBs:p-MRN:p-S1981,Ac-K3016-ATM:KAT5:K63PolyUb-K14,K16,p-S139-H2AFX,Me2K21-HIST1H4A-Nucleosome:SUMO2:K1840,p-5T-MDC1:p-S102-WHSC1:RNF8:Zn2+:SUMO1:p-T4827-HERC2:UBE2N:UBE2V2:RNF168:PIAS4 [nucleoplasm]	Complex	5684063_output	5684063	DNA DSBs:p-MRN:p-S1981,Ac-K3016-ATM:KAT5:K63PolyUb-K14,K16,p-S139-H2AFX,Me2K21-HIST1H4A-Nucleosome:SUMO2:K1840,p-5T-MDC1:p-S102-WHSC1 [nucleoplasm]	Complex	POS	OR
8933489_output	8933489	MUS81:EME2 [nucleoplasm]	Complex	5686438_output	5686438	EME2 [nucleoplasm]	EntityWithAccessionedSequence	POS	OR
8933489_output	8933489	MUS81:EME2 [nucleoplasm]	Complex	5686443_output	5686443	MUS81 [nucleoplasm]	EntityWithAccessionedSequence	POS	OR
5686619_output	5686619	ATR:ATRIP:p-RPA:DNA DSBs with annealed 3' ssDNA overhangs and displaced flaps:p-MRN:p-S1981,Ac-K3016-ATM:KAT5:BRCA1-C complex [nucleoplasm]	Complex	176269_output	176269	ATR:ATRIP [nucleoplasm]	Complex	POS	OR
5686619_output	5686619	ATR:ATRIP:p-RPA:DNA DSBs with annealed 3' ssDNA overhangs and displaced flaps:p-MRN:p-S1981,Ac-K3016-ATM:KAT5:BRCA1-C complex [nucleoplasm]	Complex	5686615_output	5686615	p-RPA:DNA DSBs with annealed 3' ssDNA overhangs and displaced flaps:p-MRN:p-S1981,Ac-K3016-ATM:KAT5:BRCA1-C complex [nucleoplasm]	Complex	POS	OR
5684063_output	5684063	DNA DSBs:p-MRN:p-S1981,Ac-K3016-ATM:KAT5:K63PolyUb-K14,K16,p-S139-H2AFX,Me2K21-HIST1H4A-Nucleosome:SUMO2:K1840,p-5T-MDC1:p-S102-WHSC1 [nucleoplasm]	Complex	5684064_output	5684064	DNA DSBs:p-MRN:p-S1981,Ac-K3016-ATM:KAT5:K63PolyUb-K14,K16,p-S139-H2AFX,Me2K21-HIST1H4A-Nucleosome:SUMO2:K1840,p-5T-MDC1 [nucleoplasm]	Complex	POS	OR
5684063_output	5684063	DNA DSBs:p-MRN:p-S1981,Ac-K3016-ATM:KAT5:K63PolyUb-K14,K16,p-S139-H2AFX,Me2K21-HIST1H4A-Nucleosome:SUMO2:K1840,p-5T-MDC1:p-S102-WHSC1 [nucleoplasm]	Complex	5682984_output	5682984	p-S102-WHSC1 [nucleoplasm]	EntityWithAccessionedSequence	POS	OR
5682631_output	5682631	RNF8:Zn2+:SUMO1:p-T4827-HERC2:UBE2N:UBE2V2 [nucleoplasm]	Complex	5682608_output	5682608	RNF8:Zn2+:SUMO1:p-T4827-HERC2 [nucleoplasm]	Complex	POS	OR
5682631_output	5682631	RNF8:Zn2+:SUMO1:p-T4827-HERC2:UBE2N:UBE2V2 [nucleoplasm]	Complex	5682542_output	5682542	UBE2N:UBE2V2 [nucleoplasm]	Complex	POS	OR
5686615_output	5686615	p-RPA:DNA DSBs with annealed 3' ssDNA overhangs and displaced flaps:p-MRN:p-S1981,Ac-K3016-ATM:KAT5:BRCA1-C complex [nucleoplasm]	Complex	5685656_output	5685656	BRCA1-C complex [nucleoplasm]	Complex	POS	OR
5686615_output	5686615	p-RPA:DNA DSBs with annealed 3' ssDNA overhangs and displaced flaps:p-MRN:p-S1981,Ac-K3016-ATM:KAT5:BRCA1-C complex [nucleoplasm]	Complex	5685169_output	5685169	p-RPA heterotrimer [nucleoplasm]	Complex	POS	OR
5686615_output	5686615	p-RPA:DNA DSBs with annealed 3' ssDNA overhangs and displaced flaps:p-MRN:p-S1981,Ac-K3016-ATM:KAT5:BRCA1-C complex [nucleoplasm]	Complex	5686614_output	5686614	DNA DSB with annealed 3' ssDNA overhangs and displaced flaps:p-MRN:p-S1981,Ac-K3016-ATM:KAT5 [nucleoplasm]	Complex	POS	OR
5684064_output	5684064	DNA DSBs:p-MRN:p-S1981,Ac-K3016-ATM:KAT5:K63PolyUb-K14,K16,p-S139-H2AFX,Me2K21-HIST1H4A-Nucleosome:SUMO2:K1840,p-5T-MDC1 [nucleoplasm]	Complex	5684054_output	5684054	SUMO2:K1840,p-5T-MDC1 dimer [nucleoplasm]	Complex	POS	OR
5684064_output	5684064	DNA DSBs:p-MRN:p-S1981,Ac-K3016-ATM:KAT5:K63PolyUb-K14,K16,p-S139-H2AFX,Me2K21-HIST1H4A-Nucleosome:SUMO2:K1840,p-5T-MDC1 [nucleoplasm]	Complex	5682995_output	5682995	DNA DSBs:p-MRN:p-S1981,Ac-K3016-ATM:KAT5:K63PolyUb-K14,K16,p-S139-H2AFX,Me2K21-HIST1H4A-Nucleosome [nucleoplasm]	Complex	POS	OR
5682608_output	5682608	RNF8:Zn2+:SUMO1:p-T4827-HERC2 [nucleoplasm]	Complex	5682615_output	5682615	p-T4827,SUMO1-HERC2 [nucleoplasm]	EntityWithAccessionedSequence	POS	OR
5682608_output	5682608	RNF8:Zn2+:SUMO1:p-T4827-HERC2 [nucleoplasm]	Complex	5682540_output	5682540	RNF8:Zn2+ [nucleoplasm]	Complex	POS	OR
5682995_output	5682995	DNA DSBs:p-MRN:p-S1981,Ac-K3016-ATM:KAT5:K63PolyUb-K14,K16,p-S139-H2AFX,Me2K21-HIST1H4A-Nucleosome [nucleoplasm]	Complex	5682162_output	5682162	DNA DSB:p-MRN:p-S1981,Ac-K3016-ATM:KAT5 [nucleoplasm]	Complex	POS	OR
5682995_output	5682995	DNA DSBs:p-MRN:p-S1981,Ac-K3016-ATM:KAT5:K63PolyUb-K14,K16,p-S139-H2AFX,Me2K21-HIST1H4A-Nucleosome [nucleoplasm]	Complex	5682998_output	5682998	K63PolyUb:K14,K16,p-S139-H2AFX,Me2K21-HIST1H4A-Nucleosome [nucleoplasm]	Complex	POS	OR
5684054_output	5684054	SUMO2:K1840,p-5T-MDC1 dimer [nucleoplasm]	Complex	5684061_output	5684061	SUMO2-K1840,p-5T-MDC1 [nucleoplasm]	EntityWithAccessionedSequence	POS	OR
5686614_output	5686614	DNA DSB with annealed 3' ssDNA overhangs and displaced flaps:p-MRN:p-S1981,Ac-K3016-ATM:KAT5 [nucleoplasm]	Complex	5693527_output	5693527	p-S1981,Ac-K3016-ATM [nucleoplasm]	EntityWithAccessionedSequence	POS	OR
5686614_output	5686614	DNA DSB with annealed 3' ssDNA overhangs and displaced flaps:p-MRN:p-S1981,Ac-K3016-ATM:KAT5 [nucleoplasm]	Complex	3321979_output	3321979	KAT5 [nucleoplasm]	EntityWithAccessionedSequence	POS	OR
5686614_output	5686614	DNA DSB with annealed 3' ssDNA overhangs and displaced flaps:p-MRN:p-S1981,Ac-K3016-ATM:KAT5 [nucleoplasm]	Complex	5686620_output	5686620	DNA DSB with annealed 3' ssDNA overhangs and displaced flaps:p-MRN [nucleoplasm]	Complex	POS	OR
5686620_output	5686620	DNA DSB with annealed 3' ssDNA overhangs and displaced flaps:p-MRN [nucleoplasm]	Complex	5682166_output	5682166	p-MRN [nucleoplasm]	Complex	POS	OR
5686620_output	5686620	DNA DSB with annealed 3' ssDNA overhangs and displaced flaps:p-MRN [nucleoplasm]	Complex	5686618_output	5686618	DNA DSB with annealed 3' overhanging ssDNA and flaps [nucleoplasm]	OtherEntity	POS	OR
